SUBURB,POSTCODE,STATE,ZONE
BARANGAROO,2000,NSW,SYD
DARLING HARBOUR,2000,NSW,SYD
DAWES POINT,2000,NSW,SYD
HAYMARKET,2000,NSW,SYD
MILLERS POINT,2000,NSW,SYD
PARLIAMENT HOUSE,2000,NSW,SYD
SYDNEY,2000,NSW,SYD
SYDNEY SOUTH,2000,NSW,SYD
THE ROCKS,2000,NSW,SYD
SYDNEY,2001,NSW,SYD
WORLD SQUARE,2002,NSW,SYD
ALEXANDRIA MC,2004,NSW,SYD
EASTERN SUBURBS MC,2004,NSW,SYD
THE UNIVERSITY OF SYDNEY,2006,NSW,SYD
BROADWAY,2007,NSW,SYD
ULTIMO,2007,NSW,SYD
CHIPPENDALE,2008,NSW,SYD
DARLINGTON,2008,NSW,SYD
GOLDEN GROVE,2008,NSW,SYD
DARLING ISLAND,2009,NSW,SYD
PYRMONT,2009,NSW,SYD
DARLINGHURST,2010,NSW,SYD
SURRY HILLS,2010,NSW,SYD
TAYLOR SQUARE,2010,NSW,SYD
ELIZABETH BAY,2011,NSW,SYD
HMAS KUTTABUL,2011,NSW,SYD
KINGS CROSS,2011,NSW,SYD
POTTS POINT,2011,NSW,SYD
RUSHCUTTERS BAY,2011,NSW,SYD
WOOLLOOMOOLOO,2011,NSW,SYD
STRAWBERRY HILLS,2012,NSW,SYD
STRAWBERRY HILLS,2013,NSW,SYD
ALEXANDRIA,2015,NSW,SYD
BEACONSFIELD,2015,NSW,SYD
EVELEIGH,2015,NSW,SYD
REDFERN,2016,NSW,SYD
WATERLOO,2017,NSW,SYD
ZETLAND,2017,NSW,SYD
EASTLAKES,2018,NSW,SYD
ROSEBERY,2018,NSW,SYD
BANKSMEADOW,2019,NSW,SYD
BOTANY,2019,NSW,SYD
MASCOT,2020,NSW,SYD
SYDNEY DOMESTIC AIRPORT,2020,NSW,SYD
SYDNEY INTERNATIONAL AIRPORT,2020,NSW,SYD
CENTENNIAL PARK,2021,NSW,SYD
MOORE PARK,2021,NSW,SYD
PADDINGTON,2021,NSW,SYD
BONDI JUNCTION,2022,NSW,SYD
BONDI JUNCTION PLAZA,2022,NSW,SYD
QUEENS PARK,2022,NSW,SYD
BELLEVUE HILL,2023,NSW,SYD
BRONTE,2024,NSW,SYD
CHARING CROSS,2024,NSW,SYD
WAVERLEY,2024,NSW,SYD
WOOLLAHRA,2025,NSW,SYD
BEN BUCKLER,2026,NSW,SYD
BONDI,2026,NSW,SYD
BONDI BEACH,2026,NSW,SYD
NORTH BONDI,2026,NSW,SYD
TAMARAMA,2026,NSW,SYD
DARLING POINT,2027,NSW,SYD
EDGECLIFF,2027,NSW,SYD
HMAS RUSHCUTTERS,2027,NSW,SYD
POINT PIPER,2027,NSW,SYD
DOUBLE BAY,2028,NSW,SYD
ROSE BAY,2029,NSW,SYD
DIAMOND BAY,2030,NSW,SYD
DOVER HEIGHTS,2030,NSW,SYD
HMAS WATSON,2030,NSW,SYD
ROSE BAY NORTH,2030,NSW,SYD
VAUCLUSE,2030,NSW,SYD
WATSONS BAY,2030,NSW,SYD
CLOVELLY,2031,NSW,SYD
CLOVELLY WEST,2031,NSW,SYD
RANDWICK,2031,NSW,SYD
ST PAULS,2031,NSW,SYD
DACEYVILLE,2032,NSW,SYD
KINGSFORD,2032,NSW,SYD
KENSINGTON,2033,NSW,SYD
COOGEE,2034,NSW,SYD
SOUTH COOGEE,2034,NSW,SYD
MAROUBRA,2035,NSW,SYD
MAROUBRA SOUTH,2035,NSW,SYD
PAGEWOOD,2035,NSW,SYD
CHIFLEY,2036,NSW,SYD
EASTGARDENS,2036,NSW,SYD
HILLSDALE,2036,NSW,SYD
LA PEROUSE,2036,NSW,SYD
LITTLE BAY,2036,NSW,SYD
MALABAR,2036,NSW,SYD
MATRAVILLE,2036,NSW,SYD
PHILLIP BAY,2036,NSW,SYD
PORT BOTANY,2036,NSW,SYD
FOREST LODGE,2037,NSW,SYD
GLEBE,2037,NSW,SYD
ANNANDALE,2038,NSW,SYD
ROZELLE,2039,NSW,SYD
LEICHHARDT,2040,NSW,SYD
LILYFIELD,2040,NSW,SYD
BALMAIN,2041,NSW,SYD
BALMAIN EAST,2041,NSW,SYD
BIRCHGROVE,2041,NSW,SYD
ENMORE,2042,NSW,SYD
NEWTOWN,2042,NSW,SYD
ERSKINEVILLE,2043,NSW,SYD
ST PETERS,2044,NSW,SYD
SYDENHAM,2044,NSW,SYD
TEMPE,2044,NSW,SYD
HABERFIELD,2045,NSW,SYD
ABBOTSFORD,2046,NSW,SYD
CANADA BAY,2046,NSW,SYD
CHISWICK,2046,NSW,SYD
FIVE DOCK,2046,NSW,SYD
RODD POINT,2046,NSW,SYD
RUSSELL LEA,2046,NSW,SYD
WAREEMBA,2046,NSW,SYD
DRUMMOYNE,2047,NSW,SYD
STANMORE,2048,NSW,SYD
WESTGATE,2048,NSW,SYD
LEWISHAM,2049,NSW,SYD
PETERSHAM,2049,NSW,SYD
PETERSHAM NORTH,2049,NSW,SYD
CAMPERDOWN,2050,NSW,SYD
MISSENDEN ROAD,2050,NSW,SYD
UNIVERSITY OF NEW SOUTH WALES,2052,NSW,SYD
UNSW SYDNEY,2052,NSW,SYD
NORTH SYDNEY,2055,NSW,SYD
CHATSWOOD,2057,NSW,SYD
NORTHERN SUBURBS MC,2058,NSW,SYD
NORTH SYDNEY,2059,NSW,SYD
HMAS PLATYPUS,2060,NSW,SYD
HMAS WATERHEN,2060,NSW,SYD
LAVENDER BAY,2060,NSW,SYD
MCMAHONS POINT,2060,NSW,SYD
NORTH SYDNEY,2060,NSW,SYD
NORTH SYDNEY SHOPPINGWORLD,2060,NSW,SYD
WAVERTON,2060,NSW,SYD
KIRRIBILLI,2061,NSW,SYD
MILSONS POINT,2061,NSW,SYD
CAMMERAY,2062,NSW,SYD
NORTHBRIDGE,2063,NSW,SYD
ARTARMON,2064,NSW,SYD
CROWS NEST,2065,NSW,SYD
GORE HILL,2065,NSW,SYD
GREENWICH,2065,NSW,SYD
NAREMBURN,2065,NSW,SYD
ROYAL NORTH SHORE HOSPITAL,2065,NSW,SYD
SAINT LEONARDS,2065,NSW,SYD
ST LEONARDS,2065,NSW,SYD
WOLLSTONECRAFT,2065,NSW,SYD
LANE COVE,2066,NSW,SYD
LANE COVE NORTH,2066,NSW,SYD
LANE COVE WEST,2066,NSW,SYD
LINLEY POINT,2066,NSW,SYD
LONGUEVILLE,2066,NSW,SYD
NORTHWOOD,2066,NSW,SYD
OSBORNE PARK,2066,NSW,SYD
RIVERVIEW,2066,NSW,SYD
CHATSWOOD,2067,NSW,SYD
CHATSWOOD WEST,2067,NSW,SYD
CASTLECRAG,2068,NSW,SYD
MIDDLE COVE,2068,NSW,SYD
NORTH WILLOUGHBY,2068,NSW,SYD
WILLOUGHBY,2068,NSW,SYD
WILLOUGHBY EAST,2068,NSW,SYD
WILLOUGHBY NORTH,2068,NSW,SYD
CASTLE COVE,2069,NSW,SYD
ROSEVILLE,2069,NSW,SYD
ROSEVILLE CHASE,2069,NSW,SYD
EAST LINDFIELD,2070,NSW,SYD
LINDFIELD,2070,NSW,SYD
LINDFIELD WEST,2070,NSW,SYD
EAST KILLARA,2071,NSW,SYD
KILLARA,2071,NSW,SYD
GORDON,2072,NSW,SYD
PYMBLE,2073,NSW,SYD
WEST PYMBLE,2073,NSW,SYD
NORTH TURRAMURRA,2074,NSW,SYD
SOUTH TURRAMURRA,2074,NSW,SYD
TURRAMURRA,2074,NSW,SYD
WARRAWEE,2074,NSW,SYD
NORTH SAINT IVES,2075,NSW,SYD
NORTH ST IVES,2075,NSW,SYD
SAINT IVES,2075,NSW,SYD
ST IVES,2075,NSW,SYD
ST IVES CHASE,2075,NSW,SYD
NORMANHURST,2076,NSW,SYD
NORTH WAHROONGA,2076,NSW,SYD
WAHROONGA,2076,NSW,SYD
ASQUITH,2077,NSW,SYD
HORNSBY,2077,NSW,SYD
HORNSBY HEIGHTS,2077,NSW,SYD
WAITARA,2077,NSW,SYD
MOUNT COLAH,2079,NSW,SYD
MOUNT KURING-GAI,2080,NSW,SYD
BEROWRA,2081,NSW,SYD
BEROWRA HEIGHTS,2082,NSW,SYD
AKUNA BAY,2084,NSW,SYD
DUFFYS FOREST,2084,NSW,SYD
TERREY HILLS,2084,NSW,SYD
BELROSE,2085,NSW,SYD
BELROSE WEST,2085,NSW,SYD
DAVIDSON,2085,NSW,SYD
FRENCHS FOREST,2086,NSW,SYD
FRENCHS FOREST EAST,2086,NSW,SYD
FORESTVILLE,2087,NSW,SYD
KILLARNEY HEIGHTS,2087,NSW,SYD
MOSMAN,2088,NSW,SYD
SPIT JUNCTION,2088,NSW,SYD
KURRABA POINT,2089,NSW,SYD
NEUTRAL BAY,2089,NSW,SYD
NEUTRAL BAY JUNCTION,2089,NSW,SYD
CREMORNE,2090,NSW,SYD
CREMORNE JUNCTION,2090,NSW,SYD
CREMORNE POINT,2090,NSW,SYD
HMAS PENGUIN,2091,NSW,SYD
SEAFORTH,2092,NSW,SYD
BALGOWLAH,2093,NSW,SYD
BALGOWLAH HEIGHTS,2093,NSW,SYD
CLONTARF,2093,NSW,SYD
MANLY VALE,2093,NSW,SYD
NORTH BALGOWLAH,2093,NSW,SYD
FAIRLIGHT,2094,NSW,SYD
MANLY,2095,NSW,SYD
MANLY EAST,2095,NSW,SYD
CURL CURL,2096,NSW,SYD
FRESHWATER,2096,NSW,SYD
HARBORD,2096,NSW,SYD
QUEENSCLIFF,2096,NSW,SYD
COLLAROY,2097,NSW,SYD
COLLAROY BEACH,2097,NSW,SYD
COLLAROY PLATEAU,2097,NSW,SYD
COLLAROY PLATEAU WEST,2097,NSW,SYD
LONG REEF,2097,NSW,SYD
WHEELER HEIGHTS,2097,NSW,SYD
CROMER,2099,NSW,SYD
CROMER HEIGHTS,2099,NSW,SYD
DEE WHY,2099,NSW,SYD
DEE WHY BEACH,2099,NSW,SYD
NARRAWEENA,2099,NSW,SYD
NORTH CURL CURL,2099,NSW,SYD
WINGALA,2099,NSW,SYD
ALLAMBIE,2100,NSW,SYD
ALLAMBIE HEIGHTS,2100,NSW,SYD
BEACON HILL,2100,NSW,SYD
BROOKVALE,2100,NSW,SYD
NORTH MANLY,2100,NSW,SYD
OXFORD FALLS,2100,NSW,SYD
WARRINGAH MALL,2100,NSW,SYD
ELANORA HEIGHTS,2101,NSW,SYD
INGLESIDE,2101,NSW,SYD
NARRABEEN,2101,NSW,SYD
NARRABEEN PENINSULA,2101,NSW,SYD
NORTH NARRABEEN,2101,NSW,SYD
WARRIEWOOD,2102,NSW,SYD
WARRIEWOOD SHOPPING SQUARE,2102,NSW,SYD
MONA VALE,2103,NSW,SYD
BAYVIEW,2104,NSW,SYD
CHURCH POINT,2105,NSW,SYD
NEWPORT,2106,NSW,SYD
NEWPORT BEACH,2106,NSW,SYD
AVALON,2107,NSW,SYD
AVALON BEACH,2107,NSW,SYD
BILGOLA,2107,NSW,SYD
BILGOLA BEACH,2107,NSW,SYD
BILGOLA PLATEAU,2107,NSW,SYD
CAREEL BAY,2107,NSW,SYD
CLAREVILLE,2107,NSW,SYD
PARADISE BEACH,2107,NSW,SYD
TAYLORS POINT,2107,NSW,SYD
WHALE BEACH,2107,NSW,SYD
PALM BEACH,2108,NSW,SYD
THE BASIN,2108,NSW,SYD
MACQUARIE UNIVERSITY,2109,NSW,SYD
HUNTERS HILL,2110,NSW,SYD
HUNTERS HILL WEST,2110,NSW,SYD
WOOLWICH,2110,NSW,SYD
BORONIA PARK,2111,NSW,SYD
GLADESVILLE,2111,NSW,SYD
HENLEY,2111,NSW,SYD
HUNTLEYS COVE,2111,NSW,SYD
HUNTLEYS POINT,2111,NSW,SYD
MONASH PARK,2111,NSW,SYD
TENNYSON POINT,2111,NSW,SYD
DENISTONE EAST,2112,NSW,SYD
PUTNEY,2112,NSW,SYD
RYDE,2112,NSW,SYD
BLENHEIM ROAD,2113,NSW,SYD
EAST RYDE,2113,NSW,SYD
MACQUARIE CENTRE,2113,NSW,SYD
MACQUARIE PARK,2113,NSW,SYD
NORTH RYDE,2113,NSW,SYD
DENISTONE,2114,NSW,SYD
DENISTONE WEST,2114,NSW,SYD
MEADOWBANK,2114,NSW,SYD
MELROSE PARK,2114,NSW,SYD
WEST RYDE,2114,NSW,SYD
ERMINGTON,2115,NSW,SYD
RYDALMERE,2116,NSW,SYD
DUNDAS,2117,NSW,SYD
DUNDAS VALLEY,2117,NSW,SYD
OATLANDS,2117,NSW,SYD
TELOPEA,2117,NSW,SYD
CARLINGFORD,2118,NSW,SYD
CARLINGFORD COURT,2118,NSW,SYD
CARLINGFORD NORTH,2118,NSW,SYD
KINGSDENE,2118,NSW,SYD
BEECROFT,2119,NSW,SYD
CHELTENHAM,2119,NSW,SYD
PENNANT HILLS,2120,NSW,SYD
THORNLEIGH,2120,NSW,SYD
WESTLEIGH,2120,NSW,SYD
EPPING,2121,NSW,SYD
NORTH EPPING,2121,NSW,SYD
EASTWOOD,2122,NSW,SYD
MARSFIELD,2122,NSW,SYD
PARRAMATTA,2123,NSW,SYD
PARRAMATTA,2124,NSW,SYD
WEST PENNANT HILLS,2125,NSW,SYD
CHERRYBROOK,2126,NSW,SYD
HOMEBUSH BAY,2127,NSW,SYD
NEWINGTON,2127,NSW,SYD
SYDNEY OLYMPIC PARK,2127,NSW,SYD
WENTWORTH POINT,2127,NSW,SYD
SILVERWATER,2128,NSW,SYD
SYDNEY MARKETS,2129,NSW,SYD
SUMMER HILL,2130,NSW,SYD
ASHFIELD,2131,NSW,SYD
CROYDON,2132,NSW,SYD
CROYDON PARK,2133,NSW,SYD
ENFIELD SOUTH,2133,NSW,SYD
BURWOOD,2134,NSW,SYD
BURWOOD NORTH,2134,NSW,SYD
STRATHFIELD,2135,NSW,SYD
BURWOOD HEIGHTS,2136,NSW,SYD
ENFIELD,2136,NSW,SYD
STRATHFIELD SOUTH,2136,NSW,SYD
BREAKFAST POINT,2137,NSW,SYD
CABARITA,2137,NSW,SYD
CONCORD,2137,NSW,SYD
MORTLAKE,2137,NSW,SYD
NORTH STRATHFIELD,2137,NSW,SYD
CONCORD WEST,2138,NSW,SYD
LIBERTY GROVE,2138,NSW,SYD
RHODES,2138,NSW,SYD
CONCORD REPATRIATION HOSPITAL,2139,NSW,SYD
HOMEBUSH,2140,NSW,SYD
HOMEBUSH SOUTH,2140,NSW,SYD
HOMEBUSH WEST,2140,NSW,SYD
BERALA,2141,NSW,SYD
LIDCOMBE,2141,NSW,SYD
LIDCOMBE NORTH,2141,NSW,SYD
ROOKWOOD,2141,NSW,SYD
BLAXCELL,2142,NSW,SYD
CAMELLIA,2142,NSW,SYD
CLYDE,2142,NSW,SYD
GRANVILLE,2142,NSW,SYD
HOLROYD,2142,NSW,SYD
ROSEHILL,2142,NSW,SYD
SOUTH GRANVILLE,2142,NSW,SYD
BIRRONG,2143,NSW,SYD
POTTS HILL,2143,NSW,SYD
REGENTS PARK,2143,NSW,SYD
AUBURN,2144,NSW,SYD
AUBURN SOUTH,2144,NSW,SYD
CONSTITUTION HILL,2145,NSW,SYD
GIRRAWEEN,2145,NSW,SYD
GREYSTANES,2145,NSW,SYD
MAYS HILL,2145,NSW,SYD
PEMULWUY,2145,NSW,SYD
PENDLE HILL,2145,NSW,SYD
SOUTH WENTWORTHVILLE,2145,NSW,SYD
WENTWORTHVILLE,2145,NSW,SYD
WESTMEAD,2145,NSW,SYD
OLD TOONGABBIE,2146,NSW,SYD
TOONGABBIE,2146,NSW,SYD
TOONGABBIE EAST,2146,NSW,SYD
KINGS LANGLEY,2147,NSW,SYD
LALOR PARK,2147,NSW,SYD
SEVEN HILLS,2147,NSW,SYD
SEVEN HILLS WEST,2147,NSW,SYD
ARNDELL PARK,2148,NSW,SYD
BLACKTOWN,2148,NSW,SYD
BLACKTOWN WESTPOINT,2148,NSW,SYD
HUNTINGWOOD,2148,NSW,SYD
KINGS PARK,2148,NSW,SYD
MARAYONG,2148,NSW,SYD
PROSPECT,2148,NSW,SYD
HARRIS PARK,2150,NSW,SYD
PARRAMATTA,2150,NSW,SYD
PARRAMATTA WESTFIELD,2150,NSW,SYD
NORTH PARRAMATTA,2151,NSW,SYD
NORTH ROCKS,2151,NSW,SYD
NORTHMEAD,2152,NSW,SYD
BAULKHAM HILLS,2153,NSW,SYD
BELLA VISTA,2153,NSW,SYD
CRESTWOOD,2153,NSW,SYD
NORWEST,2153,NSW,SYD
WINSTON HILLS,2153,NSW,SYD
CASTLE HILL,2154,NSW,SYD
BEAUMONT HILLS,2155,NSW,SYD
KELLYVILLE,2155,NSW,SYD
KELLYVILLE RIDGE,2155,NSW,SYD
NORTH KELLYVILLE,2155,NSW,SYD
ROUSE HILL,2155,NSW,SYD
ANNANGROVE,2156,NSW,SYD
GLENHAVEN,2156,NSW,SYD
KENTHURST,2156,NSW,SYD
GLENORIE,2157,NSW,SYD
HILLSIDE,2157,NSW,SYD
DURAL,2158,NSW,SYD
MIDDLE DURAL,2158,NSW,SYD
ROUND CORNER,2158,NSW,SYD
ARCADIA,2159,NSW,SYD
BERRILEE,2159,NSW,SYD
FIDDLETOWN,2159,NSW,SYD
GALSTON,2159,NSW,SYD
MERRYLANDS,2160,NSW,SYD
MERRYLANDS WEST,2160,NSW,SYD
GUILDFORD,2161,NSW,SYD
GUILDFORD WEST,2161,NSW,SYD
OLD GUILDFORD,2161,NSW,SYD
YENNORA,2161,NSW,SYD
CHESTER HILL,2162,NSW,SYD
SEFTON,2162,NSW,SYD
CARRAMAR,2163,NSW,SYD
LANSDOWNE,2163,NSW,SYD
VILLAWOOD,2163,NSW,SYD
SMITHFIELD,2164,NSW,SYD
SMITHFIELD WEST,2164,NSW,SYD
WETHERILL PARK,2164,NSW,SYD
WETHERILL PARK NSW,2164,NSW,SYD
WOODPARK,2164,NSW,SYD
FAIRFIELD,2165,NSW,SYD
FAIRFIELD EAST,2165,NSW,SYD
FAIRFIELD HEIGHTS,2165,NSW,SYD
FAIRFIELD WEST,2165,NSW,SYD
CABRAMATTA,2166,NSW,SYD
CABRAMATTA WEST,2166,NSW,SYD
CANLEY HEIGHTS,2166,NSW,SYD
CANLEY VALE,2166,NSW,SYD
LANSVALE,2166,NSW,SYD
GLENFIELD,2167,NSW,SYD
ASHCROFT,2168,NSW,SYD
BUSBY,2168,NSW,SYD
CARTWRIGHT,2168,NSW,SYD
GREEN VALLEY,2168,NSW,SYD
HECKENBERG,2168,NSW,SYD
HINCHINBROOK,2168,NSW,SYD
MILLER,2168,NSW,SYD
SADLEIR,2168,NSW,SYD
CASULA,2170,NSW,SYD
CASULA MALL,2170,NSW,SYD
CHIPPING NORTON,2170,NSW,SYD
HAMMONDVILLE,2170,NSW,SYD
LIVERPOOL,2170,NSW,SYD
LIVERPOOL SOUTH,2170,NSW,SYD
LIVERPOOL WESTFIELD,2170,NSW,SYD
LURNEA,2170,NSW,SYD
MOOREBANK,2170,NSW,SYD
MOUNT PRITCHARD,2170,NSW,SYD
PRESTONS,2170,NSW,SYD
WARWICK FARM,2170,NSW,SYD
CARNES HILL,2171,NSW,SYD
CECIL HILLS,2171,NSW,SYD
ELIZABETH HILLS,2171,NSW,SYD
HORNINGSEA PARK,2171,NSW,SYD
HOXTON PARK,2171,NSW,SYD
LEN WATERS ESTATE,2171,NSW,SYD
MIDDLETON GRANGE,2171,NSW,SYD
WEST HOXTON,2171,NSW,SYD
PLEASURE POINT,2172,NSW,SYD
SANDY POINT,2172,NSW,SYD
VOYAGER POINT,2172,NSW,SYD
HOLSWORTHY,2173,NSW,SYD
WATTLE GROVE,2173,NSW,SYD
EDMONDSON PARK,2174,NSW,SYD
INGLEBURN MILPO,2174,NSW,SYD
HORSLEY PARK,2175,NSW,SYD
ABBOTSBURY,2176,NSW,SYD
BOSSLEY PARK,2176,NSW,SYD
EDENSOR PARK,2176,NSW,SYD
GREENFIELD PARK,2176,NSW,SYD
PRAIRIEWOOD,2176,NSW,SYD
ST JOHNS PARK,2176,NSW,SYD
WAKELEY,2176,NSW,SYD
BONNYRIGG,2177,NSW,SYD
BONNYRIGG HEIGHTS,2177,NSW,SYD
WENTWORTH PORT,2177,NSW,SYD
CECIL PARK,2178,NSW,SYD
KEMPS CREEK,2178,NSW,SYD
MOUNT VERNON,2178,NSW,SYD
AUSTRAL,2179,NSW,SYD
LEPPINGTON,2179,NSW,SYD
BELFIELD,2190,NSW,SYD
CHULLORA,2190,NSW,SYD
GREENACRE,2190,NSW,SYD
MOUNT LEWIS,2190,NSW,SYD
BELFIELD,2191,NSW,SYD
BELMORE,2192,NSW,SYD
ASHBURY,2193,NSW,SYD
CANTERBURY,2193,NSW,SYD
HURLSTONE PARK,2193,NSW,SYD
CAMPSIE,2194,NSW,SYD
LAKEMBA,2195,NSW,SYD
WILEY PARK,2195,NSW,SYD
PUNCHBOWL,2196,NSW,SYD
ROSELANDS,2196,NSW,SYD
BASS HILL,2197,NSW,SYD
GEORGES HALL,2198,NSW,SYD
SYDNEY,2199,NSW,SYD
YAGOONA,2199,NSW,SYD
YAGOONA WEST,2199,NSW,SYD
BANKSTOWN,2200,NSW,SYD
BANKSTOWN AERODROME,2200,NSW,SYD
BANKSTOWN AIRPORT,2200,NSW,SYD
BANKSTOWN NORTH,2200,NSW,SYD
BANKSTOWN SQUARE,2200,NSW,SYD
CONDELL PARK,2200,NSW,SYD
MANAHAN,2200,NSW,SYD
MOUNT LEWIS,2200,NSW,SYD
DULWICH HILL,2203,NSW,SYD
MARRICKVILLE,2204,NSW,SYD
MARRICKVILLE METRO,2204,NSW,SYD
MARRICKVILLE SOUTH,2204,NSW,SYD
ARNCLIFFE,2205,NSW,SYD
TURRELLA,2205,NSW,SYD
WOLLI CREEK,2205,NSW,SYD
CLEMTON PARK,2206,NSW,SYD
EARLWOOD,2206,NSW,SYD
UNDERCLIFFE,2206,NSW,SYD
BARDWELL PARK,2207,NSW,SYD
BARDWELL VALLEY,2207,NSW,SYD
BEXLEY,2207,NSW,SYD
BEXLEY NORTH,2207,NSW,SYD
BEXLEY SOUTH,2207,NSW,SYD
KINGSGROVE,2208,NSW,SYD
KINGSWAY WEST,2208,NSW,SYD
BEVERLY HILLS,2209,NSW,SYD
NARWEE,2209,NSW,SYD
LUGARNO,2210,NSW,SYD
PEAKHURST,2210,NSW,SYD
PEAKHURST HEIGHTS,2210,NSW,SYD
RIVERWOOD,2210,NSW,SYD
PADSTOW,2211,NSW,SYD
PADSTOW HEIGHTS,2211,NSW,SYD
REVESBY,2212,NSW,SYD
REVESBY HEIGHTS,2212,NSW,SYD
REVESBY NORTH,2212,NSW,SYD
EAST HILLS,2213,NSW,SYD
PANANIA,2213,NSW,SYD
PICNIC POINT,2213,NSW,SYD
MILPERRA,2214,NSW,SYD
BANKSIA,2216,NSW,SYD
BRIGHTON LE SANDS,2216,NSW,SYD
BRIGHTON-LE-SANDS,2216,NSW,SYD
KYEEMAGH,2216,NSW,SYD
ROCKDALE,2216,NSW,SYD
BEVERLEY PARK,2217,NSW,SYD
KOGARAH,2217,NSW,SYD
KOGARAH BAY,2217,NSW,SYD
MONTEREY,2217,NSW,SYD
RAMSGATE,2217,NSW,SYD
RAMSGATE BEACH,2217,NSW,SYD
ALLAWAH,2218,NSW,SYD
CARLTON,2218,NSW,SYD
DOLLS POINT,2219,NSW,SYD
SANDRINGHAM,2219,NSW,SYD
SANS SOUCI,2219,NSW,SYD
HURSTVILLE,2220,NSW,SYD
HURSTVILLE GROVE,2220,NSW,SYD
HURSTVILLE WESTFIELD,2220,NSW,SYD
BLAKEHURST,2221,NSW,SYD
CARSS PARK,2221,NSW,SYD
CONNELLS POINT,2221,NSW,SYD
KYLE BAY,2221,NSW,SYD
SOUTH HURSTVILLE,2221,NSW,SYD
PENSHURST,2222,NSW,SYD
MORTDALE,2223,NSW,SYD
OATLEY,2223,NSW,SYD
KANGAROO POINT,2224,NSW,SYD
SYLVANIA,2224,NSW,SYD
SYLVANIA SOUTHGATE,2224,NSW,SYD
SYLVANIA WATERS,2224,NSW,SYD
CARAVAN HEAD,2225,NSW,SYD
OYSTER BAY,2225,NSW,SYD
BONNET BAY,2226,NSW,SYD
COMO,2226,NSW,SYD
JANNALI,2226,NSW,SYD
GYMEA,2227,NSW,SYD
GYMEA BAY,2227,NSW,SYD
MIRANDA,2228,NSW,SYD
YOWIE BAY,2228,NSW,SYD
CARINGBAH,2229,NSW,SYD
CARINGBAH SOUTH,2229,NSW,SYD
DOLANS BAY,2229,NSW,SYD
LILLI PILLI,2229,NSW,SYD
PORT HACKING,2229,NSW,SYD
TAREN POINT,2229,NSW,SYD
BURRANEER,2230,NSW,SYD
CRONULLA,2230,NSW,SYD
GREENHILLS BEACH,2230,NSW,SYD
WOOLOOWARE,2230,NSW,SYD
KURNELL,2231,NSW,SYD
GRAYS POINT,2232,NSW,SYD
KAREELA,2232,NSW,SYD
KIRRAWEE,2232,NSW,SYD
LOFTUS,2232,NSW,SYD
SUTHERLAND,2232,NSW,SYD
WORONORA,2232,NSW,SYD
ENGADINE,2233,NSW,SYD
HEATHCOTE,2233,NSW,SYD
WORONORA HEIGHTS,2233,NSW,SYD
YARRAWARRAH,2233,NSW,SYD
ALFORDS POINT,2234,NSW,SYD
BANGOR,2234,NSW,SYD
BARDEN RIDGE,2234,NSW,SYD
ILLAWONG,2234,NSW,SYD
LUCAS HEIGHTS,2234,NSW,SYD
MENAI,2234,NSW,SYD
MENAI CENTRAL,2234,NSW,SYD
EAST GOSFORD,2250,NSW,CCT
ERINA,2250,NSW,CCT
ERINA FAIR,2250,NSW,CCT
GOSFORD,2250,NSW,CCT
GOSFORD WEST,2250,NSW,CCT
HOLGATE,2250,NSW,CCT
KARIONG,2250,NSW,CCT
LISAROW,2250,NSW,CCT
MATCHAM,2250,NSW,CCT
MOUNT ELLIOT,2250,NSW,CCT
NARARA,2250,NSW,CCT
NIAGARA PARK,2250,NSW,CCT
NORTH GOSFORD,2250,NSW,CCT
POINT CLARE,2250,NSW,CCT
POINT FREDERICK,2250,NSW,CCT
SOMERSBY,2250,NSW,CCT
SPRINGFIELD,2250,NSW,CCT
TASCOTT,2250,NSW,CCT
WEST GOSFORD,2250,NSW,CCT
WYOMING,2250,NSW,CCT
AVOCA BEACH,2251,NSW,CCT
BENSVILLE,2251,NSW,CCT
BOUDDI,2251,NSW,CCT
COPACABANA,2251,NSW,CCT
DAVISTOWN,2251,NSW,CCT
GREEN POINT,2251,NSW,CCT
KINCUMBER,2251,NSW,CCT
KINCUMBER SOUTH,2251,NSW,CCT
MACMASTERS BEACH,2251,NSW,CCT
PICKETTS VALLEY,2251,NSW,CCT
SARATOGA,2251,NSW,CCT
YATTALUNGA,2251,NSW,CCT
CENTRAL COAST MC,2252,NSW,CCT
BLACKWALL,2256,NSW,CCT
HORSFIELD BAY,2256,NSW,CCT
KOOLEWONG,2256,NSW,CCT
PATONGA,2256,NSW,CCT
PEARL BEACH,2256,NSW,CCT
PHEGANS BAY,2256,NSW,CCT
WOY WOY,2256,NSW,CCT
WOY WOY BAY,2256,NSW,CCT
BOOKER BAY,2257,NSW,CCT
BOX HEAD,2257,NSW,CCT
DALEYS POINT,2257,NSW,CCT
EMPIRE BAY,2257,NSW,CCT
ETTALONG BEACH,2257,NSW,CCT
HARDYS BAY,2257,NSW,CCT
KILLCARE,2257,NSW,CCT
KILLCARE HEIGHTS,2257,NSW,CCT
PRETTY BEACH,2257,NSW,CCT
ST HUBERTS ISLAND,2257,NSW,CCT
UMINA BEACH,2257,NSW,CCT
WAGSTAFFE,2257,NSW,CCT
FOUNTAINDALE,2258,NSW,CCT
KANGY ANGY,2258,NSW,CCT
OURIMBAH,2258,NSW,CCT
PALMDALE,2258,NSW,CCT
ALISON,2259,NSW,CCT
BUSHELLS RIDGE,2259,NSW,CCT
CHAIN VALLEY BAY,2259,NSW,CCT
CRANGAN BAY,2259,NSW,CCT
FREEMANS,2259,NSW,CCT
GWANDALAN,2259,NSW,CCT
HALLORAN,2259,NSW,CCT
HAMLYN TERRACE,2259,NSW,CCT
KANWAL,2259,NSW,CCT
KINGFISHER SHORES,2259,NSW,CCT
LAKE MUNMORAH,2259,NSW,CCT
MANNERING PARK,2259,NSW,CCT
MARDI,2259,NSW,CCT
POINT WOLSTONCROFT,2259,NSW,CCT
ROCKY POINT,2259,NSW,CCT
SOUTH TACOMA,2259,NSW,CCT
SUMMERLAND POINT,2259,NSW,CCT
TACOMA,2259,NSW,CCT
TACOMA SOUTH,2259,NSW,CCT
TUGGERAH,2259,NSW,CCT
TUGGERAWONG,2259,NSW,CCT
WADALBA,2259,NSW,CCT
WALLARAH,2259,NSW,CCT
WARNERVALE,2259,NSW,CCT
WATANOBBI,2259,NSW,CCT
WOONGARRAH,2259,NSW,CCT
WYEE,2259,NSW,CCT
WYEE POINT,2259,NSW,CCT
WYONG,2259,NSW,CCT
WYONGAH,2259,NSW,CCT
ERINA HEIGHTS,2260,NSW,CCT
FORRESTERS BEACH,2260,NSW,CCT
NORTH AVOCA,2260,NSW,CCT
TERRIGAL,2260,NSW,CCT
WAMBERAL,2260,NSW,CCT
BATEAU BAY,2261,NSW,CCT
BAY VILLAGE,2261,NSW,CCT
BERKELEY VALE,2261,NSW,CCT
BLUE BAY,2261,NSW,CCT
CHITTAWAY BAY,2261,NSW,CCT
CHITTAWAY POINT,2261,NSW,CCT
GLENNING VALLEY,2261,NSW,CCT
KILLARNEY VALE,2261,NSW,CCT
LONG JETTY,2261,NSW,CCT
MAGENTA,2261,NSW,CCT
SHELLY BEACH,2261,NSW,CCT
THE ENTRANCE,2261,NSW,CCT
THE ENTRANCE NORTH,2261,NSW,CCT
TOOWOON BAY,2261,NSW,CCT
TUMBI UMBI,2261,NSW,CCT
BLUE HAVEN,2262,NSW,CCT
BUDGEWOI,2262,NSW,CCT
BUDGEWOI PENINSULA,2262,NSW,CCT
BUFF POINT,2262,NSW,CCT
COLONGRA,2262,NSW,CCT
DOYALSON,2262,NSW,CCT
DOYALSON NORTH,2262,NSW,CCT
HALEKULANI,2262,NSW,CCT
SAN REMO,2262,NSW,CCT
CANTON BEACH,2263,NSW,CCT
CHARMHAVEN,2263,NSW,CCT
GOROKAN,2263,NSW,CCT
LAKE HAVEN,2263,NSW,CCT
NORAH HEAD,2263,NSW,CCT
NORAVILLE,2263,NSW,CCT
TOUKLEY,2263,NSW,CCT
BALCOLYN,2264,NSW,NEW
BONNELLS BAY,2264,NSW,NEW
BRIGHTWATERS,2264,NSW,NEW
DORA CREEK,2264,NSW,NEW
ERARING,2264,NSW,NEW
MIRRABOOKA,2264,NSW,NEW
MORISSET,2264,NSW,NEW
MORISSET PARK,2264,NSW,NEW
MYUNA BAY,2264,NSW,NEW
SILVERWATER,2264,NSW,NEW
SUNSHINE,2264,NSW,NEW
WINDERMERE PARK,2264,NSW,NEW
YARRAWONGA PARK,2264,NSW,NEW
COORANBONG,2265,NSW,NEW
WANGI WANGI,2267,NSW,NEW
BARNSLEY,2278,NSW,NEW
KILLINGWORTH,2278,NSW,NEW
WAKEFIELD,2278,NSW,NEW
BELMONT,2280,NSW,NEW
BELMONT NORTH,2280,NSW,NEW
BELMONT SOUTH,2280,NSW,NEW
CROUDACE BAY,2280,NSW,NEW
FLORAVILLE,2280,NSW,NEW
JEWELLS,2280,NSW,NEW
MARKS POINT,2280,NSW,NEW
VALENTINE,2280,NSW,NEW
BLACKSMITHS,2281,NSW,NEW
CAMS WHARF,2281,NSW,NEW
CATHERINE HILL BAY,2281,NSW,NEW
CAVES BEACH,2281,NSW,NEW
LITTLE PELICAN,2281,NSW,NEW
MURRAYS BEACH,2281,NSW,NEW
NORDS WHARF,2281,NSW,NEW
PELICAN,2281,NSW,NEW
SWANSEA,2281,NSW,NEW
SWANSEA HEADS,2281,NSW,NEW
ELEEBANA,2282,NSW,NEW
LAKELANDS,2282,NSW,NEW
WARNERS BAY,2282,NSW,NEW
ARCADIA VALE,2283,NSW,NEW
AWABA,2283,NSW,NEW
BALMORAL,2283,NSW,NEW
BLACKALLS PARK,2283,NSW,NEW
BOLTON POINT,2283,NSW,NEW
BUTTABA,2283,NSW,NEW
CAREY BAY,2283,NSW,NEW
COAL POINT,2283,NSW,NEW
FASSIFERN,2283,NSW,NEW
FENNELL BAY,2283,NSW,NEW
FISHING POINT,2283,NSW,NEW
KILABEN BAY,2283,NSW,NEW
RATHMINES,2283,NSW,NEW
RYHOPE,2283,NSW,NEW
TORONTO,2283,NSW,NEW
ARGENTON,2284,NSW,NEW
BOOLAROO,2284,NSW,NEW
BOORAGUL,2284,NSW,NEW
MARMONG POINT,2284,NSW,NEW
SPEERS POINT,2284,NSW,NEW
TERALBA,2284,NSW,NEW
WOODRISING,2284,NSW,NEW
CAMERON PARK,2285,NSW,NEW
CARDIFF,2285,NSW,NEW
CARDIFF HEIGHTS,2285,NSW,NEW
CARDIFF SOUTH,2285,NSW,NEW
EDGEWORTH,2285,NSW,NEW
GLENDALE,2285,NSW,NEW
MACQUARIE HILLS,2285,NSW,NEW
HOLMESVILLE,2286,NSW,NEW
SEAHAMPTON,2286,NSW,NEW
WEST WALLSEND,2286,NSW,NEW
BIRMINGHAM GARDENS,2287,NSW,NEW
ELERMORE VALE,2287,NSW,NEW
FLETCHER,2287,NSW,NEW
MARYLAND,2287,NSW,NEW
MINMI,2287,NSW,NEW
RANKIN PARK,2287,NSW,NEW
SUMMER HILL,2287,NSW,NEW
WALLSEND,2287,NSW,NEW
WALLSEND SOUTH,2287,NSW,NEW
ADAMSTOWN,2289,NSW,NEW
ADAMSTOWN HEIGHTS,2289,NSW,NEW
GARDEN SUBURB,2289,NSW,NEW
HIGHFIELDS,2289,NSW,NEW
KOTARA,2289,NSW,NEW
KOTARA FAIR,2289,NSW,NEW
KOTARA SOUTH,2289,NSW,NEW
BENNETTS GREEN,2290,NSW,NEW
CHARLESTOWN,2290,NSW,NEW
DUDLEY,2290,NSW,NEW
GATESHEAD,2290,NSW,NEW
HILLSBOROUGH,2290,NSW,NEW
KAHIBAH,2290,NSW,NEW
MOUNT HUTTON,2290,NSW,NEW
REDHEAD,2290,NSW,NEW
TINGIRA HEIGHTS,2290,NSW,NEW
WHITEBRIDGE,2290,NSW,NEW
MEREWETHER,2291,NSW,NEW
MEREWETHER HEIGHTS,2291,NSW,NEW
THE JUNCTION,2291,NSW,NEW
BROADMEADOW,2292,NSW,NEW
HAMILTON NORTH,2292,NSW,NEW
MARYVILLE,2293,NSW,NEW
WICKHAM,2293,NSW,NEW
CARRINGTON,2294,NSW,NEW
FERN BAY,2295,NSW,NEW
STOCKTON,2295,NSW,NEW
ISLINGTON,2296,NSW,NEW
TIGHES HILL,2297,NSW,NEW
GEORGETOWN,2298,NSW,NEW
WARATAH,2298,NSW,NEW
WARATAH WEST,2298,NSW,NEW
JESMOND,2299,NSW,NEW
LAMBTON,2299,NSW,NEW
NORTH LAMBTON,2299,NSW,NEW
BAR BEACH,2300,NSW,NEW
COOKS HILL,2300,NSW,NEW
NEWCASTLE,2300,NSW,NEW
NEWCASTLE EAST,2300,NSW,NEW
THE HILL,2300,NSW,NEW
NEWCASTLE WEST,2302,NSW,NEW
HAMILTON,2303,NSW,NEW
HAMILTON EAST,2303,NSW,NEW
HAMILTON SOUTH,2303,NSW,NEW
KOORAGANG,2304,NSW,NEW
MAYFIELD,2304,NSW,NEW
MAYFIELD EAST,2304,NSW,NEW
MAYFIELD NORTH,2304,NSW,NEW
MAYFIELD WEST,2304,NSW,NEW
SANDGATE,2304,NSW,NEW
WARABROOK,2304,NSW,NEW
KOTARA EAST,2305,NSW,NEW
NEW LAMBTON,2305,NSW,NEW
NEW LAMBTON HEIGHTS,2305,NSW,NEW
WINDALE,2306,NSW,NEW
SHORTLAND,2307,NSW,NEW
CALLAGHAN,2308,NSW,NEW
NEWCASTLE UNIVERSITY,2308,NSW,NEW
HUNTER REGION MC,2310,NSW,NEW
NABIAC,2312,NSW,PQQ
WILLIAMTOWN RAAF,2314,NSW,NEW
CORLETTE,2315,NSW,NEW
FINGAL BAY,2315,NSW,NEW
GAN GAN,2315,NSW,NEW
NELSON BAY,2315,NSW,NEW
SHOAL BAY,2315,NSW,NEW
ANNA BAY,2316,NSW,NEW
BOAT HARBOUR,2316,NSW,NEW
BOBS FARM,2316,NSW,NEW
FISHERMANS BAY,2316,NSW,NEW
ONE MILE,2316,NSW,NEW
TAYLORS BEACH,2316,NSW,NEW
SALAMANDER BAY,2317,NSW,NEW
SOLDIERS POINT,2317,NSW,NEW
CAMPVALE,2318,NSW,NEW
FERODALE,2318,NSW,NEW
FULLERTON COVE,2318,NSW,NEW
MEDOWIE,2318,NSW,NEW
OYSTER COVE,2318,NSW,NEW
SALT ASH,2318,NSW,NEW
WILLIAMTOWN,2318,NSW,NEW
LEMON TREE PASSAGE,2319,NSW,NEW
MALLABULA,2319,NSW,NEW
TANILBA BAY,2319,NSW,NEW
ABERGLASSLYN,2320,NSW,NEW
ALLANDALE,2320,NSW,NEW
BOLWARRA,2320,NSW,NEW
BOLWARRA HEIGHTS,2320,NSW,NEW
FARLEY,2320,NSW,NEW
HORSESHOE BEND,2320,NSW,NEW
KEINBAH,2320,NSW,NEW
LARGS,2320,NSW,NEW
LORN,2320,NSW,NEW
LOUTH PARK,2320,NSW,NEW
MAITLAND,2320,NSW,NEW
MAITLAND NORTH,2320,NSW,NEW
MOUNT DEE,2320,NSW,NEW
OAKHAMPTON,2320,NSW,NEW
OAKHAMPTON HEIGHTS,2320,NSW,NEW
POKOLBIN,2320,NSW,NEW
ROTHBURY,2320,NSW,NEW
RUTHERFORD,2320,NSW,NEW
SOUTH MAITLAND,2320,NSW,NEW
TELARAH,2320,NSW,NEW
WINDELLA,2320,NSW,NEW
CLIFTLEIGH,2321,NSW,NEW
GILLIESTON HEIGHTS,2321,NSW,NEW
HARPERS HILL,2321,NSW,NEW
HEDDON GRETA,2321,NSW,NEW
LOCHINVAR,2321,NSW,NEW
MORPETH,2321,NSW,NEW
RAWORTH,2321,NSW,NEW
BERESFIELD,2322,NSW,NEW
BLACK HILL,2322,NSW,NEW
CHISHOLM,2322,NSW,NEW
HEXHAM,2322,NSW,NEW
LENAGHAN,2322,NSW,NEW
STOCKRINGTON,2322,NSW,NEW
TARRO,2322,NSW,NEW
THORNTON,2322,NSW,NEW
TOMAGO,2322,NSW,NEW
WOODBERRY,2322,NSW,NEW
ASHTONFIELD,2323,NSW,NEW
BUCHANAN,2323,NSW,NEW
BUTTAI,2323,NSW,NEW
EAST MAITLAND,2323,NSW,NEW
GREEN HILLS,2323,NSW,NEW
GREENHILLS,2323,NSW,NEW
METFORD,2323,NSW,NEW
PITNACREE,2323,NSW,NEW
TENAMBIT,2323,NSW,NEW
HAWKS NEST,2324,NSW,NEW
HEATHERBRAE,2324,NSW,NEW
KARUAH,2324,NSW,NEW
MOTTO FARM,2324,NSW,NEW
RAYMOND TERRACE,2324,NSW,NEW
RAYMOND TERRACE EAST,2324,NSW,NEW
TEA GARDENS,2324,NSW,NEW
ABERDARE,2325,NSW,NEW
BELLBIRD,2325,NSW,NEW
BELLBIRD HEIGHTS,2325,NSW,NEW
CESSNOCK,2325,NSW,NEW
CESSNOCK WEST,2325,NSW,NEW
KEARSLEY,2325,NSW,NEW
LOVEDALE,2325,NSW,NEW
MOUNT VIEW,2325,NSW,NEW
NULKABA,2325,NSW,NEW
ABERMAIN,2326,NSW,NEW
BISHOPS BRIDGE,2326,NSW,NEW
LOXFORD,2326,NSW,NEW
NEATH,2326,NSW,NEW
SAWYERS GULLY,2326,NSW,NEW
WESTON,2326,NSW,NEW
KURRI KURRI,2327,NSW,NEW
PELAW MAIN,2327,NSW,NEW
STANFORD MERTHYR,2327,NSW,NEW
BROKE,2330,NSW,NEW
DARLINGTON,2330,NSW,NEW
DUNOLLY,2330,NSW,NEW
HUNTERVIEW,2330,NSW,NEW
MAISON DIEU,2330,NSW,NEW
MCDOUGALLS HILL,2330,NSW,NEW
MILBRODALE,2330,NSW,NEW
MOUNT THORLEY,2330,NSW,NEW
REDBOURNBERRY,2330,NSW,NEW
SINGLETON,2330,NSW,NEW
SINGLETON HEIGHTS,2330,NSW,NEW
WARKWORTH,2330,NSW,NEW
WHITTINGHAM,2330,NSW,NEW
LIDDELL,2333,NSW,NEW
MUSWELLBROOK,2333,NSW,NEW
GRETA,2334,NSW,NEW
BELFORD,2335,NSW,NEW
BRANXTON,2335,NSW,NEW
EAST BRANXTON,2335,NSW,NEW
LOWER BELFORD,2335,NSW,NEW
NORTH ROTHBURY,2335,NSW,NEW
HARRINGTON,2427,NSW,PQQ
BOOTI BOOTI,2428,NSW,PQQ
DARAWANK,2428,NSW,PQQ
FORSTER,2428,NSW,PQQ
FORSTER SHOPPING VILLAGE,2428,NSW,PQQ
PACIFIC PALMS,2428,NSW,PQQ
TUNCURRY,2428,NSW,PQQ
WINGHAM,2429,NSW,PQQ
BLACK HEAD,2430,NSW,PQQ
BOHNOCK,2430,NSW,PQQ
BOOTAWA,2430,NSW,PQQ
BRIMBIN,2430,NSW,PQQ
CHATHAM,2430,NSW,PQQ
CUNDLETOWN,2430,NSW,PQQ
DIAMOND BEACH,2430,NSW,PQQ
DUMARESQ ISLAND,2430,NSW,PQQ
FAILFORD,2430,NSW,PQQ
GLENTHORNE,2430,NSW,PQQ
HALLIDAYS POINT,2430,NSW,PQQ
KIWARRAK,2430,NSW,PQQ
KOLODONG,2430,NSW,PQQ
KOORAINGHAT,2430,NSW,PQQ
MONDROOK,2430,NSW,PQQ
OLD BAR,2430,NSW,PQQ
PAMPOOLAH,2430,NSW,PQQ
POSSUM BRUSH,2430,NSW,PQQ
PURFLEET,2430,NSW,PQQ
RAINBOW FLAT,2430,NSW,PQQ
RED HEAD,2430,NSW,PQQ
SALTWATER,2430,NSW,PQQ
TALLWOODS VILLAGE,2430,NSW,PQQ
TAREE,2430,NSW,PQQ
TAREE SOUTH,2430,NSW,PQQ
TAREE WEST,2430,NSW,PQQ
TINONEE,2430,NSW,PQQ
WALLABI POINT,2430,NSW,PQQ
KENDALL,2439,NSW,PQQ
KEW,2439,NSW,PQQ
EAST KEMPSEY,2440,NSW,PQQ
FREDERICKTON,2440,NSW,PQQ
KEMPSEY,2440,NSW,PQQ
SOUTH KEMPSEY,2440,NSW,PQQ
WEST KEMPSEY,2440,NSW,PQQ
BONVILLE,2441,NSW,CFS
EUNGAI CREEK,2441,NSW,CFS
EUNGAI RAIL,2441,NSW,CFS
GRASSY HEAD,2441,NSW,CFS
STUARTS POINT,2441,NSW,CFS
YARRAHAPINNI,2441,NSW,CFS
CAMDEN HEAD,2443,NSW,PQQ
DICKS HILL,2443,NSW,PQQ
DUNBOGAN,2443,NSW,PQQ
LAKEWOOD,2443,NSW,PQQ
LAURIETON,2443,NSW,PQQ
NORTH HAVEN,2443,NSW,PQQ
WEST HAVEN,2443,NSW,PQQ
FERNBANK CREEK,2444,NSW,PQQ
FLYNNS BEACH,2444,NSW,PQQ
LIGHTHOUSE BEACH,2444,NSW,PQQ
PORT MACQUARIE,2444,NSW,PQQ
PORT MACQUARIE BC,2444,NSW,PQQ
SETTLEMENT CITY,2444,NSW,PQQ
THRUMSTER,2444,NSW,PQQ
BONNY HILLS,2445,NSW,PQQ
GRANTS BEACH,2445,NSW,PQQ
JOLLY NOSE,2445,NSW,PQQ
LAKE CATHIE,2445,NSW,PQQ
BAGO,2446,NSW,PQQ
CROSSLANDS,2446,NSW,PQQ
KING CREEK,2446,NSW,PQQ
LAKE INNES,2446,NSW,PQQ
RAWDON ISLAND,2446,NSW,PQQ
SANCROX,2446,NSW,PQQ
WAUCHOPE,2446,NSW,PQQ
YIPPIN CREEK,2446,NSW,PQQ
DONNELLYVILLE,2447,NSW,CFS
MACKSVILLE,2447,NSW,CFS
NORTH MACKSVILLE,2447,NSW,CFS
SCOTTS HEAD,2447,NSW,CFS
WARRELL CREEK,2447,NSW,CFS
WAY WAY,2447,NSW,CFS
HYLAND PARK,2448,NSW,CFS
NAMBUCCA HEADS,2448,NSW,CFS
VALLA,2448,NSW,CFS
VALLA BEACH,2448,NSW,CFS
VIEWMONT,2448,NSW,CFS
BOAMBEE,2450,NSW,CFS
BONVILLE,2450,NSW,CFS
COFFS HARBOUR,2450,NSW,CFS
COFFS HARBOUR JETTY,2450,NSW,CFS
COFFS HARBOUR PLAZA,2450,NSW,CFS
KORORA,2450,NSW,CFS
MOONEE BEACH,2450,NSW,CFS
NORTH BOAMBEE VALLEY,2450,NSW,CFS
SAPPHIRE BEACH,2450,NSW,CFS
BAYLDON,2452,NSW,CFS
BOAMBEE EAST,2452,NSW,CFS
SAWTELL,2452,NSW,CFS
TOORMINA,2452,NSW,CFS
DORRIGO,2453,NSW,CFS
DORRIGO MOUNTAIN,2453,NSW,CFS
BELLINGEN,2454,NSW,CFS
FERNMOUNT,2454,NSW,CFS
MYLESTOM,2454,NSW,CFS
RALEIGH,2454,NSW,CFS
REPTON,2454,NSW,CFS
UPPER THORA,2454,NSW,CFS
URUNGA,2455,NSW,CFS
ARRAWARRA,2456,NSW,CFS
ARRAWARRA HEADLAND,2456,NSW,CFS
CORINDI BEACH,2456,NSW,CFS
EMERALD BEACH,2456,NSW,CFS
MULLAWAY,2456,NSW,CFS
RED ROCK,2456,NSW,CFS
SAFETY BEACH,2456,NSW,CFS
SANDY BEACH,2456,NSW,CFS
WOOLGOOLGA,2456,NSW,CFS
GRAFTON,2460,NSW,NTH
GRAFTON WEST,2460,NSW,NTH
JUNCTION HILL,2460,NSW,NTH
SOUTH GRAFTON,2460,NSW,NTH
GULMARRAD,2463,NSW,NTH
MACLEAN,2463,NSW,NTH
TOWNSEND,2463,NSW,NTH
ANGOURIE,2464,NSW,NTH
WOOLOWEYAH,2464,NSW,NTH
YAMBA,2464,NSW,NTH
HARWOOD,2465,NSW,NTH
CASINO,2470,NSW,NTH
EVANS HEAD,2473,NSW,NTH
GENEVA,2474,NSW,NTH
KYOGLE,2474,NSW,NTH
ALSTONVILLE,2477,NSW,NTH
WOLLONGBAR,2477,NSW,NTH
BALLINA,2478,NSW,NTH
CUMBALUM,2478,NSW,NTH
EAST BALLINA,2478,NSW,NTH
LENNOX HEAD,2478,NSW,NTH
SKENNARS HEAD,2478,NSW,NTH
WEST BALLINA,2478,NSW,NTH
BANGALOW,2479,NSW,NTH
NEWRYBAR,2479,NSW,NTH
CHILCOTTS GRASS,2480,NSW,NTH
EAST LISMORE,2480,NSW,NTH
GIRARDS HILL,2480,NSW,NTH
GOONELLABAH,2480,NSW,NTH
LISMORE,2480,NSW,NTH
LISMORE HEIGHTS,2480,NSW,NTH
NORTH LISMORE,2480,NSW,NTH
RICHMOND HILL,2480,NSW,NTH
SOUTH LISMORE,2480,NSW,NTH
BYRON BAY,2481,NSW,NTH
EWINGSDALE,2481,NSW,NTH
SUFFOLK PARK,2481,NSW,NTH
MULLUMBIMBY,2482,NSW,NTH
BILLINUDGEL,2483,NSW,NTH
BRUNSWICK HEADS,2483,NSW,NTH
NEW BRIGHTON,2483,NSW,NTH
OCEAN SHORES,2483,NSW,NTH
SOUTH GOLDEN BEACH,2483,NSW,NTH
BRAY PARK,2484,NSW,GLD
CLOTHIERS CREEK,2484,NSW,GLD
CONDONG,2484,NSW,GLD
MURWILLUMBAH,2484,NSW,GLD
MURWILLUMBAH SOUTH,2484,NSW,GLD
ROUND MOUNTAIN,2484,NSW,GLD
SOUTH MURWILLUMBAH,2484,NSW,GLD
TWEED HEADS,2485,NSW,GLD
TWEED HEADS WEST,2485,NSW,GLD
BANORA POINT,2486,NSW,GLD
BILAMBIL,2486,NSW,GLD
BILAMBIL HEIGHTS,2486,NSW,GLD
TERRANORA,2486,NSW,GLD
TWEED HEADS SOUTH,2486,NSW,GLD
CASUARINA,2487,NSW,GLD
CHINDERAH,2487,NSW,GLD
CUDGEN,2487,NSW,GLD
DURANBAH,2487,NSW,GLD
FINGAL HEAD,2487,NSW,GLD
KINGSCLIFF,2487,NSW,GLD
BOGANGAR,2488,NSW,GLD
CABARITA BEACH,2488,NSW,GLD
HASTINGS POINT,2489,NSW,GLD
POTTSVILLE,2489,NSW,GLD
POTTSVILLE BEACH,2489,NSW,GLD
TUMBULGUM,2490,NSW,GLD
CONISTON,2500,NSW,WOL
GWYNNEVILLE,2500,NSW,WOL
KEIRAVILLE,2500,NSW,WOL
MANGERTON,2500,NSW,WOL
MOUNT KEIRA,2500,NSW,WOL
MOUNT SAINT THOMAS,2500,NSW,WOL
NORTH WOLLONGONG,2500,NSW,WOL
SPRING HILL,2500,NSW,WOL
WEST WOLLONGONG,2500,NSW,WOL
WOLLONGONG,2500,NSW,WOL
WOLLONGONG DC,2500,NSW,WOL
WOLLONGONG NORTH,2500,NSW,WOL
WOLLONGONG WEST,2500,NSW,WOL
CRINGILA,2502,NSW,WOL
LAKE HEIGHTS,2502,NSW,WOL
PRIMBEE,2502,NSW,WOL
WARRAWONG,2502,NSW,WOL
PORT KEMBLA,2505,NSW,WOL
BERKELEY,2506,NSW,WOL
COALCLIFF,2508,NSW,WOL
DARKES FOREST,2508,NSW,WOL
HELENSBURGH,2508,NSW,WOL
OTFORD,2508,NSW,WOL
STANWELL PARK,2508,NSW,WOL
STANWELL TOPS,2508,NSW,WOL
AUSTINMER,2515,NSW,WOL
CLIFTON,2515,NSW,WOL
COLEDALE,2515,NSW,WOL
SCARBOROUGH,2515,NSW,WOL
THIRROUL,2515,NSW,WOL
WOMBARRA,2515,NSW,WOL
BULLI,2516,NSW,WOL
BULLI TOPS,2516,NSW,WOL
RUSSELL VALE,2517,NSW,WOL
WOONONA,2517,NSW,WOL
WOONONA EAST,2517,NSW,WOL
BELLAMBI,2518,NSW,WOL
CORRIMAL,2518,NSW,WOL
CORRIMAL EAST,2518,NSW,WOL
EAST CORRIMAL,2518,NSW,WOL
TARRAWANNA,2518,NSW,WOL
TOWRADGI,2518,NSW,WOL
BALGOWNIE,2519,NSW,WOL
FAIRY MEADOW,2519,NSW,WOL
FERNHILL,2519,NSW,WOL
MOUNT OUSLEY,2519,NSW,WOL
MOUNT PLEASANT,2519,NSW,WOL
REIDTOWN,2519,NSW,WOL
WOLLONGONG,2520,NSW,WOL
UNIVERSITY OF WOLLONGONG,2522,NSW,WOL
FIGTREE,2525,NSW,WOL
CORDEAUX,2526,NSW,WOL
CORDEAUX HEIGHTS,2526,NSW,WOL
FARMBOROUGH HEIGHTS,2526,NSW,WOL
KEMBLA GRANGE,2526,NSW,WOL
KEMBLA HEIGHTS,2526,NSW,WOL
MOUNT KEMBLA,2526,NSW,WOL
UNANDERRA,2526,NSW,WOL
ALBION PARK,2527,NSW,WOL
ALBION PARK RAIL,2527,NSW,WOL
CALDERWOOD,2527,NSW,WOL
CROOM,2527,NSW,WOL
NORTH MACQUARIE,2527,NSW,WOL
TONGARRA,2527,NSW,WOL
TULLIMBAR,2527,NSW,WOL
YELLOW ROCK,2527,NSW,WOL
BARRACK HEIGHTS,2528,NSW,WOL
BARRACK POINT,2528,NSW,WOL
LAKE ILLAWARRA,2528,NSW,WOL
MOUNT WARRIGAL,2528,NSW,WOL
WARILLA,2528,NSW,WOL
WINDANG,2528,NSW,WOL
BALARANG,2529,NSW,WOL
BLACKBUTT,2529,NSW,WOL
DUNMORE,2529,NSW,WOL
FLINDERS,2529,NSW,WOL
OAK FLATS,2529,NSW,WOL
OAK FLATS DC,2529,NSW,WOL
SHELL COVE,2529,NSW,WOL
SHELLHARBOUR,2529,NSW,WOL
SHELLHARBOUR CITY CENTRE,2529,NSW,WOL
SHELLHARBOUR SQUARE,2529,NSW,WOL
AVONDALE,2530,NSW,WOL
BROWNSVILLE,2530,NSW,WOL
CLEVELAND,2530,NSW,WOL
DAPTO,2530,NSW,WOL
HAYWARDS BAY,2530,NSW,WOL
HORSLEY,2530,NSW,WOL
HUNTLEY,2530,NSW,WOL
KANAHOOKA,2530,NSW,WOL
KOONAWARRA,2530,NSW,WOL
MARSHALL MOUNT,2530,NSW,WOL
PENROSE,2530,NSW,WOL
WONGAWILLI,2530,NSW,WOL
YALLAH,2530,NSW,WOL
BOMBO,2533,NSW,WOL
CURRAMORE,2533,NSW,WOL
JAMBEROO,2533,NSW,WOL
JERRARA,2533,NSW,WOL
KIAMA,2533,NSW,WOL
KIAMA DOWNS,2533,NSW,WOL
KIAMA HEIGHTS,2533,NSW,WOL
MINNAMURRA,2533,NSW,WOL
SADDLEBACK MOUNTAIN,2533,NSW,WOL
BROUGHTON VILLAGE,2534,NSW,WOL
FOXGROUND,2534,NSW,WOL
GERRINGONG,2534,NSW,WOL
GERROA,2534,NSW,WOL
WERRI BEACH,2534,NSW,WOL
WILLOW VALE,2534,NSW,WOL
BERRY,2535,NSW,WOL
BROUGHTON,2535,NSW,WOL
COOLANGATTA,2535,NSW,WOL
JASPERS BRUSH,2535,NSW,WOL
SHOALHAVEN HEADS,2535,NSW,WOL
BOLONG,2540,NSW,WOL
CAMBEWARRA,2540,NSW,WOL
CAMBEWARRA VILLAGE,2540,NSW,WOL
FALLS CREEK,2540,NSW,WOL
HMAS ALBATROSS,2540,NSW,WOL
ILLAROO,2540,NSW,WOL
MEROO MEADOW,2540,NSW,WOL
NOWRA HILL,2540,NSW,WOL
NOWRA NAVAL PO,2540,NSW,WOL
TAPITALLEE,2540,NSW,WOL
WORRIGEE,2540,NSW,WOL
BANGALEE,2541,NSW,WOL
BOMADERRY,2541,NSW,WOL
NORTH NOWRA,2541,NSW,WOL
NOWRA,2541,NSW,WOL
NOWRA EAST,2541,NSW,WOL
NOWRA NORTH,2541,NSW,WOL
SOUTH NOWRA,2541,NSW,WOL
WEST NOWRA,2541,NSW,WOL
BADGERYS CREEK,2555,NSW,SYD
BRADFIELD,2556,NSW,SYD
BRINGELLY,2556,NSW,SYD
CATHERINE FIELD,2557,NSW,SYD
GLEDSWOOD HILL,2557,NSW,SYD
GLEDSWOOD HILLS,2557,NSW,SYD
GREGORY HILLS,2557,NSW,SYD
ROSSMORE,2557,NSW,SYD
EAGLE VALE,2558,NSW,SYD
ESCHOL PARK,2558,NSW,SYD
KEARNS,2558,NSW,SYD
BLAIRMOUNT,2559,NSW,SYD
CLAYMORE,2559,NSW,SYD
AIRDS,2560,NSW,SYD
AMBARVALE,2560,NSW,SYD
BLAIR ATHOL,2560,NSW,SYD
BRADBURY,2560,NSW,SYD
CAMPBELLTOWN,2560,NSW,SYD
CAMPBELLTOWN NORTH,2560,NSW,SYD
ENGLORIE PARK,2560,NSW,SYD
GLEN ALPINE,2560,NSW,SYD
KENTLYN,2560,NSW,SYD
LEUMEAH,2560,NSW,SYD
MACARTHUR SQUARE,2560,NSW,SYD
ROSEMEADOW,2560,NSW,SYD
RUSE,2560,NSW,SYD
ST HELENS PARK,2560,NSW,SYD
WOODBINE,2560,NSW,SYD
WEDDERBURN,2560,NSW,SYD
APPIN,2560,NSW,WOL
GLENQUARIE,2564,NSW,SYD
LONG POINT,2564,NSW,SYD
MACQUARIE FIELDS,2564,NSW,SYD
BARDIA,2565,NSW,SYD
DENHAM COURT,2565,NSW,SYD
INGLEBURN,2565,NSW,SYD
MACQUARIE LINKS,2565,NSW,SYD
BOW BOWING,2566,NSW,SYD
MINTO,2566,NSW,SYD
MINTO DC,2566,NSW,SYD
MINTO HEIGHTS,2566,NSW,SYD
RABY,2566,NSW,SYD
ST ANDREWS,2566,NSW,SYD
VARROVILLE,2566,NSW,SYD
CURRANS HILL,2567,NSW,SYD
HARRINGTON PARK,2567,NSW,SYD
MOUNT ANNAN,2567,NSW,SYD
NARELLAN,2567,NSW,SYD
NARELLAN VALE,2567,NSW,SYD
SMEATON GRANGE,2567,NSW,SYD
CAMDEN,2570,NSW,SYD
CAMDEN PARK,2570,NSW,SYD
CAMDEN SOUTH,2570,NSW,SYD
COBBITTY,2570,NSW,SYD
ELDERSLIE,2570,NSW,SYD
KIRKHAM,2570,NSW,SYD
ORAN PARK,2570,NSW,SYD
SPRING FARM,2570,NSW,SYD
BALMORAL VILLAGE,2571,NSW,WOL
BUXTON,2571,NSW,WOL
COURIDJAH,2571,NSW,WOL
MALDON,2571,NSW,WOL
PICTON,2571,NSW,WOL
WILTON,2571,NSW,WOL
THIRLMERE,2572,NSW,WOL
TAHMOOR,2573,NSW,WOL
BARGO,2574,NSW,WOL
YANDERRA,2574,NSW,WOL
ALPINE,2575,NSW,WOL
AYLMERTON,2575,NSW,WOL
BALACLAVA,2575,NSW,WOL
BRAEMAR,2575,NSW,WOL
COLO VALE,2575,NSW,WOL
HILL TOP,2575,NSW,WOL
MITTAGONG,2575,NSW,WOL
RENWICK,2575,NSW,WOL
WELBY,2575,NSW,WOL
WILLOW VALE,2575,NSW,WOL
YERRINBOOL,2575,NSW,WOL
BOWRAL,2576,NSW,WOL
BURRADOO,2576,NSW,WOL
EAST BOWRAL,2576,NSW,WOL
BERRIMA,2577,NSW,WOL
BURRAWANG,2577,NSW,WOL
MOSS VALE,2577,NSW,WOL
NEW BERRIMA,2577,NSW,WOL
ROBERTSON,2577,NSW,WOL
SUTTON FOREST,2577,NSW,WOL
BUNDANOON,2578,NSW,WOL
EXETER,2579,NSW,WOL
KOMUNGLA,2580,ACT,CBR
COOTAMUNDRA,2590,NSW,YNG
YOUNG,2594,NSW,YNG
BARTON,2600,ACT,CBR
CANBERRA,2600,ACT,CBR
CAPITAL HILL,2600,ACT,CBR
DEAKIN,2600,ACT,CBR
DEAKIN WEST,2600,ACT,CBR
DUNTROON,2600,ACT,CBR
FAIRBAIRN RAAF,2600,ACT,CBR
HARMAN,2600,ACT,CBR
HMAS HARMAN,2600,ACT,CBR
PARKES,2600,ACT,CBR
PARLIAMENT HOUSE,2600,ACT,CBR
RUSSELL,2600,ACT,CBR
RUSSELL HILL,2600,ACT,CBR
YARRALUMLA,2600,ACT,CBR
ACTON,2601,ACT,CBR
BLACK MOUNTAIN,2601,ACT,CBR
CANBERRA,2601,ACT,CBR
CITY,2601,ACT,CBR
AINSLIE,2602,ACT,CBR
DICKSON,2602,ACT,CBR
DOWNER,2602,ACT,CBR
HACKETT,2602,ACT,CBR
LYNEHAM,2602,ACT,CBR
O'CONNOR,2602,ACT,CBR
WATSON,2602,ACT,CBR
FORREST,2603,ACT,CBR
GRIFFITH,2603,ACT,CBR
MANUKA,2603,ACT,CBR
RED HILL,2603,ACT,CBR
CAUSEWAY,2604,ACT,CBR
KINGSTON,2604,ACT,CBR
NARRABUNDAH,2604,ACT,CBR
CURTIN,2605,ACT,CBR
GARRAN,2605,ACT,CBR
HUGHES,2605,ACT,CBR
CHIFLEY,2606,ACT,CBR
LYONS,2606,ACT,CBR
O'MALLEY,2606,ACT,CBR
PHILLIP,2606,ACT,CBR
PHILLIP DC,2606,ACT,CBR
SWINGER HILL,2606,ACT,CBR
WODEN,2606,ACT,CBR
FARRER,2607,ACT,CBR
ISAACS,2607,ACT,CBR
MAWSON,2607,ACT,CBR
PEARCE,2607,ACT,CBR
TORRENS,2607,ACT,CBR
CIVIC SQUARE,2608,ACT,CBR
CANBERRA AIRPORT,2609,ACT,CBR
CANBERRA INTERNATIONAL AIRPORT,2609,ACT,CBR
FYSHWICK,2609,ACT,CBR
MAJURA,2609,ACT,CBR
PIALLIGO,2609,ACT,CBR
SYMONSTON,2609,ACT,CBR
CANBERRA BC,2610,ACT,CBR
CANBERRA MC,2610,ACT,CBR
CHAPMAN,2611,ACT,CBR
COOMBS,2611,ACT,CBR
DENMAN PROSPECT,2611,ACT,CBR
DUFFY,2611,ACT,CBR
FISHER,2611,ACT,CBR
HOLDER,2611,ACT,CBR
MOLONGLO VALLEY,2611,ACT,CBR
RIVETT,2611,ACT,CBR
STIRLING,2611,ACT,CBR
WARAMANGA,2611,ACT,CBR
WESTON,2611,ACT,CBR
WESTON CREEK,2611,ACT,CBR
WRIGHT,2611,ACT,CBR
BRADDON,2612,ACT,CBR
CAMPBELL,2612,ACT,CBR
REID,2612,ACT,CBR
TURNER,2612,ACT,CBR
ARANDA,2614,ACT,CBR
COOK,2614,ACT,CBR
HAWKER,2614,ACT,CBR
JAMISON CENTRE,2614,ACT,CBR
MACQUARIE,2614,ACT,CBR
PAGE,2614,ACT,CBR
SCULLIN,2614,ACT,CBR
WEETANGERA,2614,ACT,CBR
CHARNWOOD,2615,ACT,CBR
DUNLOP,2615,ACT,CBR
FLOREY,2615,ACT,CBR
FLYNN,2615,ACT,CBR
FRASER,2615,ACT,CBR
HIGGINS,2615,ACT,CBR
HOLT,2615,ACT,CBR
KIPPAX,2615,ACT,CBR
KIPPAX CENTRE,2615,ACT,CBR
LATHAM,2615,ACT,CBR
MACGREGOR,2615,ACT,CBR
MELBA,2615,ACT,CBR
SPENCE,2615,ACT,CBR
STRATHNAIRN,2615,ACT,CBR
BELCONNEN,2616,ACT,CBR
BELCONNEN,2617,ACT,CBR
BELCONNEN DC,2617,ACT,CBR
BRUCE,2617,ACT,CBR
EVATT,2617,ACT,CBR
GIRALANG,2617,ACT,CBR
KALEEN,2617,ACT,CBR
LAWSON,2617,ACT,CBR
MCKELLAR,2617,ACT,CBR
UNIVERSITY OF CANBERRA,2617,ACT,CBR
HALL,2618,ACT,CBR
JERRABOMBERRA,2619,ACT,CBR
BEARD,2620,ACT,CBR
CRESTWOOD,2620,ACT,CBR
DODSWORTH,2620,ACT,CBR
ENVIRONA,2620,ACT,CBR
GOOGONG,2620,ACT,CBR
GREENLEIGH,2620,ACT,CBR
HUME,2620,ACT,CBR
KARABAR,2620,ACT,CBR
OAKS ESTATE,2620,ACT,CBR
QUEANBEYAN,2620,ACT,CBR
QUEANBEYAN DC,2620,ACT,CBR
QUEANBEYAN EAST,2620,ACT,CBR
QUEANBEYAN WEST,2620,ACT,CBR
THE RIDGEWAY,2620,ACT,CBR
TRALEE,2620,ACT,CBR
ALBURY,2640,NSW,ALB
EAST ALBURY,2640,NSW,ALB
ETTAMOGAH,2640,NSW,ALB
GLENROY,2640,NSW,ALB
LAVINGTON DC,2640,NSW,ALB
NORTH ALBURY,2640,NSW,ALB
SOUTH ALBURY,2640,NSW,ALB
SPLITTERS CREEK,2640,NSW,ALB
TABLE TOP,2640,NSW,ALB
THURGOONA,2640,NSW,ALB
WEST ALBURY,2640,NSW,ALB
WIRLINGA,2640,NSW,ALB
HAMILTON VALLEY,2641,NSW,ALB
LAVINGTON,2641,NSW,ALB
SPRINGDALE HEIGHTS,2641,NSW,ALB
JINDERA,2642,NSW,ALB
HOWLONG,2643,NSW,ALB
COROWA,2646,NSW,ALB
MULWALA,2647,NSW,ALB
ASHMONT,2650,NSW,YNG
BOMEN,2650,NSW,YNG
BOOROOMA,2650,NSW,YNG
BOURKELANDS,2650,NSW,YNG
CARTWRIGHTS HILL,2650,NSW,YNG
EAST WAGGA WAGGA,2650,NSW,YNG
ESTELLA,2650,NSW,YNG
GLENFIELD PARK,2650,NSW,YNG
GOBBAGOMBALIN,2650,NSW,YNG
KOORINGAL,2650,NSW,YNG
LAKE ALBERT,2650,NSW,YNG
LLOYD,2650,NSW,YNG
MOORONG,2650,NSW,YNG
MOUNT AUSTIN,2650,NSW,YNG
NORTH WAGGA WAGGA,2650,NSW,YNG
SOUTH WAGGA WAGGA,2650,NSW,YNG
SPRINGVALE,2650,NSW,YNG
TATTON,2650,NSW,YNG
TOLLAND,2650,NSW,YNG
TURVEY PARK,2650,NSW,YNG
WAGGA WAGGA,2650,NSW,YNG
WAGGA WAGGA BC,2650,NSW,YNG
WAGGA WAGGA NORTH,2650,NSW,YNG
WAGGA WAGGA SOUTH,2650,NSW,YNG
FOREST HILL,2651,NSW,YNG
WAGGA WAGGA RAAF,2651,NSW,YNG
GUMLY GUMLY,2652,NSW,YNG
CHARLES STURT UNIVERSITY,2678,NSW,YNG
BEELBANGERA,2680,NSW,YNG
BILBUL,2680,NSW,YNG
GRIFFITH,2680,NSW,YNG
GRIFFITH DC,2680,NSW,YNG
GRIFFITH EAST,2680,NSW,YNG
HANWOOD,2680,NSW,YNG
THARBOGANG,2680,NSW,YNG
YOOGALI,2680,NSW,YNG
YENDA,2681,NSW,YNG
LEETON,2705,NSW,YNG
ALBURY MSC,2708,NSW,ALB
MURRAY REGION MC,2708,NSW,ALB
GLENMORE PARK,2745,NSW,SYD
LUDDENHAM,2745,NSW,SYD
REGENTVILLE,2745,NSW,SYD
GREENDALE,2745,NSW,SYD
MULGOA,2745,NSW,SYD
WALLACIA,2745,NSW,SYD
CADDENS,2747,NSW,SYD
CAMBRIDGE GARDENS,2747,NSW,SYD
CAMBRIDGE PARK,2747,NSW,SYD
CLAREMONT MEADOWS,2747,NSW,SYD
JORDAN SPRINGS,2747,NSW,SYD
KINGSWOOD,2747,NSW,SYD
LLANDILO,2747,NSW,SYD
SHANES PARK,2747,NSW,SYD
WERRINGTON,2747,NSW,SYD
WERRINGTON COUNTY,2747,NSW,SYD
WERRINGTON DOWNS,2747,NSW,SYD
ORCHARD HILLS,2748,NSW,SYD
CASTLEREAGH,2749,NSW,SYD
CRANEBROOK,2749,NSW,SYD
EMU HEIGHTS,2750,NSW,SYD
EMU PLAINS,2750,NSW,SYD
JAMISONTOWN,2750,NSW,SYD
LEONAY,2750,NSW,SYD
PENRITH,2750,NSW,SYD
PENRITH PLAZA,2750,NSW,SYD
PENRITH SOUTH,2750,NSW,SYD
SOUTH PENRITH,2750,NSW,SYD
PENRITH,2751,NSW,SYD
SILVERDALE,2752,NSW,SYD
WARRAGAMBA,2752,NSW,SYD
AGNES BANKS,2753,NSW,SYD
HOBARTVILLE,2753,NSW,SYD
LONDONDERRY,2753,NSW,SYD
RICHMOND,2753,NSW,SYD
NORTH RICHMOND,2754,NSW,SYD
BLIGH PARK,2756,NSW,SYD
CLARENDON,2756,NSW,SYD
MCGRATHS HILL,2756,NSW,SYD
MULGRAVE,2756,NSW,SYD
PITT TOWN,2756,NSW,SYD
SOUTH WINDSOR,2756,NSW,SYD
WINDSOR,2756,NSW,SYD
WINDSOR DOWNS,2756,NSW,SYD
ERSKINE PARK,2759,NSW,SYD
SAINT CLAIR,2759,NSW,SYD
ST CLAIR,2759,NSW,SYD
COLYTON,2760,NSW,SYD
NORTH SAINT MARYS,2760,NSW,SYD
NORTH ST MARYS,2760,NSW,SYD
OXLEY PARK,2760,NSW,SYD
ROPES CROSSING,2760,NSW,SYD
ST MARYS,2760,NSW,SYD
ST MARYS EAST,2760,NSW,SYD
ST MARYS SOUTH,2760,NSW,SYD
COLEBEE,2761,NSW,SYD
DEAN PARK,2761,NSW,SYD
GLENDENNING,2761,NSW,SYD
GLENDENNING DC,2761,NSW,SYD
HASSALL GROVE,2761,NSW,SYD
OAKHURST,2761,NSW,SYD
PLUMPTON,2761,NSW,SYD
SCHOFIELDS,2762,NSW,SYD
TALLAWONG,2762,NSW,SYD
ACACIA GARDENS,2763,NSW,SYD
NIRIMBA FIELDS,2763,NSW,SYD
QUAKERS HILL,2763,NSW,SYD
ANGUS,2765,NSW,SYD
BERKSHIRE PARK,2765,NSW,SYD
BOX HILL,2765,NSW,SYD
GABLES,2765,NSW,SYD
GRANTHAM FARM,2765,NSW,SYD
MARSDEN PARK,2765,NSW,SYD
MELONBA,2765,NSW,SYD
NELSON,2765,NSW,SYD
OAKVILLE,2765,NSW,SYD
RICHARDS,2765,NSW,SYD
RIVERSTONE,2765,NSW,SYD
VINEYARD,2765,NSW,SYD
EASTERN CREEK,2766,NSW,SYD
ROOTY HILL,2766,NSW,SYD
BUNGARRIBEE,2767,NSW,SYD
DOONSIDE,2767,NSW,SYD
WOODCROFT,2767,NSW,SYD
GLENWOOD,2768,NSW,SYD
PARKLEA,2768,NSW,SYD
STANHOPE GARDENS,2768,NSW,SYD
THE PONDS,2769,NSW,SYD
BIDWILL,2770,NSW,SYD
BLACKETT,2770,NSW,SYD
DHARRUK,2770,NSW,SYD
EMERTON,2770,NSW,SYD
HEBERSHAM,2770,NSW,SYD
LETHBRIDGE PARK,2770,NSW,SYD
MINCHINBURY,2770,NSW,SYD
MOUNT DRUITT,2770,NSW,SYD
MOUNT DRUITT VILLAGE,2770,NSW,SYD
SHALVEY,2770,NSW,SYD
TREGEAR,2770,NSW,SYD
WHALAN,2770,NSW,SYD
WILLMOT,2770,NSW,SYD
GLENBROOK,2773,NSW,SYD
LAPSTONE,2773,NSW,SYD
BLAXLAND,2774,NSW,SYD
BLAXLAND EAST,2774,NSW,SYD
MOUNT RIVERVIEW,2774,NSW,SYD
WARRIMOO,2774,NSW,SYD
FAULCONBRIDGE,2776,NSW,SYD
SPRINGWOOD,2777,NSW,SYD
SUN VALLEY,2777,NSW,SYD
VALLEY HEIGHTS,2777,NSW,SYD
WINMALEE,2777,NSW,SYD
YELLOW ROCK,2777,NSW,SYD
BULLS CAMP,2778,NSW,SYD
LINDEN,2778,NSW,SYD
WOODFORD,2778,NSW,SYD
HAZELBROOK,2779,NSW,SYD
MEDLOW BATH,2780,NSW,SYD
KATOOMBA,2780,NSW,SYD
KATOOMBA DC,2780,NSW,SYD
LEURA,2780,NSW,SYD
WENTWORTH FALLS,2782,NSW,SYD
LAWSON,2783,NSW,SYD
BULLABURRA,2784,NSW,SYD
BLACKHEATH,2785,NSW,SYD
MOUNT VICTORIA,2786,NSW,SYD
COWRA,2794,NSW,YNG
ABERCROMBIE,2795,NSW,OAG
BATHURST,2795,NSW,OAG
CHARLES STURT UNIVERSITY,2795,NSW,OAG
EGLINTON,2795,NSW,OAG
GORMANS HILL,2795,NSW,OAG
KELSO,2795,NSW,OAG
LLANARTH,2795,NSW,OAG
MITCHELL,2795,NSW,OAG
MOUNT PANORAMA,2795,NSW,OAG
RAGLAN,2795,NSW,OAG
ROBIN HILL,2795,NSW,OAG
SOUTH BATHURST,2795,NSW,OAG
WEST BATHURST,2795,NSW,OAG
WHITE ROCK,2795,NSW,OAG
WINDRADYNE,2795,NSW,OAG
BATHURST MC,2796,NSW,OAG
BLETCHINGTON,2800,NSW,OAG
BLOOMFIELD,2800,NSW,OAG
BOWEN,2800,NSW,OAG
CALARE,2800,NSW,OAG
CANOBOLAS,2800,NSW,OAG
CLIFTON GROVE,2800,NSW,OAG
GLENROI,2800,NSW,OAG
HUNTLEY,2800,NSW,OAG
LUCKNOW,2800,NSW,OAG
NARRAMBLA,2800,NSW,OAG
NASHDALE,2800,NSW,OAG
ORANGE,2800,NSW,OAG
ORANGE DC,2800,NSW,OAG
ORANGE EAST,2800,NSW,OAG
SPRING CREEK,2800,NSW,OAG
SUMA PARK,2800,NSW,OAG
SYDNEY GATEWAY FACILITY,2891,NSW,SYD
GREENWAY,2900,ACT,CBR
TUGGERANONG,2900,ACT,CBR
TUGGERANONG DC,2901,ACT,CBR
KAMBAH,2902,ACT,CBR
KAMBAH VILLAGE,2902,ACT,CBR
ERINDALE CENTRE,2903,ACT,CBR
OXLEY,2903,ACT,CBR
WANNIASSA,2903,ACT,CBR
FADDEN,2904,ACT,CBR
GOWRIE,2904,ACT,CBR
MACARTHUR,2904,ACT,CBR
MONASH,2904,ACT,CBR
BONYTHON,2905,ACT,CBR
CALWELL,2905,ACT,CBR
CHISHOLM,2905,ACT,CBR
GILMORE,2905,ACT,CBR
ISABELLA PLAINS,2905,ACT,CBR
RICHARDSON,2905,ACT,CBR
THEODORE,2905,ACT,CBR
BANKS,2906,ACT,CBR
CONDER,2906,ACT,CBR
GORDON,2906,ACT,CBR
CRACE,2911,ACT,CBR
MITCHELL,2911,ACT,CBR
GUNGAHLIN,2912,ACT,CBR
CASEY,2913,ACT,CBR
FRANKLIN,2913,ACT,CBR
GINNINDERRA VILLAGE,2913,ACT,CBR
NGUNNAWAL,2913,ACT,CBR
NICHOLLS,2913,ACT,CBR
PALMERSTON,2913,ACT,CBR
TAYLOR,2913,ACT,CBR
AMAROO,2914,ACT,CBR
BONNER,2914,ACT,CBR
FORDE,2914,ACT,CBR
HARRISON,2914,ACT,CBR
JACKA,2914,ACT,CBR
MONCRIEFF,2914,ACT,CBR
THROSBY,2914,ACT,CBR
MELBOURNE,3000,VIC,MEL
MELBOURNE,3001,VIC,MEL
EAST MELBOURNE,3002,VIC,MEL
WEST MELBOURNE,3003,VIC,MEL
MELBOURNE,3004,VIC,MEL
ST KILDA ROAD CENTRAL,3004,VIC,MEL
WORLD TRADE CENTRE,3005,VIC,MEL
SOUTH WHARF,3006,VIC,MEL
SOUTHBANK,3006,VIC,MEL
DOCKLANDS,3008,VIC,MEL
UNIVERSITY OF MELBOURNE,3010,VIC,MEL
FOOTSCRAY,3011,VIC,MEL
SEDDON,3011,VIC,MEL
SEDDON WEST,3011,VIC,MEL
BROOKLYN,3012,VIC,MEL
KINGSVILLE,3012,VIC,MEL
KINGSVILLE WEST,3012,VIC,MEL
MAIDSTONE,3012,VIC,MEL
TOTTENHAM,3012,VIC,MEL
WEST FOOTSCRAY,3012,VIC,MEL
YARRAVILLE,3013,VIC,MEL
YARRAVILLE WEST,3013,VIC,MEL
NEWPORT,3015,VIC,MEL
SOUTH KINGSVILLE,3015,VIC,MEL
SPOTSWOOD,3015,VIC,MEL
WILLIAMSTOWN,3016,VIC,MEL
WILLIAMSTOWN NORTH,3016,VIC,MEL
ALTONA,3018,VIC,MEL
SEAHOLME,3018,VIC,MEL
BRAYBROOK,3019,VIC,MEL
BRAYBROOK NORTH,3019,VIC,MEL
ROBINSON,3019,VIC,MEL
ALBION,3020,VIC,MEL
GLENGALA,3020,VIC,MEL
SUNSHINE,3020,VIC,MEL
SUNSHINE NORTH,3020,VIC,MEL
SUNSHINE WEST,3020,VIC,MEL
ALBANVALE,3021,VIC,MEL
KEALBA,3021,VIC,MEL
KINGS PARK,3021,VIC,MEL
ST ALBANS,3021,VIC,MEL
ARDEER,3022,VIC,MEL
DEER PARK EAST,3022,VIC,MEL
BURNSIDE,3023,VIC,MEL
BURNSIDE HEIGHTS,3023,VIC,MEL
CAIRNLEA,3023,VIC,MEL
CAROLINE SPRINGS,3023,VIC,MEL
DEER PARK,3023,VIC,MEL
DEER PARK NORTH,3023,VIC,MEL
RAVENHALL,3023,VIC,MEL
MANOR LAKES,3024,VIC,MEL
TRUGANINA,3024,VIC,MEL
WYNDHAM VALE,3024,VIC,MEL
ALTONA EAST,3025,VIC,MEL
ALTONA GATE,3025,VIC,MEL
ALTONA NORTH,3025,VIC,MEL
DERRIMUT,3026,VIC,MEL
LAVERTON NORTH,3026,VIC,MEL
LAVERTON RAAF,3027,VIC,MEL
WILLIAMS LANDING,3027,VIC,MEL
WILLIAMS RAAF,3027,VIC,MEL
ALTONA MEADOWS,3028,VIC,MEL
LAVERTON,3028,VIC,MEL
SEABROOK,3028,VIC,MEL
HOPPERS CROSSING,3029,VIC,MEL
TARNEIT,3029,VIC,MEL
TRUGANINA,3029,VIC,MEL
CHARTWELL,3030,VIC,MEL
DERRIMUT,3030,VIC,MEL
POINT COOK,3030,VIC,MEL
WERRIBEE,3030,VIC,MEL
WERRIBEE SOUTH,3030,VIC,MEL
FLEMINGTON,3031,VIC,MEL
KENSINGTON,3031,VIC,MEL
ASCOT VALE,3032,VIC,MEL
HIGHPOINT CITY,3032,VIC,MEL
MARIBYRNONG,3032,VIC,MEL
TRAVANCORE,3032,VIC,MEL
KEILOR EAST,3033,VIC,MEL
AVONDALE HEIGHTS,3034,VIC,MEL
KEILOR,3036,VIC,MEL
KEILOR NORTH,3036,VIC,MEL
CALDER PARK,3037,VIC,MEL
DELAHEY,3037,VIC,MEL
HILLSIDE,3037,VIC,MEL
PLUMPTON,3037,VIC,MEL
SYDENHAM,3037,VIC,MEL
TAYLORS HILL,3037,VIC,MEL
KEILOR DOWNS,3038,VIC,MEL
KEILOR LODGE,3038,VIC,MEL
TAYLORS LAKES,3038,VIC,MEL
MOONEE PONDS,3039,VIC,MEL
ABERFELDIE,3040,VIC,MEL
ESSENDON,3040,VIC,MEL
ESSENDON WEST,3040,VIC,MEL
ESSENDON FIELDS,3041,VIC,MEL
ESSENDON NORTH,3041,VIC,MEL
STRATHMORE,3041,VIC,MEL
STRATHMORE HEIGHTS,3041,VIC,MEL
AIRPORT WEST,3042,VIC,MEL
KEILOR PARK,3042,VIC,MEL
NIDDRIE,3042,VIC,MEL
GLADSTONE PARK,3043,VIC,MEL
GOWANBRAE,3043,VIC,MEL
TULLAMARINE,3043,VIC,MEL
PASCOE VALE,3044,VIC,MEL
PASCOE VALE SOUTH,3044,VIC,MEL
MELBOURNE AIRPORT,3045,VIC,MEL
GLENROY,3046,VIC,MEL
HADFIELD,3046,VIC,MEL
OAK PARK,3046,VIC,MEL
BROADMEADOWS,3047,VIC,MEL
DALLAS,3047,VIC,MEL
JACANA,3047,VIC,MEL
COOLAROO,3048,VIC,MEL
MEADOW HEIGHTS,3048,VIC,MEL
ATTWOOD,3049,VIC,MEL
CALDER PARK,3049,VIC,MEL
WESTMEADOWS,3049,VIC,MEL
ROYAL MELBOURNE HOSPITAL,3050,VIC,MEL
NORTH MELBOURNE,3051,VIC,MEL
MELBOURNE UNIVERSITY,3052,VIC,MEL
PARKVILLE,3052,VIC,MEL
CARLTON,3053,VIC,MEL
CARLTON SOUTH,3053,VIC,MEL
CARLTON NORTH,3054,VIC,MEL
PRINCES HILL,3054,VIC,MEL
BRUNSWICK SOUTH,3055,VIC,MEL
BRUNSWICK WEST,3055,VIC,MEL
MOONEE VALE,3055,VIC,MEL
MORELAND WEST,3055,VIC,MEL
BRUNSWICK,3056,VIC,MEL
BRUNSWICK LOWER,3056,VIC,MEL
BRUNSWICK NORTH,3056,VIC,MEL
BRUNSWICK EAST,3057,VIC,MEL
LYGON STREET NORTH,3057,VIC,MEL
MEADOW HEIGHTS,3057,VIC,MEL
COBURG,3058,VIC,MEL
COBURG NORTH,3058,VIC,MEL
MERLYNSTON,3058,VIC,MEL
MORELAND,3058,VIC,MEL
GREENVALE,3059,VIC,MEL
FAWKNER,3060,VIC,MEL
FAWKNER EAST,3060,VIC,MEL
FAWKNER NORTH,3060,VIC,MEL
CAMPBELLFIELD,3061,VIC,MEL
SOMERTON,3062,VIC,MEL
CRAIGIEBURN,3064,VIC,MEL
MICKLEHAM,3064,VIC,MEL
ROXBURGH PARK,3064,VIC,MEL
FITZROY,3065,VIC,MEL
COLLINGWOOD,3066,VIC,MEL
COLLINGWOOD NORTH,3066,VIC,MEL
ABBOTSFORD,3067,VIC,MEL
CLIFTON HILL,3068,VIC,MEL
FITZROY NORTH,3068,VIC,MEL
NORTHCOTE,3070,VIC,MEL
NORTHCOTE SOUTH,3070,VIC,MEL
THORNBURY,3071,VIC,MEL
NORTHLAND CENTRE,3072,VIC,MEL
PRESTON,3072,VIC,MEL
PRESTON SOUTH,3072,VIC,MEL
PRESTON WEST,3072,VIC,MEL
SYLVESTER,3072,VIC,MEL
KEON PARK,3073,VIC,MEL
RESERVOIR,3073,VIC,MEL
RESERVOIR EAST,3073,VIC,MEL
RESERVOIR NORTH,3073,VIC,MEL
RESERVOIR SOUTH,3073,VIC,MEL
THOMASTOWN,3074,VIC,MEL
LALOR,3075,VIC,MEL
LALOR PLAZA,3075,VIC,MEL
EPPING,3076,VIC,MEL
EPPING DC,3076,VIC,MEL
ALPHINGTON,3078,VIC,MEL
FAIRFIELD,3078,VIC,MEL
IVANHOE,3079,VIC,MEL
IVANHOE EAST,3079,VIC,MEL
IVANHOE NORTH,3079,VIC,MEL
BELLFIELD,3081,VIC,MEL
HEIDELBERG HEIGHTS,3081,VIC,MEL
HEIDELBERG RGH,3081,VIC,MEL
HEIDELBERG WEST,3081,VIC,MEL
MILL PARK,3082,VIC,MEL
BUNDOORA,3083,VIC,MEL
KINGSBURY,3083,VIC,MEL
LA TROBE UNIVERSITY,3083,VIC,MEL
EAGLEMONT,3084,VIC,MEL
HEIDELBERG,3084,VIC,MEL
ROSANNA,3084,VIC,MEL
VIEWBANK,3084,VIC,MEL
MACLEOD,3085,VIC,MEL
MACLEOD WEST,3085,VIC,MEL
YALLAMBIE,3085,VIC,MEL
LA TROBE UNIVERSITY,3086,VIC,MEL
WATSONIA,3087,VIC,MEL
WATSONIA NORTH,3087,VIC,MEL
BRIAR HILL,3088,VIC,MEL
GREENSBOROUGH,3088,VIC,MEL
SAINT HELENA,3088,VIC,MEL
ST HELENA,3088,VIC,MEL
LOWER PLENTY,3093,VIC,MEL
MONTMORENCY,3094,VIC,MEL
ELTHAM,3095,VIC,MEL
ELTHAM NORTH,3095,VIC,MEL
RESEARCH,3095,VIC,MEL
KEW,3101,VIC,MEL
KEW EAST,3102,VIC,MEL
BALWYN,3103,VIC,MEL
BALWYN EAST,3103,VIC,MEL
DEEPDENE,3103,VIC,MEL
DEEPDENE DC,3103,VIC,MEL
BALWYN NORTH,3104,VIC,MEL
GREYTHORN,3104,VIC,MEL
BULLEEN,3105,VIC,MEL
BULLEEN SOUTH,3105,VIC,MEL
TEMPLESTOWE,3106,VIC,MEL
TEMPLESTOWE LOWER,3107,VIC,MEL
DONCASTER,3108,VIC,MEL
DONCASTER EAST,3109,VIC,MEL
DONCASTER HEIGHTS,3109,VIC,MEL
NUNAWADING BC,3110,VIC,MEL
DONVALE,3111,VIC,MEL
CHIRNSIDE PARK,3116,VIC,MEL
BURNLEY,3121,VIC,MEL
BURNLEY NORTH,3121,VIC,MEL
CREMORNE,3121,VIC,MEL
RICHMOND,3121,VIC,MEL
RICHMOND EAST,3121,VIC,MEL
RICHMOND NORTH,3121,VIC,MEL
RICHMOND SOUTH,3121,VIC,MEL
VICTORIA GARDENS,3121,VIC,MEL
AUBURN SOUTH,3122,VIC,MEL
HAWTHORN,3122,VIC,MEL
HAWTHORN NORTH,3122,VIC,MEL
HAWTHORN WEST,3122,VIC,MEL
AUBURN,3123,VIC,MEL
HAWTHORN EAST,3123,VIC,MEL
CAMBERWELL,3124,VIC,MEL
CAMBERWELL NORTH,3124,VIC,MEL
CAMBERWELL SOUTH,3124,VIC,MEL
CAMBERWELL WEST,3124,VIC,MEL
HARTWELL,3124,VIC,MEL
MIDDLE CAMBERWELL,3124,VIC,MEL
BENNETSWOOD,3125,VIC,MEL
BURWOOD,3125,VIC,MEL
SURREY HILLS SOUTH,3125,VIC,MEL
CAMBERWELL EAST,3126,VIC,MEL
CANTERBURY,3126,VIC,MEL
MONT ALBERT,3127,VIC,MEL
SURREY HILLS,3127,VIC,MEL
SURREY HILLS NORTH,3127,VIC,MEL
BOX HILL,3128,VIC,MEL
BOX HILL CENTRAL,3128,VIC,MEL
BOX HILL SOUTH,3128,VIC,MEL
BOX HILL NORTH,3129,VIC,MEL
MONT ALBERT NORTH,3129,VIC,MEL
BLACKBURN,3130,VIC,MEL
BLACKBURN NORTH,3130,VIC,MEL
BLACKBURN SOUTH,3130,VIC,MEL
LABURNUM,3130,VIC,MEL
FOREST HILL,3131,VIC,MEL
NUNAWADING,3131,VIC,MEL
MITCHAM,3132,VIC,MEL
MITCHAM NORTH,3132,VIC,MEL
VERMONT,3133,VIC,MEL
VERMONT SOUTH,3133,VIC,MEL
RINGWOOD,3134,VIC,MEL
RINGWOOD NORTH,3134,VIC,MEL
WARRANWOOD,3134,VIC,MEL
HEATHMONT,3135,VIC,MEL
RINGWOOD EAST,3135,VIC,MEL
CROYDON,3136,VIC,MEL
CROYDON HILLS,3136,VIC,MEL
CROYDON NORTH,3136,VIC,MEL
CROYDON SOUTH,3136,VIC,MEL
KILSYTH,3137,VIC,MEL
KILSYTH SOUTH,3137,VIC,MEL
MOOROOLBARK,3138,VIC,MEL
LILYDALE,3140,VIC,MEL
SOUTH YARRA,3141,VIC,MEL
HAWKSBURN,3142,VIC,MEL
TOORAK,3142,VIC,MEL
ARMADALE,3143,VIC,MEL
ARMADALE NORTH,3143,VIC,MEL
KOOYONG,3144,VIC,MEL
MALVERN,3144,VIC,MEL
MALVERN NORTH,3144,VIC,MEL
CAULFIELD EAST,3145,VIC,MEL
MALVERN EAST,3145,VIC,MEL
GLEN IRIS,3146,VIC,MEL
ASHBURTON,3147,VIC,MEL
ASHWOOD,3147,VIC,MEL
CHADSTONE,3148,VIC,MEL
CHADSTONE CENTRE,3148,VIC,MEL
MOUNT WAVERLEY,3149,VIC,MEL
BRANDON PARK,3150,VIC,MEL
GLEN WAVERLEY,3150,VIC,MEL
WHEELERS HILL,3150,VIC,MEL
BURWOOD EAST,3151,VIC,MEL
BURWOOD HEIGHTS,3151,VIC,MEL
KNOX CITY CENTRE,3152,VIC,MEL
WANTIRNA,3152,VIC,MEL
WANTIRNA SOUTH,3152,VIC,MEL
BAYSWATER,3153,VIC,MEL
BAYSWATER NORTH,3153,VIC,MEL
THE BASIN,3154,VIC,MEL
BORONIA,3155,VIC,MEL
FERNTREE GULLY,3156,VIC,MEL
LYSTERFIELD,3156,VIC,MEL
LYSTERFIELD SOUTH,3156,VIC,MEL
MOUNTAIN GATE,3156,VIC,MEL
CAULFIELD JUNCTION,3161,VIC,MEL
CAULFIELD NORTH,3161,VIC,MEL
CAULFIELD,3162,VIC,MEL
CAULFIELD SOUTH,3162,VIC,MEL
CARNEGIE,3163,VIC,MEL
GLEN HUNTLY,3163,VIC,MEL
MURRUMBEENA,3163,VIC,MEL
DANDENONG SOUTH,3164,VIC,MEL
BENTLEIGH EAST,3165,VIC,MEL
HUGHESDALE,3166,VIC,MEL
HUNTINGDALE,3166,VIC,MEL
OAKLEIGH,3166,VIC,MEL
OAKLEIGH EAST,3166,VIC,MEL
OAKLEIGH SOUTH,3167,VIC,MEL
CLAYTON,3168,VIC,MEL
NOTTING HILL,3168,VIC,MEL
CLARINDA,3169,VIC,MEL
CLAYTON SOUTH,3169,VIC,MEL
MULGRAVE,3170,VIC,MEL
SPRINGVALE,3171,VIC,MEL
DINGLEY,3172,VIC,MEL
DINGLEY VILLAGE,3172,VIC,MEL
SPRINGVALE SOUTH,3172,VIC,MEL
KEYSBOROUGH,3173,VIC,MEL
NOBLE PARK,3174,VIC,MEL
NOBLE PARK EAST,3174,VIC,MEL
NOBLE PARK NORTH,3174,VIC,MEL
BANGHOLME,3175,VIC,MEL
DANDENONG,3175,VIC,MEL
DANDENONG EAST,3175,VIC,MEL
DANDENONG NORTH,3175,VIC,MEL
DANDENONG PLAZA,3175,VIC,MEL
DANDENONG SOUTH,3175,VIC,MEL
SCORESBY BC,3176,VIC,MEL
DOVETON,3177,VIC,MEL
EUMEMMERRING,3177,VIC,MEL
ROWVILLE,3178,VIC,MEL
SCORESBY,3179,VIC,MEL
KNOXFIELD,3180,VIC,MEL
PRAHRAN,3181,VIC,MEL
PRAHRAN EAST,3181,VIC,MEL
WINDSOR,3181,VIC,MEL
SAINT KILDA,3182,VIC,MEL
ST KILDA,3182,VIC,MEL
ST KILDA SOUTH,3182,VIC,MEL
ST KILDA WEST,3182,VIC,MEL
BALACLAVA,3183,VIC,MEL
ST KILDA EAST,3183,VIC,MEL
BRIGHTON ROAD,3184,VIC,MEL
ELWOOD,3184,VIC,MEL
ELSTERNWICK,3185,VIC,MEL
GARDENVALE,3185,VIC,MEL
RIPPONLEA,3185,VIC,MEL
BRIGHTON,3186,VIC,MEL
BRIGHTON NORTH,3186,VIC,MEL
BRIGHTON EAST,3187,VIC,MEL
NORTH ROAD,3187,VIC,MEL
HAMPTON,3188,VIC,MEL
HAMPTON EAST,3188,VIC,MEL
HAMPTON NORTH,3188,VIC,MEL
MOORABBIN,3189,VIC,MEL
MOORABBIN EAST,3189,VIC,MEL
HIGHETT,3190,VIC,MEL
SANDRINGHAM,3191,VIC,MEL
CHELTENHAM,3192,VIC,MEL
CHELTENHAM EAST,3192,VIC,MEL
CHELTENHAM NORTH,3192,VIC,MEL
SOUTHLAND CENTRE,3192,VIC,MEL
BEAUMARIS,3193,VIC,MEL
BLACK ROCK,3193,VIC,MEL
MENTONE,3194,VIC,MEL
MENTONE EAST,3194,VIC,MEL
MOORABBIN AIRPORT,3194,VIC,MEL
ASPENDALE,3195,VIC,MEL
ASPENDALE GARDENS,3195,VIC,MEL
BRAESIDE,3195,VIC,MEL
MORDIALLOC,3195,VIC,MEL
MORDIALLOC NORTH,3195,VIC,MEL
PARKDALE,3195,VIC,MEL
WATERWAYS,3195,VIC,MEL
BONBEACH,3196,VIC,MEL
CHELSEA,3196,VIC,MEL
CHELSEA HEIGHTS,3196,VIC,MEL
EDITHVALE,3196,VIC,MEL
CARRUM,3197,VIC,MEL
PATTERSON LAKES,3197,VIC,MEL
SEAFORD,3198,VIC,MEL
FRANKSTON,3199,VIC,MEL
FRANKSTON EAST,3199,VIC,MEL
FRANKSTON HEIGHTS,3199,VIC,MEL
FRANKSTON SOUTH,3199,VIC,MEL
KARINGAL,3199,VIC,MEL
FRANKSTON NORTH,3200,VIC,MEL
CARRUM DOWNS,3201,VIC,MEL
HEATHERTON,3202,VIC,MEL
BENTLEIGH,3204,VIC,MEL
MCKINNON,3204,VIC,MEL
ORMOND,3204,VIC,MEL
SOUTH MELBOURNE,3205,VIC,MEL
SOUTH MELBOURNE DC,3205,VIC,MEL
ALBERT PARK,3206,VIC,MEL
MIDDLE PARK,3206,VIC,MEL
GARDEN CITY,3207,VIC,MEL
PORT MELBOURNE,3207,VIC,MEL
LARA,3212,VIC,GEE
LOVELY BANKS,3213,VIC,GEE
CORIO,3214,VIC,GEE
NORLANE,3214,VIC,GEE
NORTH SHORE,3214,VIC,GEE
BELL PARK,3215,VIC,GEE
BELL POST HILL,3215,VIC,GEE
DRUMCONDRA,3215,VIC,GEE
GEELONG NORTH,3215,VIC,GEE
HAMLYN HEIGHTS,3215,VIC,GEE
NORTH GEELONG,3215,VIC,GEE
RIPPLESIDE,3215,VIC,GEE
BELMONT,3216,VIC,GEE
GROVEDALE,3216,VIC,GEE
GROVEDALE EAST,3216,VIC,GEE
HIGHTON,3216,VIC,GEE
MARSHALL,3216,VIC,GEE
WANDANA HEIGHTS,3216,VIC,GEE
WAURN PONDS,3216,VIC,GEE
ARMSTRONG CREEK,3217,VIC,GEE
CHARLEMONT,3217,VIC,GEE
DEAKIN UNIVERSITY,3217,VIC,GEE
MOUNT DUNEED,3217,VIC,GEE
FYANSFORD,3218,VIC,GEE
GEELONG WEST,3218,VIC,GEE
HERNE HILL,3218,VIC,GEE
MANIFOLD HEIGHTS,3218,VIC,GEE
BREAKWATER,3219,VIC,GEE
EAST GEELONG,3219,VIC,GEE
NEWCOMB,3219,VIC,GEE
ST ALBANS PARK,3219,VIC,GEE
THOMSON,3219,VIC,GEE
WHITTINGTON,3219,VIC,GEE
BAREENA,3220,VIC,GEE
GEELONG,3220,VIC,GEE
NEWTOWN,3220,VIC,GEE
SOUTH GEELONG,3220,VIC,GEE
BELLARINE,3221,VIC,GEE
CERES,3221,VIC,GEE
GEELONG MC,3221,VIC,GEE
MOOLAP,3221,VIC,GEE
CLIFTON SPRINGS,3222,VIC,GEE
CURLEWIS,3222,VIC,GEE
DRYSDALE,3222,VIC,GEE
MANNERIM,3222,VIC,GEE
MARCUS HILL,3222,VIC,GEE
WALLINGTON,3222,VIC,GEE
BELLARINE,3223,VIC,GEE
INDENTED HEAD,3223,VIC,GEE
PORTARLINGTON,3223,VIC,GEE
SAINT LEONARDS,3223,VIC,GEE
ST LEONARDS,3223,VIC,GEE
LEOPOLD,3224,VIC,GEE
MOOLAP,3224,VIC,GEE
POINT LONSDALE,3225,VIC,GEE
QUEENSCLIFF,3225,VIC,GEE
SWAN BAY,3225,VIC,GEE
OCEAN GROVE,3226,VIC,GEE
BARWON HEADS,3227,VIC,GEE
BREAMLEA,3227,VIC,GEE
CONNEWARRE,3227,VIC,GEE
JAN JUC,3228,VIC,GEE
TORQUAY,3228,VIC,GEE
COLAC,3250,VIC,GEE
COLAC EAST,3250,VIC,GEE
COLAC WEST,3250,VIC,GEE
ELLIMINYT,3250,VIC,GEE
BANNOCKBURN,3331,VIC,GEE
GHERINGHAP,3331,VIC,GEE
BONNIE BROOK,3335,VIC,MEL
PLUMPTON,3335,VIC,MEL
ROCKBANK,3335,VIC,MEL
THORNHILL PARK,3335,VIC,MEL
AINTREE,3336,VIC,MEL
DEANSIDE,3336,VIC,MEL
FRASER RISE,3336,VIC,MEL
HARKNESS,3337,VIC,MEL
KURUNJANG,3337,VIC,MEL
MELTON,3337,VIC,MEL
MELTON WEST,3337,VIC,MEL
TOOLERN VALE,3337,VIC,MEL
BROOKFIELD,3338,VIC,MEL
MELTON SOUTH,3338,VIC,MEL
WEIR VIEWS,3338,VIC,MEL
BACCHUS MARSH,3340,VIC,MEL
DARLEY,3340,VIC,MEL
HOPETOUN PARK,3340,VIC,MEL
LONG FOREST,3340,VIC,MEL
MADDINGLEY,3340,VIC,MEL
PARWAN,3340,VIC,MEL
ALFREDTON,3350,VIC,GEE
BAKERY HILL,3350,VIC,GEE
BALLARAT,3350,VIC,GEE
BALLARAT CENTRAL,3350,VIC,GEE
BALLARAT EAST,3350,VIC,GEE
BALLARAT NORTH,3350,VIC,GEE
BALLARAT WEST,3350,VIC,GEE
BLACK HILL,3350,VIC,GEE
BROWN HILL,3350,VIC,GEE
CANADIAN,3350,VIC,GEE
EUREKA,3350,VIC,GEE
GOLDEN POINT,3350,VIC,GEE
INVERMAY PARK,3350,VIC,GEE
LAKE WENDOUREE,3350,VIC,GEE
LUCAS,3350,VIC,GEE
MOUNT CLEAR,3350,VIC,GEE
MOUNT HELEN,3350,VIC,GEE
MOUNT PLEASANT,3350,VIC,GEE
NERRINA,3350,VIC,GEE
NEWINGTON,3350,VIC,GEE
REDAN,3350,VIC,GEE
SOLDIERS HILL,3350,VIC,GEE
SOVEREIGN HILL,3350,VIC,GEE
CARDIGAN,3352,VIC,GEE
INVERMAY,3352,VIC,GEE
MINERS REST,3352,VIC,GEE
MITCHELL PARK,3352,VIC,GEE
BALLARAT,3353,VIC,GEE
BALLARAT MC,3354,VIC,GEE
LAKE GARDENS,3355,VIC,GEE
MITCHELL PARK,3355,VIC,GEE
WENDOUREE,3355,VIC,GEE
WENDOUREE VILLAGE,3355,VIC,GEE
DELACOMBE,3356,VIC,GEE
SEBASTOPOL,3356,VIC,GEE
BUNINYONG,3357,VIC,GEE
WINTER VALLEY,3358,VIC,GEE
DIGGERS REST,3427,VIC,MEL
PLUMPTON,3427,VIC,MEL
SUNBURY,3429,VIC,MEL
GISBORNE,3437,VIC,MEL
GISBORNE SOUTH,3437,VIC,MEL
NEW GISBORNE,3438,VIC,MEL
CADELLO,3442,VIC,MEL
MALMSBURY,3446,VIC,BEN
TARADALE,3447,VIC,BEN
ELPHINSTONE,3448,VIC,BEN
CASTLEMAINE,3450,VIC,BEN
CAMPBELLS CREEK,3451,VIC,BEN
CHEWTON,3451,VIC,BEN
MCKENZIE HILL,3451,VIC,BEN
HARCOURT,3453,VIC,BEN
MALDON,3463,VIC,BEN
MARONG,3515,VIC,BEN
ARGYLE,3523,VIC,BEN
HEATHCOTE,3523,VIC,BEN
BENDIGO,3550,VIC,BEN
BENDIGO SOUTH,3550,VIC,BEN
EAST BENDIGO,3550,VIC,BEN
FLORA HILL,3550,VIC,BEN
IRONBARK,3550,VIC,BEN
KENNINGTON,3550,VIC,BEN
LONG GULLY,3550,VIC,BEN
NORTH BENDIGO,3550,VIC,BEN
QUARRY HILL,3550,VIC,BEN
SPRING GULLY,3550,VIC,BEN
STRATHDALE,3550,VIC,BEN
WEST BENDIGO,3550,VIC,BEN
WHITE HILLS,3550,VIC,BEN
ASCOT,3551,VIC,BEN
AXEDALE,3551,VIC,BEN
BAGSHOT,3551,VIC,BEN
BENDIGO FORWARD,3551,VIC,BEN
EPSOM,3551,VIC,BEN
HUNTLY,3551,VIC,BEN
JUNORTOUN,3551,VIC,BEN
MAIDEN GULLY,3551,VIC,BEN
MANDURANG,3551,VIC,BEN
STRATHFIELDSAYE,3551,VIC,BEN
BENDIGO,3552,VIC,BEN
BENDIGO DC,3554,VIC,BEN
BIG HILL,3555,VIC,BEN
GOLDEN GULLY,3555,VIC,BEN
GOLDEN SQUARE,3555,VIC,BEN
KANGAROO FLAT,3555,VIC,BEN
LANSELL PLAZA,3555,VIC,BEN
CALIFORNIA GULLY,3556,VIC,BEN
EAGLEHAWK,3556,VIC,BEN
JACKASS FLAT,3556,VIC,BEN
MYERS FLAT,3556,VIC,BEN
SAILORS GULLY,3556,VIC,BEN
WANGARATTA,3676,NSW,ALB
WANGARATTA,3677,NSW,ALB
WANGARATTA WEST,3677,NSW,ALB
BOWSER,3678,NSW,ALB
EAST WANGARATTA,3678,NSW,ALB
EVERTON,3678,NSW,ALB
EVERTON UPPER,3678,NSW,ALB
MILAWA,3678,NSW,ALB
NORTH WANGARATTA,3678,NSW,ALB
OXLEY,3678,NSW,ALB
OXLEY FLATS,3678,NSW,ALB
TARRAWINGEE,3678,NSW,ALB
WALDARA,3678,NSW,ALB
WANGARATTA FORWARD,3678,NSW,ALB
CHILTERN,3683,NSW,ALB
INDIGO,3683,NSW,ALB
LAKE MOODEMERE,3685,NSW,ALB
RUTHERGLEN,3685,NSW,ALB
WAHGUNYAH,3687,NSW,ALB
BARNAWARTHA,3688,NSW,ALB
BARNAWARTHA NORTH,3688,NSW,ALB
INDIGO UPPER,3688,NSW,ALB
WODONGA,3689,NSW,ALB
WEST WODONGA,3690,NSW,ALB
WODONGA,3690,NSW,ALB
WODONGA PLAZA,3690,NSW,ALB
BANDIANA,3691,NSW,ALB
BARANDUDA,3691,NSW,ALB
BARNAWARTHA NORTH,3691,NSW,ALB
GATEWAY ISLAND,3691,NSW,ALB
HUON CREEK,3691,NSW,ALB
KIEWA,3691,NSW,ALB
KILLARA,3691,NSW,ALB
LENEVA,3691,NSW,ALB
TANGAMBALANGA,3691,NSW,ALB
WODONGA FORWARD,3691,NSW,ALB
BANDIANA,3694,NSW,ALB
BANDIANA MILPO,3694,NSW,ALB
BUNDALONG,3730,NSW,ALB
YARRAWONGA,3730,NSW,ALB
MYRTLEFORD,3737,NSW,ALB
OVENS,3738,NSW,ALB
EUROBIN,3739,NSW,ALB
POREPUNKAH,3740,NSW,ALB
BRIGHT,3741,NSW,ALB
BEECHWORTH,3747,NSW,ALB
SILVER CREEK,3747,NSW,ALB
STANLEY,3747,NSW,ALB
YACKANDANDAH,3749,NSW,ALB
SOUTH MORANG,3752,VIC,MEL
DOREEN,3754,VIC,MEL
MERNDA,3754,VIC,MEL
MONASH UNIVERSITY,3800,VIC,MEL
ENDEAVOUR HILLS,3802,VIC,MEL
HALLAM,3803,VIC,MEL
NARRE WARREN NORTH,3804,VIC,MEL
FOUNTAIN GATE,3805,VIC,MEL
NARRE WARREN,3805,VIC,MEL
NARRE WARREN SOUTH,3805,VIC,MEL
BERWICK,3806,VIC,MEL
BEACONSFIELD,3807,VIC,MEL
OFFICER,3809,VIC,MEL
PAKENHAM,3810,VIC,MEL
PAKENHAM SOUTH,3810,VIC,MEL
LANGWARRIN,3910,VIC,MEL
BAXTER,3911,VIC,MEL
LANGWARRIN SOUTH,3911,VIC,MEL
PEARCEDALE,3912,VIC,MEL
SOMERVILLE,3912,VIC,MEL
TYABB,3913,VIC,MEL
HASTINGS,3915,VIC,MEL
TUERONG,3915,VIC,MEL
MERRICKS,3916,VIC,MEL
POINT LEO,3916,VIC,MEL
SHOREHAM,3916,VIC,MEL
BITTERN,3918,VIC,MEL
CRIB POINT,3919,VIC,MEL
FLINDERS NAVAL DEPOT,3920,VIC,MEL
BALNARRING,3926,VIC,MEL
BALNARRING BEACH,3926,VIC,MEL
MERRICKS BEACH,3926,VIC,MEL
MERRICKS NORTH,3926,VIC,MEL
SOMERS,3927,VIC,MEL
MAIN RIDGE,3928,VIC,MEL
FLINDERS,3929,VIC,MEL
MOUNT ELIZA,3930,VIC,MEL
MORNINGTON,3931,VIC,MEL
MOOROODUC,3933,VIC,MEL
MOUNT MARTHA,3934,VIC,MEL
ARTHURS SEAT,3936,VIC,MEL
DROMANA,3936,VIC,MEL
SAFETY BEACH,3936,VIC,MEL
RED HILL,3937,VIC,MEL
RED HILL SOUTH,3937,VIC,MEL
MCCRAE,3938,VIC,MEL
BONEO,3939,VIC,MEL
CAPE SCHANCK,3939,VIC,MEL
FINGAL,3939,VIC,MEL
ROSEBUD,3939,VIC,MEL
ROSEBUD PLAZA,3939,VIC,MEL
CAPEL SOUND,3940,VIC,MEL
ROSEBUD WEST,3940,VIC,MEL
RYE,3941,VIC,MEL
ST ANDREWS BEACH,3941,VIC,MEL
TOOTGAROOK,3941,VIC,MEL
BLAIRGOWRIE,3942,VIC,MEL
SORRENTO,3943,VIC,MEL
PORTSEA,3944,VIC,MEL
LYNBROOK,3975,VIC,MEL
LYNDHURST,3975,VIC,MEL
HAMPTON PARK,3976,VIC,MEL
BOTANIC RIDGE,3977,VIC,MEL
CRANBOURNE,3977,VIC,MEL
CRANBOURNE EAST,3977,VIC,MEL
CRANBOURNE NORTH,3977,VIC,MEL
CRANBOURNE SOUTH,3977,VIC,MEL
CRANBOURNE WEST,3977,VIC,MEL
DEVON MEADOWS,3977,VIC,MEL
FIVE WAYS,3977,VIC,MEL
JUNCTION VILLAGE,3977,VIC,MEL
SANDHURST,3977,VIC,MEL
SKYE,3977,VIC,MEL
BRISBANE,4000,QLD,BRI
BRISBANE ADELAIDE STREET,4000,QLD,BRI
BRISBANE CITY,4000,QLD,BRI
BRISBANE CITY DC,4000,QLD,BRI
BRISBANE GPO,4000,QLD,BRI
BRISBANE-CITY,4000,QLD,BRI
PARLIAMENT HOUSE,4000,QLD,BRI
PETRIE TERRACE,4000,QLD,BRI
SPRING HILL,4000,QLD,BRI
BRISBANE,4001,QLD,BRI
CENTRAL PLAZA,4001,QLD,BRI
RIVERSIDE CENTRE,4001,QLD,BRI
WATERFRONT PLACE,4001,QLD,BRI
BRISBANE ALBERT STREET BC,4002,QLD,BRI
CITY EAST,4002,QLD,BRI
WINTERGARDEN,4002,QLD,BRI
GEORGE STREET,4003,QLD,BRI
SPRING HILL,4004,QLD,BRI
NEW FARM,4005,QLD,BRI
TENERIFFE,4005,QLD,BRI
BOWEN BRIDGE,4006,QLD,BRI
BOWEN HILLS,4006,QLD,BRI
BRISBANE EXHIBITION,4006,QLD,BRI
FORTITUDE VALLEY,4006,QLD,BRI
FORTITUDE VALLEY BC,4006,QLD,BRI
HERSTON,4006,QLD,BRI
MAYNE,4006,QLD,BRI
NEWSTEAD,4006,QLD,BRI
ASCOT,4007,QLD,BRI
BRISBANE AIRPORT,4007,QLD,BRI
DOOMBEN,4007,QLD,BRI
HAMILTON,4007,QLD,BRI
HAMILTON CENTRAL,4007,QLD,BRI
WHINSTANES,4007,QLD,BRI
BRISBANE AIRPORT,4008,QLD,BRI
BULWER ISLAND,4008,QLD,BRI
MEEANDAH,4008,QLD,BRI
MYRTLETOWN,4008,QLD,BRI
PINKENBA,4008,QLD,BRI
EAGLE FARM,4009,QLD,BRI
EAGLE FARM BC,4009,QLD,BRI
ALBION,4010,QLD,BRI
ALBION BC,4010,QLD,BRI
ALBION DC,4010,QLD,BRI
BREAKFAST CREEK,4010,QLD,BRI
CLAYFIELD,4011,QLD,BRI
EAGLE JUNCTION,4011,QLD,BRI
HENDRA,4011,QLD,BRI
NUNDAH,4012,QLD,BRI
TOOMBUL,4012,QLD,BRI
WAVELL HEIGHTS,4012,QLD,BRI
WAVELL HEIGHTS NORTH,4012,QLD,BRI
NORTHGATE,4013,QLD,BRI
NORTHGATE MC,4013,QLD,BRI
BANYO,4014,QLD,BRI
NUDGEE,4014,QLD,BRI
NUDGEE BEACH,4014,QLD,BRI
VIRGINIA,4014,QLD,BRI
VIRGINIA BC,4014,QLD,BRI
VIRGINIA DC,4014,QLD,BRI
BRACKEN RIDGE,4017,QLD,BRI
BRIGHTON,4017,QLD,BRI
BRIGHTON EVENTIDE,4017,QLD,BRI
BRIGHTON NATHAN STREET,4017,QLD,BRI
DEAGON,4017,QLD,BRI
NASHVILLE,4017,QLD,BRI
SANDGATE,4017,QLD,BRI
SANDGATE DC,4017,QLD,BRI
SHORNCLIFFE,4017,QLD,BRI
FITZGIBBON,4018,QLD,BRI
TAIGUM,4018,QLD,BRI
CLONTARF,4019,QLD,BRI
CLONTARF BEACH,4019,QLD,BRI
CLONTARF DC,4019,QLD,BRI
HUMPYBONG,4019,QLD,BRI
MARGATE,4019,QLD,BRI
MARGATE BEACH,4019,QLD,BRI
SCOTTS POINT,4019,QLD,BRI
WOODY POINT,4019,QLD,BRI
NEWPORT,4020,QLD,BRI
REDCLIFFE,4020,QLD,BRI
REDCLIFFE NORTH,4020,QLD,BRI
SCARBOROUGH,4020,QLD,BRI
KIPPA-RING,4021,QLD,BRI
ROTHWELL,4022,QLD,BRI
ROYAL BRISBANE HOSPITAL,4029,QLD,BRI
EILDON HILL,4030,QLD,BRI
KALINGA,4030,QLD,BRI
LUTWYCHE,4030,QLD,BRI
WINDSOR,4030,QLD,BRI
WOOLOOWIN,4030,QLD,BRI
GLEN KEDRON,4031,QLD,BRI
GORDON PARK,4031,QLD,BRI
KEDRON,4031,QLD,BRI
CHERMSIDE,4032,QLD,BRI
CHERMSIDE BC,4032,QLD,BRI
CHERMSIDE CENTRE,4032,QLD,BRI
CHERMSIDE SOUTH,4032,QLD,BRI
CHERMSIDE WEST,4032,QLD,BRI
CRAIGSLEA,4032,QLD,BRI
ASPLEY,4034,QLD,BRI
BOONDALL,4034,QLD,BRI
CARSELDINE,4034,QLD,BRI
GEEBUNG,4034,QLD,BRI
ZILLMERE,4034,QLD,BRI
ALBANY CREEK,4035,QLD,BRI
BRIDGEMAN DOWNS,4035,QLD,BRI
BALD HILLS,4036,QLD,BRI
EATONS HILL,4037,QLD,BRI
ALDERLEY,4051,QLD,BRI
ENOGGERA,4051,QLD,BRI
GAYTHORNE,4051,QLD,BRI
GRANGE,4051,QLD,BRI
NEWMARKET,4051,QLD,BRI
THE GRANGE,4051,QLD,BRI
WILSTON,4051,QLD,BRI
BROOKSIDE CENTRE,4053,QLD,BRI
EVERTON HILLS,4053,QLD,BRI
EVERTON PARK,4053,QLD,BRI
MCDOWALL,4053,QLD,BRI
MITCHELTON,4053,QLD,BRI
OXFORD PARK,4053,QLD,BRI
SOMERSET HILLS,4053,QLD,BRI
STAFFORD,4053,QLD,BRI
STAFFORD BC,4053,QLD,BRI
STAFFORD CITY,4053,QLD,BRI
STAFFORD DC,4053,QLD,BRI
STAFFORD HEIGHTS,4053,QLD,BRI
ARANA HILLS,4054,QLD,BRI
GROVELY,4054,QLD,BRI
KEPERRA,4054,QLD,BRI
BUNYA,4055,QLD,BRI
FERNY GROVE,4055,QLD,BRI
FERNY HILLS,4055,QLD,BRI
FERNY HILLS DC,4055,QLD,BRI
KEDRON UPPER,4055,QLD,BRI
UPPER KEDRON,4055,QLD,BRI
BALLYMORE,4059,QLD,BRI
ITHACA,4059,QLD,BRI
KELVIN GROVE,4059,QLD,BRI
KELVIN GROVE BC,4059,QLD,BRI
KELVIN GROVE DC,4059,QLD,BRI
NORMANBY,4059,QLD,BRI
RED HILL,4059,QLD,BRI
ASHGROVE,4060,QLD,BRI
ASHGROVE WEST,4060,QLD,BRI
DORRINGTON,4060,QLD,BRI
ST JOHNS WOOD,4060,QLD,BRI
THE GAP,4061,QLD,BRI
BAROONA,4064,QLD,BRI
MILTON,4064,QLD,BRI
MILTON BC,4064,QLD,BRI
PADDINGTON,4064,QLD,BRI
ROSALIE,4064,QLD,BRI
BARDON,4065,QLD,BRI
BARDON WEST,4065,QLD,BRI
JUBILEE,4065,QLD,BRI
RAINWORTH,4065,QLD,BRI
AUCHENFLOWER,4066,QLD,BRI
MOUNT COOT-THA,4066,QLD,BRI
STUARTHOLME,4066,QLD,BRI
TOOWONG,4066,QLD,BRI
TOOWONG BC,4066,QLD,BRI
TOOWONG DC,4066,QLD,BRI
TORWOOD,4066,QLD,BRI
IRONSIDE,4067,QLD,BRI
SAINT LUCIA,4067,QLD,BRI
ST LUCIA,4067,QLD,BRI
ST LUCIA SOUTH,4067,QLD,BRI
CHELMER,4068,QLD,BRI
INDOOROOPILLY,4068,QLD,BRI
INDOOROOPILLY CENTRE,4068,QLD,BRI
LONG POCKET,4068,QLD,BRI
TARINGA,4068,QLD,BRI
BROOKFIELD,4069,QLD,BRI
CHAPEL HILL,4069,QLD,BRI
FIG TREE POCKET,4069,QLD,BRI
KENMORE,4069,QLD,BRI
KENMORE DC,4069,QLD,BRI
KENMORE EAST,4069,QLD,BRI
KENMORE HILLS,4069,QLD,BRI
LONE PINE,4069,QLD,BRI
PINJARRA HILLS,4069,QLD,BRI
PULLENVALE,4069,QLD,BRI
UPPER BROOKFIELD,4069,QLD,BRI
ANSTEAD,4070,QLD,BRI
BELLBOWRIE,4070,QLD,BRI
MOGGILL,4070,QLD,BRI
PRIORS POCKET,4070,QLD,BRI
UNIVERSITY OF QUEENSLAND,4072,QLD,BRI
SEVENTEEN MILE ROCKS,4073,QLD,BRI
SINNAMON PARK,4073,QLD,BRI
JAMBOREE HEIGHTS,4074,QLD,BRI
JINDALEE,4074,QLD,BRI
MIDDLE PARK,4074,QLD,BRI
MOUNT OMMANEY,4074,QLD,BRI
RIVERHILLS,4074,QLD,BRI
SUMNER,4074,QLD,BRI
SUMNER PARK BC,4074,QLD,BRI
WESTLAKE,4074,QLD,BRI
CORINDA,4075,QLD,BRI
GRACEVILLE,4075,QLD,BRI
GRACEVILLE EAST,4075,QLD,BRI
OXLEY,4075,QLD,BRI
SHERWOOD,4075,QLD,BRI
DARRA,4076,QLD,BRI
WACOL,4076,QLD,BRI
WACOL EAST IMMIGRATION CENTRE,4076,QLD,BRI
DOOLANDELLA,4077,QLD,BRI
DURACK,4077,QLD,BRI
INALA,4077,QLD,BRI
INALA EAST,4077,QLD,BRI
INALA HEIGHTS,4077,QLD,BRI
INALA WEST,4077,QLD,BRI
RICHLANDS,4077,QLD,BRI
RICHLANDS BC,4077,QLD,BRI
RICHLANDS DC,4077,QLD,BRI
SERVICETON,4077,QLD,BRI
ELLEN GROVE,4078,QLD,BRI
FOREST LAKE,4078,QLD,BRI
HIGHGATE HILL,4101,QLD,BRI
MATER HILL,4101,QLD,BRI
MATER HOSPITAL,4101,QLD,BRI
SOUTH BANK,4101,QLD,BRI
SOUTH BRISBANE,4101,QLD,BRI
SOUTH BRISBANE BC,4101,QLD,BRI
WEST END,4101,QLD,BRI
BURANDA,4102,QLD,BRI
DUTTON PARK,4102,QLD,BRI
PRINCESS ALEXANDRA HOSPITAL,4102,QLD,BRI
WOOLLOONGABBA,4102,QLD,BRI
ANNERLEY,4103,QLD,BRI
ANNERLEY DC,4103,QLD,BRI
FAIRFIELD,4103,QLD,BRI
FAIRFIELD GARDENS,4103,QLD,BRI
THOMPSON ESTATE,4103,QLD,BRI
YERONGA,4104,QLD,BRI
YERONGA WEST,4104,QLD,BRI
CLIFTON HILL,4105,QLD,BRI
MOOROOKA,4105,QLD,BRI
MOORVALE,4105,QLD,BRI
TENNYSON,4105,QLD,BRI
YEERONGPILLY,4105,QLD,BRI
BRISBANE MARKET,4106,QLD,BRI
ROCKLEA,4106,QLD,BRI
ROCKLEA DC,4106,QLD,BRI
SALISBURY,4107,QLD,BRI
SALISBURY EAST,4107,QLD,BRI
ARCHERFIELD,4108,QLD,BRI
ARCHERFIELD BC,4108,QLD,BRI
COOPERS PLAINS,4108,QLD,BRI
ALTANDI,4109,QLD,BRI
BANOON,4109,QLD,BRI
MACGREGOR,4109,QLD,BRI
ROBERTSON,4109,QLD,BRI
SUNNYBANK,4109,QLD,BRI
SUNNYBANK HILLS,4109,QLD,BRI
SUNNYBANK SOUTH,4109,QLD,BRI
ACACIA RIDGE,4110,QLD,BRI
ACACIA RIDGE BC,4110,QLD,BRI
ACACIA RIDGE DC,4110,QLD,BRI
HEATHWOOD,4110,QLD,BRI
HEATHWOOD DF,4110,QLD,BRI
LARAPINTA,4110,QLD,BRI
PALLARA,4110,QLD,BRI
WILLAWONG,4110,QLD,BRI
GRIFFITH UNIVERSITY,4111,QLD,BRI
NATHAN,4111,QLD,BRI
KURABY,4112,QLD,BRI
EIGHT MILE PLAINS,4113,QLD,BRI
FRUITGROVE,4113,QLD,BRI
RUNCORN,4113,QLD,BRI
KINGSTON,4114,QLD,BRI
LOGAN CENTRAL,4114,QLD,BRI
LOGAN CITY BC,4114,QLD,BRI
LOGAN CITY DC,4114,QLD,BRI
TRINDER PARK,4114,QLD,BRI
WOODRIDGE,4114,QLD,BRI
WOODRIDGE EAST,4114,QLD,BRI
ALGESTER,4115,QLD,BRI
PARKINSON,4115,QLD,BRI
CALAMVALE,4116,QLD,BRI
DREWVALE,4116,QLD,BRI
STRETTON,4116,QLD,BRI
BERRINBA,4117,QLD,BRI
KARAWATHA,4117,QLD,BRI
BROWNS PLAINS,4118,QLD,BRI
BROWNS PLAINS BC,4118,QLD,BRI
BROWNSLEIGH,4118,QLD,BRI
FORESTDALE,4118,QLD,BRI
HERITAGE PARK,4118,QLD,BRI
HILLCREST,4118,QLD,BRI
REGENTS PARK,4118,QLD,BRI
UNDERWOOD,4119,QLD,BRI
GREENSLOPES,4120,QLD,BRI
LORETO HILL,4120,QLD,BRI
STONES CORNER,4120,QLD,BRI
EKIBIN,4121,QLD,BRI
HOLLAND PARK,4121,QLD,BRI
HOLLAND PARK EAST,4121,QLD,BRI
HOLLAND PARK WEST,4121,QLD,BRI
MOUNT THOMPSON,4121,QLD,BRI
TARRAGINDI,4121,QLD,BRI
WELLERS HILL,4121,QLD,BRI
MANSFIELD,4122,QLD,BRI
MANSFIELD BC,4122,QLD,BRI
MANSFIELD DC,4122,QLD,BRI
MOUNT GRAVATT,4122,QLD,BRI
MOUNT GRAVATT EAST,4122,QLD,BRI
UPPER MOUNT GRAVATT,4122,QLD,BRI
UPPER MOUNT GRAVATT BC,4122,QLD,BRI
WISHART,4122,QLD,BRI
PRIESTS GULLY,4123,QLD,BRI
ROCHEDALE,4123,QLD,BRI
ROCHEDALE SOUTH,4123,QLD,BRI
BORONIA HEIGHTS,4124,QLD,BRI
GREENBANK,4124,QLD,BRI
MUNRUBEN,4125,QLD,BRI
PARK RIDGE,4125,QLD,BRI
PARK RIDGE SOUTH,4125,QLD,BRI
CHATSWOOD HILLS,4127,QLD,BRI
DAISY HILL,4127,QLD,BRI
PRIESTDALE,4127,QLD,BRI
SLACKS CREEK,4127,QLD,BRI
SPRINGWOOD,4127,QLD,BRI
SPRINGWOOD BC,4127,QLD,BRI
KIMBERLEY PARK,4128,QLD,BRI
LOGAN HYPERDOME BC,4128,QLD,BRI
SHAILER PARK,4128,QLD,BRI
TANAH MERAH,4128,QLD,BRI
LOGANDALE,4129,QLD,BRI
LOGANHOLME,4129,QLD,BRI
LOGANHOLME BC,4129,QLD,BRI
LOGANHOLME DC,4129,QLD,BRI
CARBROOK,4130,QLD,BRI
CORNUBIA,4130,QLD,BRI
LOGANLEA,4131,QLD,BRI
MEADOWBROOK,4131,QLD,BRI
CRESTMEAD,4132,QLD,BRI
CRESTMEAD DC,4132,QLD,BRI
MARSDEN,4132,QLD,BRI
MARSDEN POSTAL DEPOT,4132,QLD,BRI
CHAMBERS FLAT,4133,QLD,BRI
LOGAN RESERVE,4133,QLD,BRI
WATERFORD,4133,QLD,BRI
WATERFORD WEST,4133,QLD,BRI
COORPAROO,4151,QLD,BRI
COORPAROO BC,4151,QLD,BRI
COORPAROO DC,4151,QLD,BRI
CAMP HILL,4152,QLD,BRI
CARINA,4152,QLD,BRI
CARINA HEIGHTS,4152,QLD,BRI
CARINA NORTH,4152,QLD,BRI
CARINDALE,4152,QLD,BRI
WHITES HILL,4152,QLD,BRI
BELMONT,4153,QLD,BRI
BELMONT HEIGHTS,4153,QLD,BRI
GUMDALE,4154,QLD,BRI
RANSOME,4154,QLD,BRI
WAKERLEY,4154,QLD,BRI
CHANDLER,4155,QLD,BRI
BURBANK,4156,QLD,BRI
MACKENZIE,4156,QLD,BRI
CAPALABA,4157,QLD,BRI
CAPALABA BC,4157,QLD,BRI
CAPALABA DC,4157,QLD,BRI
CAPALABA WEST,4157,QLD,BRI
SHELDON,4157,QLD,BRI
THORNESIDE,4158,QLD,BRI
BIRKDALE,4159,QLD,BRI
EROBIN,4160,QLD,BRI
ORMISTON,4160,QLD,BRI
WELLINGTON POINT,4160,QLD,BRI
ALEXANDRA HILLS,4161,QLD,BRI
CLEVELAND,4163,QLD,BRI
CLEVELAND DC,4163,QLD,BRI
PINKLANDS,4164,QLD,BRI
THORNLANDS,4164,QLD,BRI
MOUNT COTTON,4165,QLD,BRI
POINT HALLORAN,4165,QLD,BRI
POINT TALBURPIN,4165,QLD,BRI
REDLAND BAY,4165,QLD,BRI
VICTORIA POINT,4165,QLD,BRI
EAST BRISBANE,4169,QLD,BRI
KANGAROO POINT,4169,QLD,BRI
STANLEY BRIDGE,4169,QLD,BRI
CANNON HILL,4170,QLD,BRI
COLMSLIE,4170,QLD,BRI
MORNINGSIDE,4170,QLD,BRI
NORMAN PARK,4170,QLD,BRI
SEVEN HILLS,4170,QLD,BRI
BALMORAL,4171,QLD,BRI
BULIMBA,4171,QLD,BRI
GALLOWAYS HILL,4171,QLD,BRI
HAWTHORNE,4171,QLD,BRI
MURARRIE,4172,QLD,BRI
TINGALPA,4173,QLD,BRI
TINGALPA BC,4173,QLD,BRI
TINGALPA DC,4173,QLD,BRI
DOBOY,4174,QLD,BRI
HEMMANT,4174,QLD,BRI
LINDUM,4178,QLD,BRI
LYTTON,4178,QLD,BRI
PORT OF BRISBANE,4178,QLD,BRI
WYNNUM,4178,QLD,BRI
WYNNUM CENTRAL,4178,QLD,BRI
WYNNUM NORTH,4178,QLD,BRI
WYNNUM PLAZA,4178,QLD,BRI
WYNNUM WEST,4178,QLD,BRI
LOTA,4179,QLD,BRI
MANLY,4179,QLD,BRI
MANLY WEST,4179,QLD,BRI
BETHANIA,4205,QLD,BRI
BEENLEIGH,4207,QLD,BRI
CABBAGE TREE POINT,4207,QLD,BRI
EAGLEBY,4207,QLD,BRI
EDENS LANDING,4207,QLD,BRI
HOLMVIEW,4207,QLD,BRI
LOGAN VILLAGE,4207,QLD,BRI
LUSCOMBE,4207,QLD,BRI
MOUNT WARREN PARK,4207,QLD,BRI
STAPYLTON,4207,QLD,BRI
WINDAROO,4207,QLD,BRI
YARRABILBA,4207,QLD,BRI
YATALA,4207,QLD,BRI
YATALA DC,4207,QLD,BRI
YELLOW WOOD,4207,QLD,BRI
ORMEAU,4208,QLD,BRI
ORMEAU HILLS,4208,QLD,BRI
CANOWINDRA,4209,QLD,GLD
COOMERA,4209,QLD,GLD
PIMPAMA,4209,QLD,GLD
UPPER COOMERA,4209,QLD,GLD
WILLOW VALE,4209,QLD,GLD
GUANABA,4210,QLD,GLD
MAUDSLAND,4210,QLD,GLD
OXENFORD,4210,QLD,GLD
STUDIO VILLAGE,4210,QLD,GLD
WONGAWALLAN,4210,QLD,GLD
LATIMER,4211,QLD,BRI
CARRARA,4211,QLD,GLD
CLAGIRABA,4211,QLD,GLD
GAVEN,4211,QLD,GLD
GILSTON,4211,QLD,GLD
HIGHLAND PARK,4211,QLD,GLD
MOUNT NATHAN,4211,QLD,GLD
NERANG,4211,QLD,GLD
NERANG BC,4211,QLD,GLD
NERANG DC,4211,QLD,GLD
PACIFIC PINES,4211,QLD,GLD
BOYKAMBIL,4212,QLD,GLD
HELENSVALE,4212,QLD,GLD
HELENSVALE TOWN CENTRE,4212,QLD,GLD
HOPE ISLAND,4212,QLD,GLD
MONTEREY KEYS,4212,QLD,GLD
SANCTUARY COVE,4212,QLD,GLD
SANTA BARBARA,4212,QLD,GLD
BONOGIN,4213,QLD,GLD
MUDGEERABA,4213,QLD,GLD
TALLAI,4213,QLD,GLD
WORONGARY,4213,QLD,GLD
ARUNDEL,4214,QLD,GLD
ARUNDEL BC,4214,QLD,GLD
ARUNDEL DC,4214,QLD,GLD
ASHMORE,4214,QLD,GLD
ASHMORE CITY,4214,QLD,GLD
MOLENDINAR,4214,QLD,GLD
PARKWOOD,4214,QLD,GLD
AUSTRALIA FAIR,4215,QLD,GLD
CHIRN PARK,4215,QLD,GLD
KEEBRA PARK,4215,QLD,GLD
LABRADOR,4215,QLD,GLD
SOUTHPORT,4215,QLD,GLD
SOUTHPORT BC,4215,QLD,GLD
SOUTHPORT PARK,4215,QLD,GLD
SUNDALE,4215,QLD,GLD
BIGGERA WATERS,4216,QLD,GLD
COOMBABAH,4216,QLD,GLD
HOLLYWELL,4216,QLD,GLD
PARADISE POINT,4216,QLD,GLD
PARADISE POINT KEYS,4216,QLD,GLD
RUNAWAY BAY,4216,QLD,GLD
SOVEREIGN ISLANDS,4216,QLD,GLD
BENOWA,4217,QLD,GLD
BUNDALL,4217,QLD,GLD
BUNDALL BC,4217,QLD,GLD
BUNDALL DC,4217,QLD,GLD
CHEVRON ISLAND,4217,QLD,GLD
GOLD COAST MC,4217,QLD,GLD
ISLE OF CAPRI,4217,QLD,GLD
MAIN BEACH,4217,QLD,GLD
PARADISE ISLAND,4217,QLD,GLD
PARADISE WATERS,4217,QLD,GLD
SORRENTO,4217,QLD,GLD
SURFERS PARADISE,4217,QLD,GLD
THE SPIT,4217,QLD,GLD
BROADBEACH,4218,QLD,GLD
BROADBEACH WATERS,4218,QLD,GLD
CYPRESS GARDENS,4218,QLD,GLD
FLORIDA GARDENS,4218,QLD,GLD
MERMAID BEACH,4218,QLD,GLD
MERMAID KEYS,4218,QLD,GLD
MERMAID WATERS,4218,QLD,GLD
MIAMI KEYS,4218,QLD,GLD
MOANA PARK,4218,QLD,GLD
NOBBY BEACH,4218,QLD,GLD
PACIFIC FAIR,4218,QLD,GLD
Q SUPERCENTRE,4218,QLD,GLD
RIALTO,4218,QLD,GLD
RIO VISTA,4218,QLD,GLD
WEST BURLEIGH,4219,QLD,GLD
BURLEIGH BC,4220,QLD,GLD
BURLEIGH DC,4220,QLD,GLD
BURLEIGH HEADS,4220,QLD,GLD
BURLEIGH TOWN,4220,QLD,GLD
BURLEIGH WATERS,4220,QLD,GLD
MIAMI,4220,QLD,GLD
TALLY VALLEY,4220,QLD,GLD
ELANORA,4221,QLD,GLD
PALM BEACH,4221,QLD,GLD
GRIFFITH UNIVERSITY,4222,QLD,GLD
CURRUMBIN,4223,QLD,GLD
CURRUMBIN DC,4223,QLD,GLD
CURRUMBIN WATERS,4223,QLD,GLD
TUGUN,4224,QLD,GLD
TUGUN HEIGHTS,4224,QLD,GLD
BILINGA,4225,QLD,GLD
COOLANGATTA,4225,QLD,GLD
GREENMOUNT,4225,QLD,GLD
KIRRA,4225,QLD,GLD
RAINBOW BAY,4225,QLD,GLD
CLEAR ISLAND WATERS,4226,QLD,GLD
KERRYDALE,4226,QLD,GLD
MERRIMAC,4226,QLD,GLD
ROBINA,4226,QLD,GLD
ROBINA DC,4226,QLD,GLD
REEDY CREEK,4227,QLD,GLD
VARSITY LAKES,4227,QLD,GLD
TALLEBUDGERA,4228,QLD,GLD
BOND UNIVERSITY,4229,QLD,GLD
ROBINA TOWN CENTRE,4230,QLD,GLD
EAGLE HEIGHTS,4271,QLD,GLD
MOUNT TAMBORINE,4272,QLD,GLD
NORTH TAMBORINE,4272,QLD,GLD
TAMBORINE MOUNTAIN,4272,QLD,GLD
CANUNGRA,4275,QLD,GLD
FLAGSTONE,4280,QLD,BRI
GLENLOGAN,4280,QLD,BRI
JIMBOOMBA,4280,QLD,BRI
MACLEAN,4280,QLD,BRI
NORTH MACLEAN,4280,QLD,BRI
RIVERBEND,4280,QLD,BRI
SOUTH MACLEAN,4280,QLD,BRI
BEAUDESERT,4285,QLD,BRI
CEDAR VALE,4285,QLD,BRI
GLENEAGLE,4285,QLD,BRI
AUGUSTINE HEIGHTS,4300,QLD,BRI
BELLBIRD PARK,4300,QLD,BRI
BROOKWATER,4300,QLD,BRI
CAMIRA,4300,QLD,BRI
CAROLE PARK,4300,QLD,BRI
GAILES,4300,QLD,BRI
GOODNA,4300,QLD,BRI
GOODNA DC,4300,QLD,BRI
GOODNA EAST,4300,QLD,BRI
OPOSSUM CREEK,4300,QLD,BRI
SPRING MOUNTAIN,4300,QLD,BRI
SPRINGFIELD,4300,QLD,BRI
SPRINGFIELD CENTRAL,4300,QLD,BRI
SPRINGFIELD LAKES,4300,QLD,BRI
COLLINGWOOD PARK,4301,QLD,BRI
GREENWOOD VILLAGE,4301,QLD,BRI
REDBANK,4301,QLD,BRI
REDBANK PLAINS,4301,QLD,BRI
DINMORE,4303,QLD,BRI
NEW CHUM,4303,QLD,BRI
RIVERVIEW,4303,QLD,BRI
BLACKSTONE,4304,QLD,BRI
BOOVAL,4304,QLD,BRI
BOOVAL BC,4304,QLD,BRI
BOOVAL DC,4304,QLD,BRI
BOOVAL FAIR,4304,QLD,BRI
BUNDAMBA,4304,QLD,BRI
EBBW VALE,4304,QLD,BRI
NORTH BOOVAL,4304,QLD,BRI
SILKSTONE,4304,QLD,BRI
BASIN POCKET,4305,QLD,BRI
BRASSALL,4305,QLD,BRI
BRASSALL HEIGHTS,4305,QLD,BRI
BREMER,4305,QLD,BRI
CHURCHILL,4305,QLD,BRI
COALFALLS,4305,QLD,BRI
EAST IPSWICH,4305,QLD,BRI
EASTERN HEIGHTS,4305,QLD,BRI
FLINDERS VIEW,4305,QLD,BRI
IPSWICH,4305,QLD,BRI
LEICHHARDT,4305,QLD,BRI
MOORES POCKET,4305,QLD,BRI
NEWTOWN,4305,QLD,BRI
NORTH IPSWICH,4305,QLD,BRI
NORTH TIVOLI,4305,QLD,BRI
ONE MILE,4305,QLD,BRI
RACEVIEW,4305,QLD,BRI
SADLIERS CROSSING,4305,QLD,BRI
TIVOLI,4305,QLD,BRI
WEST IPSWICH,4305,QLD,BRI
WOODEND,4305,QLD,BRI
WULKURAKA,4305,QLD,BRI
YAMANTO,4305,QLD,BRI
FOREST GLADE,4306,QLD,BRI
FERNVALE,4306,QLD,TOO
VERNOR,4306,QLD,TOO
BRIGHTVIEW,4311,QLD,TOO
LOWOOD,4311,QLD,TOO
MINDEN,4311,QLD,TOO
HATTON VALE,4341,QLD,TOO
KENSINGTON GROVE,4341,QLD,TOO
LAIDLEY,4341,QLD,TOO
LAIDLEY HEIGHTS,4341,QLD,TOO
LAIDLEY NORTH,4341,QLD,TOO
PLAINLAND,4341,QLD,TOO
REGENCY DOWNS,4341,QLD,TOO
CROWLEY VALE,4342,QLD,TOO
FOREST HILL,4342,QLD,TOO
GLENORE GROVE,4342,QLD,TOO
LOCKROSE,4342,QLD,TOO
ADARE,4343,QLD,TOO
COLLEGE VIEW,4343,QLD,TOO
GATTON,4343,QLD,TOO
PLACID HILLS,4343,QLD,TOO
WOODLANDS,4343,QLD,TOO
CARPENDALE,4344,QLD,TOO
HELIDON,4344,QLD,TOO
HELIDON SPA,4344,QLD,TOO
GATTON COLLEGE,4345,QLD,TOO
MARBURG,4346,QLD,TOO
GRANTHAM,4347,QLD,TOO
VERADILLA,4347,QLD,TOO
BLUE MOUNTAIN HEIGHTS,4350,QLD,TOO
CARRINGTON,4350,QLD,TOO
CENTENARY HEIGHTS,4350,QLD,TOO
CHARLTON,4350,QLD,TOO
CLIFFORD GARDENS,4350,QLD,TOO
COTSWOLD HILLS,4350,QLD,TOO
CRANLEY,4350,QLD,TOO
DARLING HEIGHTS,4350,QLD,TOO
DRAYTON,4350,QLD,TOO
DRAYTON NORTH,4350,QLD,TOO
EAST TOOWOOMBA,4350,QLD,TOO
FINNIE,4350,QLD,TOO
GLENVALE,4350,QLD,TOO
GLENVALE PARK,4350,QLD,TOO
GOWRIE,4350,QLD,TOO
GOWRIE MOUNTAIN,4350,QLD,TOO
HARLAXTON,4350,QLD,TOO
HARRISTOWN,4350,QLD,TOO
KEARNEYS SPRING,4350,QLD,TOO
MACDONALDTOWN,4350,QLD,TOO
MIDDLE RIDGE,4350,QLD,TOO
MOUNT KYNOCH,4350,QLD,TOO
MOUNT LOFTY,4350,QLD,TOO
MOUNT RASCAL,4350,QLD,TOO
NEWTOWN,4350,QLD,TOO
NORTH TOOWOOMBA,4350,QLD,TOO
NORTHLANDS,4350,QLD,TOO
PICNIC POINT,4350,QLD,TOO
PRINCE HENRY HEIGHTS,4350,QLD,TOO
RANGEVILLE,4350,QLD,TOO
REDWOOD,4350,QLD,TOO
ROCKVILLE,4350,QLD,TOO
SOUTH TOOWOOMBA,4350,QLD,TOO
SOUTHTOWN,4350,QLD,TOO
TOOWOOMBA,4350,QLD,TOO
TOOWOOMBA BC,4350,QLD,TOO
TOOWOOMBA CITY,4350,QLD,TOO
TOOWOOMBA DC,4350,QLD,TOO
TOOWOOMBA EAST,4350,QLD,TOO
TOOWOOMBA SOUTH,4350,QLD,TOO
TOOWOOMBA VILLAGE FAIR,4350,QLD,TOO
TOOWOOMBA WEST,4350,QLD,TOO
TOP CAMP,4350,QLD,TOO
TORRINGTON,4350,QLD,TOO
WELLCAMP,4350,QLD,TOO
WESTBROOK,4350,QLD,TOO
WILSONTON,4350,QLD,TOO
WILSONTON HEIGHTS,4350,QLD,TOO
WYALLA PLAZA,4350,QLD,TOO
BIRNAM,4352,QLD,TOO
CABARLAH,4352,QLD,TOO
CAWDOR,4352,QLD,TOO
GEHAM,4352,QLD,TOO
GOWRIE JUNCTION,4352,QLD,TOO
HAMPTON,4352,QLD,TOO
HIGHFIELDS,4352,QLD,TOO
HODGSON VALE,4352,QLD,TOO
KLEINTON,4352,QLD,TOO
MERINGANDAN,4352,QLD,TOO
MERINGANDAN WEST,4352,QLD,TOO
PECHEY,4352,QLD,TOO
POSTMANS RIDGE,4352,QLD,TOO
TOOWOOMBA MC,4352,QLD,TOO
VALE VIEW,4352,QLD,TOO
WITHCOTT,4352,QLD,TOO
WOOLMER,4352,QLD,TOO
WYREEMA,4352,QLD,TOO
CROWS NEST,4355,QLD,TOO
PITTSWORTH,4356,QLD,TOO
CAMBOOYA,4358,QLD,TOO
VALE VIEW,4358,QLD,TOO
EAST GREENMOUNT,4359,QLD,TOO
GREENMOUNT,4359,QLD,TOO
NOBBY,4360,QLD,TOO
CLIFTON,4361,QLD,TOO
ALLORA,4362,QLD,TOO
MOUNT MARSHALL,4362,QLD,TOO
GLENNIE HEIGHTS,4370,QLD,TOO
MORGAN PARK,4370,QLD,TOO
ROSEHILL,4370,QLD,TOO
ROSENTHAL HEIGHTS,4370,QLD,TOO
WARWICK,4370,QLD,TOO
WARWICK DC,4370,QLD,TOO
WOMINA,4370,QLD,TOO
DALVEEN,4374,QLD,TOO
COTTONVALE,4375,QLD,TOO
THULIMBAH,4376,QLD,TOO
THE SUMMIT,4377,QLD,TOO
APPLETHORPE,4378,QLD,TOO
BROADWATER,4380,QLD,TOO
SEVERNLEA,4380,QLD,TOO
STANTHORPE,4380,QLD,TOO
FLETCHER,4381,QLD,TOO
GLEN APLIN,4381,QLD,TOO
BALLANDEAN,4382,QLD,TOO
KINGSTHORPE,4400,QLD,TOO
OAKEY,4401,QLD,TOO
DALBY,4405,QLD,TOO
BRAY PARK,4500,QLD,BRI
BRENDALE,4500,QLD,BRI
BRENDALE BC,4500,QLD,BRI
BRENDALE DC,4500,QLD,BRI
CASHMERE,4500,QLD,BRI
JOYNER,4500,QLD,BRI
STRATHPINE,4500,QLD,BRI
STRATHPINE CENTRE,4500,QLD,BRI
STRATHPINE CITY,4500,QLD,BRI
WARNER,4500,QLD,BRI
LAWNTON,4501,QLD,BRI
FRENCHS FOREST,4502,QLD,BRI
PETRIE,4502,QLD,BRI
DAKABIN,4503,QLD,BRI
DOHLES ROCKS,4503,QLD,BRI
GRIFFIN,4503,QLD,BRI
KALLANGUR,4503,QLD,BRI
KURWONGBAH,4503,QLD,BRI
MURRUMBA DOWNS,4503,QLD,BRI
WHITESIDE,4503,QLD,BRI
NARANGBA,4504,QLD,BRI
BURPENGARY,4505,QLD,BRI
BURPENGARY DC,4505,QLD,BRI
BURPENGARY EAST,4505,QLD,BRI
MORAYFIELD,4506,QLD,BRI
BANKSIA BEACH,4507,QLD,BRI
BELLARA,4507,QLD,BRI
BONGAREE,4507,QLD,BRI
BRIBIE ISLAND,4507,QLD,BRI
BRIBIE ISLAND DC,4507,QLD,BRI
BRIBIE ISLAND NORTH,4507,QLD,BRI
WHITE PATCH,4507,QLD,BRI
WOORIM,4507,QLD,BRI
DECEPTION BAY,4508,QLD,BRI
MANGO HILL,4509,QLD,BRI
NORTH LAKES,4509,QLD,BRI
BEACHMERE,4510,QLD,BRI
BELLMERE,4510,QLD,BRI
CABOOLTURE,4510,QLD,BRI
CABOOLTURE BC,4510,QLD,BRI
CABOOLTURE SOUTH,4510,QLD,BRI
UPPER CABOOLTURE,4510,QLD,BRI
GODWIN BEACH,4511,QLD,BRI
NINGI,4511,QLD,BRI
SANDSTONE POINT,4511,QLD,BRI
BEERWAH,4519,QLD,SUN
DRAPER,4520,QLD,BRI
SAMFORD,4520,QLD,BRI
SAMFORD VALLEY,4520,QLD,BRI
SAMFORD VILLAGE,4520,QLD,BRI
LANDSBOROUGH,4550,QLD,SUN
AROONA,4551,QLD,SUN
BANYA,4551,QLD,SUN
BARINGA,4551,QLD,SUN
BATTERY HILL,4551,QLD,SUN
BELLS CREEK,4551,QLD,SUN
CALOUNDRA,4551,QLD,SUN
CALOUNDRA BC,4551,QLD,SUN
CALOUNDRA DC,4551,QLD,SUN
CALOUNDRA WEST,4551,QLD,SUN
CORBOULD PARK,4551,QLD,SUN
CURRIMUNDI,4551,QLD,SUN
DIAMOND HEAD,4551,QLD,SUN
DICKY BEACH,4551,QLD,SUN
GAGALBA,4551,QLD,SUN
GOLDEN BEACH,4551,QLD,SUN
KINGS BEACH,4551,QLD,SUN
LITTLE MOUNTAIN,4551,QLD,SUN
MERIDAN PLAINS,4551,QLD,SUN
MOFFAT BEACH,4551,QLD,SUN
NIRIMBA,4551,QLD,SUN
PELICAN WATERS,4551,QLD,SUN
SHELLY BEACH,4551,QLD,SUN
BALMORAL RIDGE,4552,QLD,SUN
MALENY,4552,QLD,SUN
NORTH MALENY,4552,QLD,SUN
GLENVIEW,4553,QLD,SUN
MOOLOOLAH,4553,QLD,SUN
MOOLOOLAH VALLEY,4553,QLD,SUN
PALMVIEW,4553,QLD,SUN
EUDLO,4554,QLD,SUN
ILKLEY,4554,QLD,SUN
CHEVALLUM,4555,QLD,SUN
PALMWOODS,4555,QLD,SUN
BUDERIM,4556,QLD,SUN
FOREST GLEN,4556,QLD,SUN
KUNDA PARK,4556,QLD,SUN
MONS,4556,QLD,SUN
SIPPY DOWNS,4556,QLD,SUN
TANAWHA,4556,QLD,SUN
MOOLOOLABA,4557,QLD,SUN
MOUNTAIN CREEK,4557,QLD,SUN
COTTON TREE,4558,QLD,SUN
KULUIN,4558,QLD,SUN
MAROOCHYDORE,4558,QLD,SUN
MAROOCHYDORE BC,4558,QLD,SUN
MAROOCHYDORE DC,4558,QLD,SUN
MAROOCHYDORE SOUTH,4558,QLD,SUN
SUNSHINE PLAZA,4558,QLD,SUN
DIDDILLIBAH,4559,QLD,SUN
KIELS MOUNTAIN,4559,QLD,SUN
WEST WOOMBYE,4559,QLD,SUN
WOOMBYE,4559,QLD,SUN
BLI BLI,4560,QLD,SUN
BURNSIDE,4560,QLD,SUN
COES CREEK,4560,QLD,SUN
DULONG,4560,QLD,SUN
FLAXTON,4560,QLD,SUN
HIGHWORTH,4560,QLD,SUN
IMAGE FLAT,4560,QLD,SUN
KULANGOOR,4560,QLD,SUN
KUREELPA,4560,QLD,SUN
MAPLETON,4560,QLD,SUN
MONTVILLE,4560,QLD,SUN
NAMBOUR,4560,QLD,SUN
NAMBOUR BC,4560,QLD,SUN
NAMBOUR DC,4560,QLD,SUN
NAMBOUR WEST,4560,QLD,SUN
PARKLANDS,4560,QLD,SUN
PERWILLOWEN,4560,QLD,SUN
ROSEMOUNT,4560,QLD,SUN
SUNSHINE COAST MC,4560,QLD,SUN
TOWEN MOUNTAIN,4560,QLD,SUN
MAROOCHY RIVER,4561,QLD,SUN
NINDERRY,4561,QLD,SUN
NORTH ARM,4561,QLD,SUN
YANDINA,4561,QLD,SUN
YANDINA CREEK,4561,QLD,SUN
DOONAN,4562,QLD,SUN
EUMUNDI,4562,QLD,SUN
WEYBA DOWNS,4562,QLD,SUN
COOROY,4563,QLD,SUN
COOROY MOUNTAIN,4563,QLD,SUN
SUNRISE HILLS,4563,QLD,SUN
TINBEERWAH,4563,QLD,SUN
MARCOOLA,4564,QLD,SUN
MUDJIMBA,4564,QLD,SUN
PACIFIC PARADISE,4564,QLD,SUN
TWIN WATERS,4564,QLD,SUN
TEWANTIN,4565,QLD,SUN
MUNNA POINT,4566,QLD,SUN
NOOSAVILLE,4566,QLD,SUN
NOOSAVILLE BC,4566,QLD,SUN
NOOSAVILLE DC,4566,QLD,SUN
CASTAWAYS BEACH,4567,QLD,SUN
LITTLE COVE,4567,QLD,SUN
NOOSA HEADS,4567,QLD,SUN
SUNRISE BEACH,4567,QLD,SUN
SUNSHINE BEACH,4567,QLD,SUN
POMONA,4568,QLD,SUN
ARALUEN,4570,QLD,SUN
GLANMIRE,4570,QLD,SUN
GYMPIE,4570,QLD,SUN
GYMPIE DC,4570,QLD,SUN
JONES HILL,4570,QLD,SUN
MONKLAND,4570,QLD,SUN
SOUTHSIDE,4570,QLD,SUN
TWO MILE,4570,QLD,SUN
ALEXANDRA HEADLAND,4572,QLD,SUN
COOLUM BEACH,4573,QLD,SUN
MARCUS BEACH,4573,QLD,SUN
MOUNT COOLUM,4573,QLD,SUN
PEREGIAN BEACH,4573,QLD,SUN
PEREGIAN BEACH SOUTH,4573,QLD,SUN
PEREGIAN SPRINGS,4573,QLD,SUN
POINT ARKWRIGHT,4573,QLD,SUN
YAROOMBA,4573,QLD,SUN
BIRTINYA,4575,QLD,SUN
BOKARINA,4575,QLD,SUN
BUDDINA,4575,QLD,SUN
KAWANA WATERS,4575,QLD,SUN
MINYAMA,4575,QLD,SUN
PARREARRA,4575,QLD,SUN
WARANA,4575,QLD,SUN
WARANA BEACH,4575,QLD,SUN
WURTULLA,4575,QLD,SUN
ALDERSHOT,4650,QLD,MYB
DUNDATHU,4650,QLD,MYB
GRANVILLE,4650,QLD,MYB
MARYBOROUGH,4650,QLD,MYB
MARYBOROUGH DC,4650,QLD,MYB
MARYBOROUGH WEST,4650,QLD,MYB
OAKHURST,4650,QLD,MYB
PALLAS STREET MARYBOROUGH,4650,QLD,MYB
ST HELENS,4650,QLD,MYB
TINANA,4650,QLD,MYB
BOORAL,4655,QLD,MYB
BUNYA CREEK,4655,QLD,MYB
CRAIGNISH,4655,QLD,MYB
DUNDOWRAN,4655,QLD,MYB
DUNDOWRAN BEACH,4655,QLD,MYB
ELI WATERS,4655,QLD,MYB
GHOST HILL,4655,QLD,MYB
HERVEY BAY,4655,QLD,MYB
HERVEY BAY DC,4655,QLD,MYB
KAWUNGAN,4655,QLD,MYB
NIKENBAH,4655,QLD,MYB
PIALBA,4655,QLD,MYB
POINT VERNON,4655,QLD,MYB
RIVER HEADS,4655,QLD,MYB
SCARNESS,4655,QLD,MYB
SUNSHINE ACRES,4655,QLD,MYB
SUSAN RIVER,4655,QLD,MYB
TAKURA,4655,QLD,MYB
TOOGOOM,4655,QLD,MYB
TORQUAY,4655,QLD,MYB
URANGAN,4655,QLD,MYB
URRAWEEN,4655,QLD,MYB
WALLIGAN,4655,QLD,MYB
WONDUNNA,4655,QLD,MYB
HOWARD,4659,QLD,MYB
APPLE TREE CREEK,4660,QLD,BDB
CHILDERS,4660,QLD,BDB
CORDALBA,4660,QLD,BDB
HUXLEY,4660,QLD,BDB
ISIS CENTRAL,4660,QLD,BDB
LYNWOOD,4660,QLD,BDB
NORTH ISIS,4660,QLD,BDB
REDRIDGE,4660,QLD,BDB
WOODGATE,4660,QLD,BDB
TORBANLEA,4662,QLD,MYB
ALLOWAY,4670,QLD,BDB
ASHFIELD,4670,QLD,BDB
AVENELL HEIGHTS,4670,QLD,BDB
AVOCA,4670,QLD,BDB
BARGARA,4670,QLD,BDB
BRANYAN,4670,QLD,BDB
BUNDABERG,4670,QLD,BDB
BUNDABERG CENTRAL,4670,QLD,BDB
BUNDABERG DC,4670,QLD,BDB
BUNDABERG EAST,4670,QLD,BDB
BUNDABERG NORTH,4670,QLD,BDB
BUNDABERG SOUTH,4670,QLD,BDB
BUNDABERG WEST,4670,QLD,BDB
BURNETT DOWNS,4670,QLD,BDB
BURNETT HEADS,4670,QLD,BDB
CORAL COVE,4670,QLD,BDB
ELLIOTT,4670,QLD,BDB
ELLIOTT HEADS,4670,QLD,BDB
FAIRYMEAD,4670,QLD,BDB
GOOBURRUM,4670,QLD,BDB
INNES PARK,4670,QLD,BDB
KALKIE,4670,QLD,BDB
KENSINGTON,4670,QLD,BDB
KEPNOCK,4670,QLD,BDB
MILLBANK,4670,QLD,BDB
MON REPOS,4670,QLD,BDB
MOORE PARK,4670,QLD,BDB
MOORE PARK BEACH,4670,QLD,BDB
NORVILLE,4670,QLD,BDB
OAKWOOD,4670,QLD,BDB
QUNABA,4670,QLD,BDB
SANTA FE HEIGHTS,4670,QLD,BDB
SHARON,4670,QLD,BDB
SOUTH BINGERA,4670,QLD,BDB
SOUTH KOLAN,4670,QLD,BDB
SVENSSON HEIGHTS,4670,QLD,BDB
THABEBAN,4670,QLD,BDB
WALKERVALE,4670,QLD,BDB
WELCOME CREEK,4670,QLD,BDB
WINDERMERE,4670,QLD,BDB
WOONGARRA,4670,QLD,BDB
BULLYARD,4671,QLD,BDB
BUNGADOO,4671,QLD,BDB
GIN GIN,4671,QLD,BDB
MAROONDAN,4671,QLD,BDB
MCILWRAITH,4671,QLD,BDB
PORT ALMA,4699,QLD,CAP
ALLENSTOWN,4700,QLD,CAP
DEPOT HILL,4700,QLD,CAP
FAIRY BOWER,4700,QLD,CAP
PORT CURTIS,4700,QLD,CAP
ROCKHAMPTON,4700,QLD,CAP
ROCKHAMPTON CITY,4700,QLD,CAP
ROCKHAMPTON HOSPITAL,4700,QLD,CAP
THE RANGE,4700,QLD,CAP
WANDAL,4700,QLD,CAP
WEST ROCKHAMPTON,4700,QLD,CAP
BERSERKER,4701,QLD,CAP
CENTRAL QUEENSLAND UNIVERSITY,4701,QLD,CAP
FRENCHVILLE,4701,QLD,CAP
KALKA,4701,QLD,CAP
KAWANA,4701,QLD,CAP
KOONGAL,4701,QLD,CAP
LAKES CREEK,4701,QLD,CAP
LIMESTONE CREEK,4701,QLD,CAP
NERIMBERA,4701,QLD,CAP
NORMAN GARDENS,4701,QLD,CAP
NORTH ROCKHAMPTON,4701,QLD,CAP
PARK AVENUE,4701,QLD,CAP
RED HILL ROCKHAMPTON,4701,QLD,CAP
ROCKHAMPTON DC,4701,QLD,CAP
ROCKHAMPTON NORTH,4701,QLD,CAP
ROCKHAMPTON SHOPPING FAIR,4701,QLD,CAP
ROCKYVIEW,4701,QLD,CAP
THE COMMON,4701,QLD,CAP
GRACEMERE,4702,QLD,CAP
PARKHURST,4702,QLD,CAP
BANGALEE,4703,QLD,CAP
BARLOWS HILL,4703,QLD,CAP
BARMARYEE,4703,QLD,CAP
COOEE BAY,4703,QLD,CAP
FARNBOROUGH,4703,QLD,CAP
HIDDEN VALLEY,4703,QLD,CAP
INVERNESS,4703,QLD,CAP
KEMP BEACH,4703,QLD,CAP
KINKA BEACH,4703,QLD,CAP
LAMMERMOOR,4703,QLD,CAP
LAMMERMOOR BEACH,4703,QLD,CAP
MEIKLEVILLE HILL,4703,QLD,CAP
MULAMBIN,4703,QLD,CAP
PACIFIC HEIGHTS,4703,QLD,CAP
ROSSLYN,4703,QLD,CAP
STATUE BAY,4703,QLD,CAP
TANBY,4703,QLD,CAP
TARANGANBA,4703,QLD,CAP
TAROOMBALL,4703,QLD,CAP
YEPPOON,4703,QLD,CAP
EMU PARK,4710,QLD,CAP
ZILZIE,4710,QLD,CAP
GLENDALE,4711,QLD,CAP
GLENLEE,4711,QLD,CAP
SARINA,4737,QLD,MKY
ALEXANDRA,4740,QLD,MKY
ANDERGROVE,4740,QLD,MKY
BAKERS CREEK,4740,QLD,MKY
BEACONSFIELD,4740,QLD,MKY
BLACKS BEACH,4740,QLD,MKY
CONINGSBY,4740,QLD,MKY
CREMORNE,4740,QLD,MKY
DOLPHIN HEADS,4740,QLD,MKY
DUNDULA,4740,QLD,MKY
EAST MACKAY,4740,QLD,MKY
EIMEO,4740,QLD,MKY
FOULDEN,4740,QLD,MKY
GLENELLA,4740,QLD,MKY
LOUISA CREEK,4740,QLD,MKY
MACKAY,4740,QLD,MKY
MACKAY BC,4740,QLD,MKY
MACKAY CANELAND,4740,QLD,MKY
MACKAY DC,4740,QLD,MKY
MACKAY EAST,4740,QLD,MKY
MACKAY HARBOUR,4740,QLD,MKY
MACKAY NORTH,4740,QLD,MKY
MACKAY SOUTH,4740,QLD,MKY
MACKAY WEST,4740,QLD,MKY
MOUNT PLEASANT,4740,QLD,MKY
NOORLAH,4740,QLD,MKY
NORTH MACKAY,4740,QLD,MKY
OORALEA,4740,QLD,MKY
PAGET,4740,QLD,MKY
RACECOURSE,4740,QLD,MKY
RICHMOND,4740,QLD,MKY
RURAL VIEW,4740,QLD,MKY
SALONIKA BEACH,4740,QLD,MKY
SLADE POINT,4740,QLD,MKY
SOUTH MACKAY,4740,QLD,MKY
TE KOWAI,4740,QLD,MKY
TELINA HEIGHTS,4740,QLD,MKY
WEST MACKAY,4740,QLD,MKY
WUNDARU,4740,QLD,MKY
YAKAPARI,4740,QLD,MKY
FARLEIGH,4741,QLD,MKY
MACKAY MC,4741,QLD,MKY
PLEYSTOWE,4741,QLD,MKY
BUCASIA,4750,QLD,MKY
SHOAL POINT,4750,QLD,MKY
GREENMOUNT,4751,QLD,MKY
WALKERSTON,4751,QLD,MKY
MARIAN,4753,QLD,MKY
CANNON VALLEY,4800,QLD,MKY
PROSERPINE,4800,QLD,MKY
AIRLIE BEACH,4802,QLD,MKY
CANNONVALE,4802,QLD,MKY
FLAMETREE,4802,QLD,MKY
JUBILEE POCKET,4802,QLD,MKY
MANDALAY,4802,QLD,MKY
SHUTEHAVEN,4802,QLD,MKY
BOWEN,4805,QLD,MKY
DELTA,4805,QLD,MKY
QUEENS BEACH,4805,QLD,MKY
ROSE BAY,4805,QLD,MKY
HOME HILL,4806,QLD,TVL
AYR,4807,QLD,TVL
KALAMIA,4807,QLD,TVL
MCDESME,4807,QLD,TVL
PARKSIDE,4807,QLD,TVL
BRANDON,4808,QLD,TVL
CROMARTY,4809,QLD,TVL
GIRU,4809,QLD,TVL
HORSESHOE LAGOON,4809,QLD,TVL
MOUNT SURROUND,4809,QLD,TVL
BELGIAN GARDENS,4810,QLD,TVL
CASTLE HILL,4810,QLD,TVL
NORTH WARD,4810,QLD,TVL
PALLARENDA,4810,QLD,TVL
RAILWAY ESTATE,4810,QLD,TVL
ROWES BAY,4810,QLD,TVL
SHELLY BEACH,4810,QLD,TVL
SOUTH TOWNSVILLE,4810,QLD,TVL
TOWN COMMON,4810,QLD,TVL
TOWNSVILLE,4810,QLD,TVL
TOWNSVILLE CITY,4810,QLD,TVL
TOWNSVILLE DC,4810,QLD,TVL
TOWNSVILLE MC,4810,QLD,TVL
TOWNSVILLE WEST,4810,QLD,TVL
WEST END,4810,QLD,TVL
YARRAWONGA,4810,QLD,TVL
CLUDEN,4811,QLD,TVL
IDALIA,4811,QLD,TVL
JAMES COOK UNIVERSITY,4811,QLD,TVL
MOUNT STUART,4811,QLD,TVL
OAK VALLEY,4811,QLD,TVL
OONOONBA,4811,QLD,TVL
ROSENEATH,4811,QLD,TVL
STUART,4811,QLD,TVL
WULGURU,4811,QLD,TVL
CURRAJONG,4812,QLD,TVL
GULLIVER,4812,QLD,TVL
HERMIT PARK,4812,QLD,TVL
HYDE PARK,4812,QLD,TVL
HYDE PARK CASTLETOWN,4812,QLD,TVL
MUNDINGBURRA,4812,QLD,TVL
MYSTERTON,4812,QLD,TVL
PIMLICO,4812,QLD,TVL
RISING SUN,4812,QLD,TVL
ROSSLEA,4812,QLD,TVL
AITKENVALE,4814,QLD,TVL
AITKENVALE BC,4814,QLD,TVL
ANNANDALE,4814,QLD,TVL
CRANBROOK,4814,QLD,TVL
DOUGLAS,4814,QLD,TVL
GARBUTT,4814,QLD,TVL
GARBUTT BC,4814,QLD,TVL
GARBUTT EAST,4814,QLD,TVL
HEATLEY,4814,QLD,TVL
MOUNT LOUISA,4814,QLD,TVL
MURRAY,4814,QLD,TVL
THURINGOWA DC,4814,QLD,TVL
VINCENT,4814,QLD,TVL
CONDON,4815,QLD,TVL
KELSO,4815,QLD,TVL
RASMUSSEN,4815,QLD,TVL
ALLIGATOR CREEK,4816,QLD,TVL
BALGAL BEACH,4816,QLD,TVL
BROOKHILL,4816,QLD,TVL
CALCIUM,4816,QLD,TVL
CLEMANT,4816,QLD,TVL
CRIMEA,4816,QLD,TVL
JULAGO,4816,QLD,TVL
MACROSSAN,4816,QLD,TVL
MUTARNEE,4816,QLD,TVL
NOME,4816,QLD,TVL
REID RIVER,4816,QLD,TVL
ROLLINGSTONE,4816,QLD,TVL
SELLHEIM,4816,QLD,TVL
TOOMULLA,4816,QLD,TVL
TOONPAN,4816,QLD,TVL
WOODSTOCK,4816,QLD,TVL
ALICE RIVER,4817,QLD,TVL
BOHLE PLAINS,4817,QLD,TVL
KIRWAN,4817,QLD,TVL
RANGEWOOD,4817,QLD,TVL
RUPERTSWOOD,4817,QLD,TVL
STABLEFORD,4817,QLD,TVL
THURINGOWA CENTRAL,4817,QLD,TVL
THURINGOWA CENTRAL BC,4817,QLD,TVL
BEACH HOLM,4818,QLD,TVL
BLACK RIVER,4818,QLD,TVL
BLUEWATER,4818,QLD,TVL
BLUEWATER PARK,4818,QLD,TVL
BOHLE,4818,QLD,TVL
BURDELL,4818,QLD,TVL
BUSHLAND BEACH,4818,QLD,TVL
COSGROVE,4818,QLD,TVL
DEERAGUN,4818,QLD,TVL
JENSEN,4818,QLD,TVL
MOUNT LOW,4818,QLD,TVL
MOUNT ST JOHN,4818,QLD,TVL
PURONO PARK,4818,QLD,TVL
SAUNDERS BEACH,4818,QLD,TVL
SHAW,4818,QLD,TVL
TOOLAKEA,4818,QLD,TVL
YABULU,4818,QLD,TVL
ALABAMA HILL,4820,QLD,TVL
BREDDAN,4820,QLD,TVL
BROUGHTON,4820,QLD,TVL
CHARTERS TOWERS,4820,QLD,TVL
CHARTERS TOWERS CITY,4820,QLD,TVL
COLUMBIA,4820,QLD,TVL
DOTSWOOD,4820,QLD,TVL
GRAND SECRET,4820,QLD,TVL
LISSNER,4820,QLD,TVL
MILLCHESTER,4820,QLD,TVL
MOSMAN PARK,4820,QLD,TVL
QUEENTON,4820,QLD,TVL
RICHMOND HILL,4820,QLD,TVL
SOUTHERN CROSS,4820,QLD,TVL
TOLL,4820,QLD,TVL
TOWERS HILL,4820,QLD,TVL
BAMBAROO,4850,QLD,TVL
HELENS HILL,4850,QLD,TVL
INGHAM,4850,QLD,TVL
TOOBANNA,4850,QLD,TVL
BIRKALLA,4854,QLD,CNS
FELUGA,4854,QLD,CNS
TULLY,4854,QLD,CNS
EL ARISH,4855,QLD,CNS
SILKWOOD,4856,QLD,CNS
MOURILYAN,4858,QLD,CNS
SOUTH JOHNSTONE,4859,QLD,CNS
BELVEDERE,4860,QLD,CNS
CULLINANE,4860,QLD,CNS
DARADGEE,4860,QLD,CNS
EAST INNISFAIL,4860,QLD,CNS
GARRADUNGA,4860,QLD,CNS
GOONDI,4860,QLD,CNS
GOONDI BEND,4860,QLD,CNS
GOONDI HILL,4860,QLD,CNS
INNISFAIL,4860,QLD,CNS
INNISFAIL ESTATE,4860,QLD,CNS
MIGHELL,4860,QLD,CNS
MUNDOO,4860,QLD,CNS
SOUTH INNISFAIL,4860,QLD,CNS
WEBB,4860,QLD,CNS
BABINDA,4861,QLD,CNS
GORDONVALE,4865,QLD,CNS
MERINGA,4865,QLD,CNS
PYRAMID,4865,QLD,CNS
BAYVIEW HEIGHTS,4868,QLD,CNS
MOUNT SHERIDAN,4868,QLD,CNS
TARRAWARRA,4868,QLD,CNS
WHITE ROCK,4868,QLD,CNS
WOREE,4868,QLD,CNS
BENTLEY PARK,4869,QLD,CNS
CENTENARY PARK,4869,QLD,CNS
EDMONTON,4869,QLD,CNS
MOUNT PETER,4869,QLD,CNS
TAMARIND GARDENS,4869,QLD,CNS
AEROGLEN,4870,QLD,CNS
BRINSMEAD,4870,QLD,CNS
BUNGALOW,4870,QLD,CNS
CAIRNS,4870,QLD,CNS
CAIRNS CENTRAL,4870,QLD,CNS
CAIRNS CITY,4870,QLD,CNS
CAIRNS DC,4870,QLD,CNS
CAIRNS MC,4870,QLD,CNS
CAIRNS NORTH,4870,QLD,CNS
CAIRNS ORCHID PLAZA,4870,QLD,CNS
EARLVILLE,4870,QLD,CNS
EARLVILLE BC,4870,QLD,CNS
EDGE HILL,4870,QLD,CNS
FRESHWATER,4870,QLD,CNS
KAMERUNGA,4870,QLD,CNS
KANIMBLA,4870,QLD,CNS
MANOORA,4870,QLD,CNS
MANUNDA,4870,QLD,CNS
MOOROOBOOL,4870,QLD,CNS
NORTH CAIRNS,4870,QLD,CNS
PARRAMATTA PARK,4870,QLD,CNS
PORTSMITH,4870,QLD,CNS
REDLYNCH,4870,QLD,CNS
STRATFORD,4870,QLD,CNS
WESTCOURT,4870,QLD,CNS
WHITFIELD,4870,QLD,CNS
BOOGAN,4871,QLD,CNS
DEERAL,4871,QLD,CNS
FISHERY FALLS,4871,QLD,CNS
FOUR MILE BEACH,4871,QLD,CNS
MIRRIWINNI,4871,QLD,CNS
MORESBY,4871,QLD,CNS
WANGAN,4871,QLD,CNS
WALKAMIN,4872,QLD,CNS
BONNIE DOON,4873,QLD,CNS
COOYA BEACH,4873,QLD,CNS
MIALLO,4873,QLD,CNS
MOSSMAN,4873,QLD,CNS
NEWELL,4873,QLD,CNS
CRAIGLIE,4877,QLD,CNS
KILLALOE,4877,QLD,CNS
MOWBRAY,4877,QLD,CNS
OAK BEACH,4877,QLD,CNS
PORT DOUGLAS,4877,QLD,CNS
WANGETTI,4877,QLD,CNS
BARRON,4878,QLD,CNS
CARAVONICA,4878,QLD,CNS
HOLLOWAYS BEACH,4878,QLD,CNS
LAKE PLACID,4878,QLD,CNS
MACHANS BEACH,4878,QLD,CNS
SMITHFIELD,4878,QLD,CNS
YORKEYS KNOB,4878,QLD,CNS
BUCHAN POINT,4879,QLD,CNS
CLIFTON BEACH,4879,QLD,CNS
ELLIS BEACH,4879,QLD,CNS
KEWARRA BEACH,4879,QLD,CNS
PALM COVE,4879,QLD,CNS
TRINITY BEACH,4879,QLD,CNS
TRINITY PARK,4879,QLD,CNS
MAREEBA,4880,QLD,CNS
KURANDA,4881,QLD,CNS
TOLGA,4882,QLD,CNS
ATHERTON,4883,QLD,CNS
YUNGABURRA,4884,QLD,CNS
MALANDA,4885,QLD,CNS
ADELAIDE,5000,SA,ADL
ADELAIDE BC,5000,SA,ADL
CITY WEST CAMPUS,5000,SA,ADL
HALIFAX STREET,5000,SA,ADL
HUTT STREET,5000,SA,ADL
PARLIAMENT HOUSE,5000,SA,ADL
RUNDLE MALL,5000,SA,ADL
STATION ARCADE,5000,SA,ADL
STURT STREET,5000,SA,ADL
ADELAIDE,5001,SA,ADL
ADELAIDE UNIVERSITY,5005,SA,ADL
UNIVERSITY OF ADELAIDE,5005,SA,ADL
NORTH ADELAIDE,5006,SA,ADL
NORTH ADELAIDE MELBOURNE ST,5006,SA,ADL
BOWDEN,5007,SA,ADL
BROMPTON,5007,SA,ADL
HINDMARSH,5007,SA,ADL
WELLAND,5007,SA,ADL
WEST HINDMARSH,5007,SA,ADL
CROYDON,5008,SA,ADL
CROYDON PARK,5008,SA,ADL
CROYDON PARK SOUTH,5008,SA,ADL
DEVON PARK,5008,SA,ADL
DUDLEY PARK,5008,SA,ADL
RENOWN PARK,5008,SA,ADL
RIDLEYTON,5008,SA,ADL
WEST CROYDON,5008,SA,ADL
ALLENBY GARDENS,5009,SA,ADL
BEVERLEY,5009,SA,ADL
KILKENNY,5009,SA,ADL
ANGLE PARK,5010,SA,ADL
FERRYDEN PARK,5010,SA,ADL
REGENCY PARK,5010,SA,ADL
REGENCY PARK BC,5010,SA,ADL
ST CLAIR,5011,SA,ADL
ST CLAIRE,5011,SA,ADL
WOODVILLE,5011,SA,ADL
WOODVILLE PARK,5011,SA,ADL
WOODVILLE SOUTH,5011,SA,ADL
WOODVILLE WEST,5011,SA,ADL
ATHOL PARK,5012,SA,ADL
MANSFIELD PARK,5012,SA,ADL
WOODVILLE GARDENS,5012,SA,ADL
WOODVILLE NORTH,5012,SA,ADL
GILLMAN,5013,SA,ADL
OTTOWAY,5013,SA,ADL
PENNINGTON,5013,SA,ADL
ROSEWATER,5013,SA,ADL
ROSEWATER EAST,5013,SA,ADL
WINGFIELD,5013,SA,ADL
ALBERT PARK,5014,SA,ADL
ALBERTON,5014,SA,ADL
CHELTENHAM,5014,SA,ADL
HENDON,5014,SA,ADL
QUEENSTOWN,5014,SA,ADL
ROYAL PARK,5014,SA,ADL
BIRKENHEAD,5015,SA,ADL
ETHELTON,5015,SA,ADL
GLANVILLE,5015,SA,ADL
NEW PORT,5015,SA,ADL
PORT ADELAIDE,5015,SA,ADL
PORT ADELAIDE BC,5015,SA,ADL
PORT ADELAIDE DC,5015,SA,ADL
LARGS BAY,5016,SA,ADL
LARGS NORTH,5016,SA,ADL
PETERHEAD,5016,SA,ADL
OSBORNE,5017,SA,ADL
TAPEROO,5017,SA,ADL
NORTH HAVEN,5018,SA,ADL
OUTER HARBOR,5018,SA,ADL
EXETER,5019,SA,ADL
SEMAPHORE,5019,SA,ADL
SEMAPHORE PARK,5019,SA,ADL
SEMAPHORE SOUTH,5019,SA,ADL
WEST LAKES SHORE,5020,SA,ADL
WEST LAKES,5021,SA,ADL
GRANGE,5022,SA,ADL
HENLEY BEACH,5022,SA,ADL
HENLEY BEACH SOUTH,5022,SA,ADL
KIRKCALDY,5022,SA,ADL
TENNYSON,5022,SA,ADL
FINDON,5023,SA,ADL
SEATON,5023,SA,ADL
SEATON NORTH,5023,SA,ADL
FULHAM,5024,SA,ADL
FULHAM GARDENS,5024,SA,ADL
WEST BEACH,5024,SA,ADL
FLINDERS PARK,5025,SA,ADL
KIDMAN PARK,5025,SA,ADL
MILE END,5031,SA,ADL
MILE END SOUTH,5031,SA,ADL
THEBARTON,5031,SA,ADL
TORRENSVILLE,5031,SA,ADL
TORRENSVILLE PLAZA,5031,SA,ADL
BROOKLYN PARK,5032,SA,ADL
LOCKLEYS,5032,SA,ADL
UNDERDALE,5032,SA,ADL
COWANDILLA,5033,SA,ADL
HILTON,5033,SA,ADL
HILTON PLAZA,5033,SA,ADL
MARLESTON,5033,SA,ADL
MARLESTON DC,5033,SA,ADL
RICHMOND,5033,SA,ADL
WEST RICHMOND,5033,SA,ADL
CLARENCE PARK,5034,SA,ADL
GOODWOOD,5034,SA,ADL
KINGS PARK,5034,SA,ADL
MILLSWOOD,5034,SA,ADL
WAYVILLE,5034,SA,ADL
ASHFORD,5035,SA,ADL
BLACK FOREST,5035,SA,ADL
EVERARD PARK,5035,SA,ADL
FORESTVILLE,5035,SA,ADL
KESWICK,5035,SA,ADL
KESWICK TERMINAL,5035,SA,ADL
GLANDORE,5037,SA,ADL
KURRALTA PARK,5037,SA,ADL
NETLEY,5037,SA,ADL
NORTH PLYMPTON,5037,SA,ADL
CAMDEN PARK,5038,SA,ADL
PLYMPTON,5038,SA,ADL
PLYMPTON PARK,5038,SA,ADL
SOUTH PLYMPTON,5038,SA,ADL
CLARENCE GARDENS,5039,SA,ADL
EDWARDSTOWN,5039,SA,ADL
MELROSE PARK,5039,SA,ADL
MELROSE PARK DC,5039,SA,ADL
NOVAR GARDENS,5040,SA,ADL
COLONEL LIGHT GARDENS,5041,SA,ADL
CUMBERLAND PARK,5041,SA,ADL
DAW PARK,5041,SA,ADL
PANORAMA,5041,SA,ADL
WESTBOURNE PARK,5041,SA,ADL
BEDFORD PARK,5042,SA,ADL
CLOVELLY PARK,5042,SA,ADL
FLINDERS UNIVERSITY,5042,SA,ADL
PASADENA,5042,SA,ADL
ST MARYS,5042,SA,ADL
TONSLEY,5042,SA,ADL
ASCOT PARK,5043,SA,ADL
MARION,5043,SA,ADL
MITCHELL PARK,5043,SA,ADL
MORPHETTVILLE,5043,SA,ADL
PARK HOLME,5043,SA,ADL
GLENGOWRIE,5044,SA,ADL
SOMERTON PARK,5044,SA,ADL
GLENELG,5045,SA,ADL
GLENELG EAST,5045,SA,ADL
GLENELG JETTY ROAD,5045,SA,ADL
GLENELG NORTH,5045,SA,ADL
GLENELG SOUTH,5045,SA,ADL
OAKLANDS PARK,5046,SA,ADL
WARRADALE,5046,SA,ADL
WARRADALE NORTH,5046,SA,ADL
DARLINGTON,5047,SA,ADL
SEACOMBE GARDENS,5047,SA,ADL
SEACOMBE HEIGHTS,5047,SA,ADL
STURT,5047,SA,ADL
BRIGHTON,5048,SA,ADL
DOVER GARDENS,5048,SA,ADL
HOVE,5048,SA,ADL
NORTH BRIGHTON,5048,SA,ADL
SOUTH BRIGHTON,5048,SA,ADL
KINGSTON PARK,5049,SA,ADL
MARINO,5049,SA,ADL
SEACLIFF,5049,SA,ADL
SEACLIFF PARK,5049,SA,ADL
SEAVIEW DOWNS,5049,SA,ADL
BELLEVUE HEIGHTS,5050,SA,ADL
EDEN HILLS,5050,SA,ADL
BLACKWOOD,5051,SA,ADL
COROMANDEL VALLEY,5051,SA,ADL
CRAIGBURN FARM,5051,SA,ADL
BELAIR,5052,SA,ADL
GLENALTA,5052,SA,ADL
HYDE PARK,5061,SA,ADL
MALVERN,5061,SA,ADL
UNLEY,5061,SA,ADL
UNLEY BC,5061,SA,ADL
UNLEY DC,5061,SA,ADL
UNLEY PARK,5061,SA,ADL
CLAPHAM,5062,SA,ADL
HAWTHORN,5062,SA,ADL
KINGSWOOD,5062,SA,ADL
LOWER MITCHAM,5062,SA,ADL
LYNTON,5062,SA,ADL
MITCHAM,5062,SA,ADL
MITCHAM SHOPPING CENTRE,5062,SA,ADL
NETHERBY,5062,SA,ADL
SPRINGFIELD,5062,SA,ADL
TORRENS PARK,5062,SA,ADL
EASTWOOD,5063,SA,ADL
FREWVILLE,5063,SA,ADL
FULLARTON,5063,SA,ADL
HIGHGATE,5063,SA,ADL
PARKSIDE,5063,SA,ADL
GLEN OSMOND,5064,SA,ADL
GLENUNGA,5064,SA,ADL
MYRTLE BANK,5064,SA,ADL
ST GEORGES,5064,SA,ADL
URRBRAE,5064,SA,ADL
DULWICH,5065,SA,ADL
GLENSIDE,5065,SA,ADL
LINDEN PARK,5065,SA,ADL
TOORAK GARDENS,5065,SA,ADL
TUSMORE,5065,SA,ADL
BEAUMONT,5066,SA,ADL
BURNSIDE,5066,SA,ADL
ERINDALE,5066,SA,ADL
HAZELWOOD PARK,5066,SA,ADL
STONYFELL,5066,SA,ADL
WATTLE PARK,5066,SA,ADL
BEULAH PARK,5067,SA,ADL
KENT TOWN,5067,SA,ADL
NORWOOD,5067,SA,ADL
NORWOOD SOUTH,5067,SA,ADL
ROSE PARK,5067,SA,ADL
HEATHPOOL,5068,SA,ADL
KENSINGTON,5068,SA,ADL
KENSINGTON GARDENS,5068,SA,ADL
KENSINGTON PARK,5068,SA,ADL
LEABROOK,5068,SA,ADL
MARRYATVILLE,5068,SA,ADL
ST MORRIS,5068,SA,ADL
TRINITY GARDENS,5068,SA,ADL
COLLEGE PARK,5069,SA,ADL
EVANDALE,5069,SA,ADL
HACKNEY,5069,SA,ADL
MAYLANDS,5069,SA,ADL
ST PETERS,5069,SA,ADL
STEPNEY,5069,SA,ADL
FELIXSTOW,5070,SA,ADL
FIRLE,5070,SA,ADL
GLYNDE,5070,SA,ADL
GLYNDE DC,5070,SA,ADL
GLYNDE PLAZA,5070,SA,ADL
JOSLIN,5070,SA,ADL
MARDEN,5070,SA,ADL
PAYNEHAM,5070,SA,ADL
PAYNEHAM SOUTH,5070,SA,ADL
ROYSTON PARK,5070,SA,ADL
KENT TOWN,5071,SA,ADL
KENT TOWN DC,5071,SA,ADL
AULDANA,5072,SA,ADL
MAGILL,5072,SA,ADL
MAGILL NORTH,5072,SA,ADL
MAGILL SOUTH,5072,SA,ADL
ROSSLYN PARK,5072,SA,ADL
SKYE,5072,SA,ADL
WOODFORDE,5072,SA,ADL
HECTORVILLE,5073,SA,ADL
ROSTREVOR,5073,SA,ADL
TRANMERE,5073,SA,ADL
TRANMERE NORTH,5073,SA,ADL
CAMPBELLTOWN,5074,SA,ADL
NEWTON,5074,SA,ADL
DERNANCOURT,5075,SA,ADL
PARADISE,5075,SA,ADL
ATHELSTONE,5076,SA,ADL
COLLINSWOOD,5081,SA,ADL
GILBERTON,5081,SA,ADL
MEDINDIE,5081,SA,ADL
MEDINDIE GARDENS,5081,SA,ADL
VALE PARK,5081,SA,ADL
WALKERVILLE,5081,SA,ADL
FITZROY,5082,SA,ADL
OVINGHAM,5082,SA,ADL
PROSPECT,5082,SA,ADL
PROSPECT EAST,5082,SA,ADL
PROSPECT WEST,5082,SA,ADL
THORNGATE,5082,SA,ADL
BROADVIEW,5083,SA,ADL
NAILSWORTH,5083,SA,ADL
SEFTON PARK,5083,SA,ADL
BLAIR ATHOL,5084,SA,ADL
BLAIR ATHOL WEST,5084,SA,ADL
KILBURN,5084,SA,ADL
KILBURN NORTH,5084,SA,ADL
CLEARVIEW,5085,SA,ADL
ENFIELD,5085,SA,ADL
ENFIELD PLAZA,5085,SA,ADL
LIGHTSVIEW,5085,SA,ADL
NORTHFIELD,5085,SA,ADL
NORTHGATE,5085,SA,ADL
GILLES PLAINS,5086,SA,ADL
GREENACRES,5086,SA,ADL
HAMPSTEAD GARDENS,5086,SA,ADL
HILLCREST,5086,SA,ADL
MANNINGHAM,5086,SA,ADL
OAKDEN,5086,SA,ADL
KLEMZIG,5087,SA,ADL
WINDSOR GARDENS,5087,SA,ADL
HOLDEN HILL,5088,SA,ADL
HIGHBURY,5089,SA,ADL
HOPE VALLEY,5090,SA,ADL
BANKSIA PARK,5091,SA,ADL
TEA TREE GULLY,5091,SA,ADL
VISTA,5091,SA,ADL
MODBURY,5092,SA,ADL
MODBURY HEIGHTS,5092,SA,ADL
MODBURY NORTH,5092,SA,ADL
MODBURY NORTH DC,5092,SA,ADL
PARA VISTA,5093,SA,ADL
VALLEY VIEW,5093,SA,ADL
CAVAN,5094,SA,ADL
DRY CREEK,5094,SA,ADL
GEPPS CROSS,5094,SA,ADL
MAWSON LAKES,5095,SA,ADL
POORAKA,5095,SA,ADL
THE LEVELS,5095,SA,ADL
GULFVIEW HEIGHTS,5096,SA,ADL
PARA HILLS,5096,SA,ADL
PARA HILLS WEST,5096,SA,ADL
REDWOOD PARK,5097,SA,ADL
RIDGEHAVEN,5097,SA,ADL
ST AGNES,5097,SA,ADL
INGLE FARM,5098,SA,ADL
WALKLEY HEIGHTS,5098,SA,ADL
PARAFIELD,5106,SA,ADL
PARAFIELD AIRPORT,5106,SA,ADL
SALISBURY SOUTH,5106,SA,ADL
SALISBURY SOUTH BC,5106,SA,ADL
SALISBURY SOUTH DC,5106,SA,ADL
GREEN FIELDS,5107,SA,ADL
PARAFIELD GARDENS,5107,SA,ADL
PARALOWIE,5108,SA,ADL
SALISBURY,5108,SA,ADL
SALISBURY DOWNS,5108,SA,ADL
SALISBURY NORTH,5108,SA,ADL
SALISBURY NORTH WHITES ROAD,5108,SA,ADL
BRAHMA LODGE,5109,SA,ADL
SALISBURY EAST,5109,SA,ADL
SALISBURY EAST NORTHBRI AV,5109,SA,ADL
SALISBURY EAST NORTHBRI AVE,5109,SA,ADL
SALISBURY HEIGHTS,5109,SA,ADL
SALISBURY PARK,5109,SA,ADL
SALISBURY PLAIN,5109,SA,ADL
BOLIVAR,5110,SA,ADL
BURTON,5110,SA,ADL
DIREK,5110,SA,ADL
GLOBE DERBY PARK,5110,SA,ADL
ST KILDA,5110,SA,ADL
WATERLOO CORNER,5110,SA,ADL
EDINBURGH,5111,SA,ADL
ELIZABETH,5112,SA,ADL
ELIZABETH EAST,5112,SA,ADL
ELIZABETH GROVE,5112,SA,ADL
ELIZABETH SOUTH,5112,SA,ADL
ELIZABETH VALE,5112,SA,ADL
HILLBANK,5112,SA,ADL
DAVOREN PARK,5113,SA,ADL
DAVOREN PARK NORTH,5113,SA,ADL
DAVOREN PARK SOUTH,5113,SA,ADL
EDINBURGH NORTH,5113,SA,ADL
ELIZABETH DOWNS,5113,SA,ADL
ELIZABETH NORTH,5113,SA,ADL
ELIZABETH PARK,5113,SA,ADL
ELIZABETH WEST,5113,SA,ADL
ELIZABETH WEST DC,5113,SA,ADL
ANDREWS FARM,5114,SA,ADL
BLAKEVIEW,5114,SA,ADL
CRAIGMORE,5114,SA,ADL
GOULD CREEK,5114,SA,ADL
SMITHFIELD,5114,SA,ADL
SMITHFIELD PLAINS,5114,SA,ADL
SMITHFIELD WEST,5114,SA,ADL
ULEYBURY,5114,SA,ADL
YATTALUNGA,5114,SA,ADL
KUDLA,5115,SA,ADL
MUNNO PARA,5115,SA,ADL
MUNNO PARA DOWNS,5115,SA,ADL
MUNNO PARA WEST,5115,SA,ADL
EVANSTON,5116,SA,ADL
EVANSTON GARDENS,5116,SA,ADL
EVANSTON PARK,5116,SA,ADL
EVANSTON SOUTH,5116,SA,ADL
HILLIER,5116,SA,ADL
ANGLE VALE,5117,SA,ADL
BIBARINGA,5118,SA,ADL
BUCHFELDE,5118,SA,ADL
CONCORDIA,5118,SA,ADL
GAWLER,5118,SA,ADL
GAWLER BELT,5118,SA,ADL
GAWLER EAST,5118,SA,ADL
GAWLER SOUTH,5118,SA,ADL
GAWLER WEST,5118,SA,ADL
HEWETT,5118,SA,ADL
KALBEEBA,5118,SA,ADL
KINGSFORD,5118,SA,ADL
REID,5118,SA,ADL
WILLASTON,5118,SA,ADL
BUCKLAND PARK,5120,SA,ADL
VIRGINIA,5120,SA,ADL
MACDONALD PARK,5121,SA,ADL
PENFIELD,5121,SA,ADL
PENFIELD GARDENS,5121,SA,ADL
GOLDEN GROVE,5125,SA,ADL
GOLDEN GROVE VILLAGE,5125,SA,ADL
GREENWITH,5125,SA,ADL
FAIRVIEW PARK,5126,SA,ADL
SURREY DOWNS,5126,SA,ADL
YATALA VALE,5126,SA,ADL
WYNN VALE,5127,SA,ADL
HALLETT COVE,5158,SA,ADL
O'HALLORAN HILL,5158,SA,ADL
O'HALLORAN HILL DC,5158,SA,ADL
SHEIDOW PARK,5158,SA,ADL
TROTT PARK,5158,SA,ADL
ABERFOYLE PARK,5159,SA,ADL
CHANDLERS HILL,5159,SA,ADL
FLAGSTAFF HILL,5159,SA,ADL
HAPPY VALLEY,5159,SA,ADL
LONSDALE,5160,SA,ADL
LONSDALE DC,5160,SA,ADL
PORT STANVAC,5160,SA,ADL
OLD REYNELLA,5161,SA,ADL
REYNELLA,5161,SA,ADL
REYNELLA EAST,5161,SA,ADL
MORPHETT VALE,5162,SA,ADL
WOODCROFT,5162,SA,ADL
HACKHAM,5163,SA,ADL
HACKHAM WEST,5163,SA,ADL
HUNTFIELD HEIGHTS,5163,SA,ADL
ONKAPARINGA HILLS,5163,SA,ADL
CHRISTIE DOWNS,5164,SA,ADL
CHRISTIES BEACH,5165,SA,ADL
CHRISTIES BEACH NORTH,5165,SA,ADL
O'SULLIVAN BEACH,5166,SA,ADL
PORT NOARLUNGA,5167,SA,ADL
PORT NOARLUNGA SOUTH,5167,SA,ADL
NOARLUNGA CENTRE,5168,SA,ADL
NOARLUNGA DOWNS,5168,SA,ADL
OLD NOARLUNGA,5168,SA,ADL
MOANA,5169,SA,ADL
SEAFORD,5169,SA,ADL
SEAFORD HEIGHTS,5169,SA,ADL
SEAFORD MEADOWS,5169,SA,ADL
SEAFORD RISE,5169,SA,ADL
MASLIN BEACH,5170,SA,ADL
BLEWITT SPRINGS,5171,SA,ADL
MCLAREN FLAT,5171,SA,ADL
MCLAREN VALE,5171,SA,ADL
PEDLER CREEK,5171,SA,ADL
TATACHILLA,5171,SA,ADL
WHITES VALLEY,5172,SA,ADL
WILLUNGA,5172,SA,ADL
WILLUNGA SOUTH,5172,SA,ADL
ALDINGA,5173,SA,ADL
ALDINGA BEACH,5173,SA,ADL
PORT WILLUNGA,5173,SA,ADL
SILVER SANDS,5173,SA,ADL
SELLICKS BEACH,5174,SA,ADL
SELLICKS HILL,5174,SA,ADL
ROSEDALE,5350,SA,ADL
SANDY CREEK,5350,SA,ADL
ALTONA,5351,SA,ADL
COCKATOO VALLEY,5351,SA,ADL
LYNDOCH,5351,SA,ADL
WILLIAMSTOWN,5351,SA,ADL
BETHANY,5352,SA,ADL
GOMERSAL,5352,SA,ADL
KRONDORF,5352,SA,ADL
ROWLAND FLAT,5352,SA,ADL
STONE WELL,5352,SA,ADL
TANUNDA,5352,SA,ADL
VINE VALE,5352,SA,ADL
ANGASTON,5353,SA,ADL
MARANANGA,5355,SA,ADL
NURIOOTPA,5355,SA,ADL
SEPPELTSFIELD,5355,SA,ADL
STOCKWELL,5355,SA,ADL
ADELAIDE,5800,SA,ADL
ADELAIDE,5810,SA,ADL
ADELAIDE,5839,SA,ADL
REGENCY PARK,5942,SA,ADL
ADELAIDE AIRPORT,5950,SA,ADL
EXPORT PARK,5950,SA,ADL
CITY DELIVERY CENTRE,6000,WA,PER
PERTH,6000,WA,PER
PERTH GPO,6000,WA,PER
PERTH,6001,WA,PER
HIGHGATE,6003,WA,PER
NORTHBRIDGE,6003,WA,PER
EAST PERTH,6004,WA,PER
PERTH,6004,WA,PER
KINGS PARK,6005,WA,PER
WEST PERTH,6005,WA,PER
NORTH PERTH,6006,WA,PER
LEEDERVILLE,6007,WA,PER
WEST LEEDERVILLE,6007,WA,PER
DAGLISH,6008,WA,PER
SHENTON PARK,6008,WA,PER
SUBIACO,6008,WA,PER
SUBIACO EAST,6008,WA,PER
BROADWAY NEDLANDS,6009,WA,PER
CRAWLEY,6009,WA,PER
DALKEITH,6009,WA,PER
NEDLANDS,6009,WA,PER
NEDLANDS DC,6009,WA,PER
CLAREMONT,6010,WA,PER
CLAREMONT NORTH,6010,WA,PER
KARRAKATTA,6010,WA,PER
MOUNT CLAREMONT,6010,WA,PER
SWANBOURNE,6010,WA,PER
COTTESLOE,6011,WA,PER
PEPPERMINT GROVE,6011,WA,PER
MOSMAN PARK,6012,WA,PER
FLOREAT,6014,WA,PER
FLOREAT FORUM,6014,WA,PER
JOLIMONT,6014,WA,PER
WEMBLEY,6014,WA,PER
CITY BEACH,6015,WA,PER
GLENDALOUGH,6016,WA,PER
MOUNT HAWTHORN,6016,WA,PER
HERDSMAN,6017,WA,PER
OSBORNE PARK,6017,WA,PER
OSBORNE PARK DC,6017,WA,PER
CHURCHLANDS,6018,WA,PER
DOUBLEVIEW,6018,WA,PER
GWELUP,6018,WA,PER
GWELUP DC,6018,WA,PER
INNALOO,6018,WA,PER
KARRINYUP,6018,WA,PER
WOODLANDS,6018,WA,PER
SCARBOROUGH,6019,WA,PER
WEMBLEY DOWNS,6019,WA,PER
CARINE,6020,WA,PER
MARMION,6020,WA,PER
NORTH BEACH,6020,WA,PER
SORRENTO,6020,WA,PER
WATERMANS BAY,6020,WA,PER
BALCATTA,6021,WA,PER
STIRLING,6021,WA,PER
HAMERSLEY,6022,WA,PER
DUNCRAIG,6023,WA,PER
GLENGARRY,6023,WA,PER
GREENWOOD,6024,WA,PER
WARWICK,6024,WA,PER
CRAIGIE,6025,WA,PER
HILLARYS,6025,WA,PER
KALLAROO,6025,WA,PER
PADBURY,6025,WA,PER
KINGSLEY,6026,WA,PER
WOODVALE,6026,WA,PER
BELDON,6027,WA,PER
CONNOLLY,6027,WA,PER
EDGEWATER,6027,WA,PER
HEATHRIDGE,6027,WA,PER
JOONDALUP,6027,WA,PER
JOONDALUP DC,6027,WA,PER
MULLALOO,6027,WA,PER
OCEAN REEF,6027,WA,PER
BURNS BEACH,6028,WA,PER
CURRAMBINE,6028,WA,PER
ILUKA,6028,WA,PER
KINROSS,6028,WA,PER
TRIGG,6029,WA,PER
CLARKSON,6030,WA,PER
MERRIWA,6030,WA,PER
MINDARIE,6030,WA,PER
QUINNS ROCKS,6030,WA,PER
RIDGEWOOD,6030,WA,PER
TAMALA PARK,6030,WA,PER
BANKSIA GROVE,6031,WA,PER
CARRAMAR,6031,WA,PER
NEERABUP,6031,WA,PER
CARABOODA,6033,WA,PER
EGLINTON,6034,WA,PER
YANCHEP,6035,WA,PER
BUTLER,6036,WA,PER
JINDALEE,6036,WA,PER
TWO ROCKS,6037,WA,PER
ALKIMOS,6038,WA,PER
COOLBINIA,6050,WA,PER
MENORA,6050,WA,PER
MOUNT LAWLEY,6050,WA,PER
MAYLANDS,6051,WA,PER
BEDFORD,6052,WA,PER
INGLEWOOD,6052,WA,PER
BAYSWATER,6053,WA,PER
ASHFIELD,6054,WA,PER
BASSENDEAN,6054,WA,PER
BASSENDEAN DC,6054,WA,PER
EDEN HILL,6054,WA,PER
KIARA,6054,WA,PER
LOCKRIDGE,6054,WA,PER
BRABHAM,6055,WA,PER
BUSHMEAD,6055,WA,PER
CAVERSHAM,6055,WA,PER
DAYTON,6055,WA,PER
GUILDFORD,6055,WA,PER
HAZELMERE,6055,WA,PER
HENLEY BROOK,6055,WA,PER
SOUTH GUILDFORD,6055,WA,PER
WEST SWAN,6055,WA,PER
BELLEVUE,6056,WA,PER
BOYA,6056,WA,PER
GREENMOUNT,6056,WA,PER
HELENA VALLEY,6056,WA,PER
HERNE HILL,6056,WA,PER
JANE BROOK,6056,WA,PER
KOONGAMIA,6056,WA,PER
MIDDLE SWAN,6056,WA,PER
MIDLAND,6056,WA,PER
MIDVALE,6056,WA,PER
STRATTON,6056,WA,PER
SWAN VIEW,6056,WA,PER
VIVEASH,6056,WA,PER
WOODBRIDGE,6056,WA,PER
HIGH WYCOMBE,6057,WA,PER
MAIDA VALE,6057,WA,PER
FORRESTFIELD,6058,WA,PER
DIANELLA,6059,WA,PER
DOG SWAMP,6060,WA,PER
JOONDANNA,6060,WA,PER
TUART HILL,6060,WA,PER
YOKINE,6060,WA,PER
YOKINE SOUTH,6060,WA,PER
BALGA,6061,WA,PER
MIRRABOOKA,6061,WA,PER
NOLLAMARA,6061,WA,PER
WESTMINSTER,6061,WA,PER
EMBLETON,6062,WA,PER
MORLEY,6062,WA,PER
NORANDA,6062,WA,PER
BEECHBORO,6063,WA,PER
BENNETT SPRINGS,6063,WA,PER
ALEXANDER HEIGHTS,6064,WA,PER
GIRRAWHEEN,6064,WA,PER
KOONDOOLA,6064,WA,PER
MARANGAROO,6064,WA,PER
ASHBY,6065,WA,PER
DARCH,6065,WA,PER
GNANGARA,6065,WA,PER
HOCKING,6065,WA,PER
KINGSWAY,6065,WA,PER
LANDSDALE,6065,WA,PER
MADELEY,6065,WA,PER
PEARSALL,6065,WA,PER
SINAGRA,6065,WA,PER
TAPPING,6065,WA,PER
WANGARA,6065,WA,PER
WANGARA DC,6065,WA,PER
WANNEROO,6065,WA,PER
BALLAJURA,6066,WA,PER
WHITEMAN,6068,WA,PER
AVELEY,6069,WA,PER
BELHUS,6069,WA,PER
ELLENBROOK,6069,WA,PER
ELLENBROOK EAST,6069,WA,PER
THE VINES,6069,WA,PER
UPPER SWAN,6069,WA,PER
DARLINGTON,6070,WA,PER
GLEN FORREST,6071,WA,PER
HOVEA,6071,WA,PER
MAHOGANY CREEK,6072,WA,PER
MUNDARING,6073,WA,PER
GOOSEBERRY HILL,6076,WA,PER
KALAMUNDA,6076,WA,PER
LESMURDIE,6076,WA,PER
WALLISTON,6076,WA,PER
WALLISTON DC,6076,WA,PER
GNANGARA,6077,WA,PER
PARKERVILLE,6081,WA,PER
STONEVILLE,6081,WA,PER
MALAGA,6090,WA,PER
BURSWOOD,6100,WA,PER
LATHLAIN,6100,WA,PER
VICTORIA PARK,6100,WA,PER
CARLISLE,6101,WA,PER
CARLISLE NORTH,6101,WA,PER
CARLISLE SOUTH,6101,WA,PER
EAST VICTORIA PARK,6101,WA,PER
BENTLEY,6102,WA,PER
BENTLEY DC,6102,WA,PER
BENTLEY SOUTH,6102,WA,PER
ST JAMES,6102,WA,PER
RIVERVALE,6103,WA,PER
ASCOT,6104,WA,PER
BELMONT,6104,WA,PER
REDCLIFFE,6104,WA,PER
CLOVERDALE,6105,WA,PER
KEWDALE,6105,WA,PER
PERTH AIRPORT,6105,WA,PER
WELSHPOOL,6106,WA,PER
WELSHPOOL DC,6106,WA,PER
BECKENHAM,6107,WA,PER
CANNINGTON,6107,WA,PER
EAST CANNINGTON,6107,WA,PER
KENWICK,6107,WA,PER
QUEENS PARK,6107,WA,PER
WATTLE GROVE,6107,WA,PER
WILSON,6107,WA,PER
THORNLIE,6108,WA,PER
MADDINGTON,6109,WA,PER
ORANGE GROVE,6109,WA,PER
GOSNELLS,6110,WA,PER
HUNTINGDALE,6110,WA,PER
MARTIN,6110,WA,PER
SOUTHERN RIVER,6110,WA,PER
CAMILLO,6111,WA,PER
CHAMPION LAKES,6111,WA,PER
KELMSCOTT,6111,WA,PER
KELMSCOTT DC,6111,WA,PER
ROLEYSTONE,6111,WA,PER
WESTFIELD,6111,WA,PER
ARMADALE,6112,WA,PER
BROOKDALE,6112,WA,PER
FORRESTDALE,6112,WA,PER
HARRISDALE,6112,WA,PER
HAYNES,6112,WA,PER
HILBERT,6112,WA,PER
MOUNT NASURA,6112,WA,PER
MOUNT RICHON,6112,WA,PER
PIARA WATERS,6112,WA,PER
SEVILLE GROVE,6112,WA,PER
WUNGONG,6112,WA,PER
BYFORD,6122,WA,PER
DARLING DOWNS,6122,WA,PER
LANGFORD,6147,WA,PER
LYNWOOD,6147,WA,PER
PARKWOOD,6147,WA,PER
FERNDALE,6148,WA,PER
RIVERTON,6148,WA,PER
ROSSMOYNE,6148,WA,PER
SHELLEY,6148,WA,PER
BULL CREEK,6149,WA,PER
LEEMING,6149,WA,PER
BATEMAN,6150,WA,PER
MURDOCH,6150,WA,PER
WINTHROP,6150,WA,PER
KENSINGTON,6151,WA,PER
SOUTH PERTH,6151,WA,PER
SOUTH PERTH ANGELO ST,6151,WA,PER
COMO,6152,WA,PER
KARAWARA,6152,WA,PER
MANNING,6152,WA,PER
SALTER POINT,6152,WA,PER
WATERFORD,6152,WA,PER
APPLECROSS,6153,WA,PER
APPLECROSS NORTH,6153,WA,PER
ARDROSS,6153,WA,PER
BRENTWOOD,6153,WA,PER
CANNING BRIDGE APPLECROSS,6153,WA,PER
MOUNT PLEASANT,6153,WA,PER
ALFRED COVE,6154,WA,PER
BOORAGOON,6154,WA,PER
MYAREE,6154,WA,PER
CANNING VALE,6155,WA,PER
CANNING VALE DC,6155,WA,PER
CANNING VALE EAST,6155,WA,PER
CANNING VALE SOUTH,6155,WA,PER
WILLETTON,6155,WA,PER
ATTADALE,6156,WA,PER
MELVILLE,6156,WA,PER
WILLAGEE,6156,WA,PER
WILLAGEE CENTRAL,6156,WA,PER
BICTON,6157,WA,PER
PALMYRA,6157,WA,PER
PALMYRA DC,6157,WA,PER
EAST FREMANTLE,6158,WA,PER
NORTH FREMANTLE,6159,WA,PER
FREMANTLE,6160,WA,PER
BEACONSFIELD,6162,WA,PER
SOUTH FREMANTLE,6162,WA,PER
WHITE GUM VALLEY,6162,WA,PER
BIBRA LAKE,6163,WA,PER
BIBRA LAKE DC,6163,WA,PER
COOLBELLUP,6163,WA,PER
HAMILTON HILL,6163,WA,PER
HILTON,6163,WA,PER
KARDINYA,6163,WA,PER
NORTH COOGEE,6163,WA,PER
NORTH LAKE,6163,WA,PER
O'CONNOR,6163,WA,PER
SAMSON,6163,WA,PER
SPEARWOOD,6163,WA,PER
ATWELL,6164,WA,PER
AUBIN GROVE,6164,WA,PER
BANJUP,6164,WA,PER
BEELIAR,6164,WA,PER
COCKBURN CENTRAL,6164,WA,PER
HAMMOND PARK,6164,WA,PER
JANDAKOT,6164,WA,PER
SOUTH LAKE,6164,WA,PER
SUCCESS,6164,WA,PER
TREEBY,6164,WA,PER
YANGEBUP,6164,WA,PER
HOPE VALLEY,6165,WA,PER
NAVAL BASE,6165,WA,PER
COOGEE,6166,WA,PER
HENDERSON,6166,WA,PER
MUNSTER,6166,WA,PER
WATTLEUP,6166,WA,PER
ANKETELL,6167,WA,PER
BERTRAM,6167,WA,PER
CALISTA,6167,WA,PER
CASUARINA,6167,WA,PER
KWINANA BEACH,6167,WA,PER
KWINANA TOWN CENTRE,6167,WA,PER
MANDOGALUP,6167,WA,PER
MEDINA,6167,WA,PER
ORELIA,6167,WA,PER
PARMELIA,6167,WA,PER
POSTANS,6167,WA,PER
THE SPECTACLES,6167,WA,PER
WANDI,6167,WA,PER
COOLOONGUP,6168,WA,PER
EAST ROCKINGHAM,6168,WA,PER
HILLMAN,6168,WA,PER
PERON,6168,WA,PER
ROCKINGHAM,6168,WA,PER
ROCKINGHAM BEACH,6168,WA,PER
ROCKINGHAM DC,6168,WA,PER
SAFETY BAY,6169,WA,PER
SHOALWATER,6169,WA,PER
WAIKIKI,6169,WA,PER
WARNBRO,6169,WA,PER
LEDA,6170,WA,PER
WELLARD,6170,WA,PER
BALDIVIS,6171,WA,PER
PORT KENNEDY,6172,WA,PER
SECRET HARBOUR,6173,WA,PER
GOLDEN BAY,6174,WA,PER
SINGLETON,6175,WA,PER
KARNUP,6176,WA,PER
LAKELANDS,6180,WA,PER
PARKLANDS,6180,WA,PER
STAKE HILL,6181,WA,PER
NORTH YUNDERUP,6208,WA,PER
PINJARRA,6208,WA,PER
RAVENSWOOD,6208,WA,PER
SOUTH YUNDERUP,6208,WA,PER
BARRAGUP,6209,WA,PER
FURNISSDALE,6209,WA,PER
BARRAGUP,6210,WA,PER
COODANUP,6210,WA,PER
DUDLEY PARK,6210,WA,PER
ERSKINE,6210,WA,PER
FALCON,6210,WA,PER
FURNISSDALE,6210,WA,PER
GREENFIELDS,6210,WA,PER
HALLS HEAD,6210,WA,PER
LAKELANDS,6210,WA,PER
MADORA BAY,6210,WA,PER
MANDURAH,6210,WA,PER
MANDURAH DC,6210,WA,PER
MEADOW SPRINGS,6210,WA,PER
PARKLANDS,6210,WA,PER
SAN REMO,6210,WA,PER
SILVER SANDS,6210,WA,PER
STAKE HILL,6210,WA,PER
WANNANUP,6210,WA,PER
DAWESVILLE,6211,WA,PER
PERTH,6809,WA,PER
PERTH,6827,WA,PER
PERTH,6830,WA,PER
PERTH ST GEORGES TCE,6831,WA,PER
PERTH ADELAIDE TCE,6832,WA,PER
PERTH BC,6849,WA,PER
CLOISTERS SQUARE,6850,WA,PER
CLOISTERS SQUARE PO,6850,WA,PER
NORTHBRIDGE,6865,WA,PER
EAST PERTH,6892,WA,PER
LEEDERVILLE,6900,WA,PER
WEST LEEDERVILLE,6901,WA,PER
LEEDERVILLE,6902,WA,PER
LEEDERVILLE,6903,WA,PER
SUBIACO,6904,WA,PER
NORTHLANDS,6905,WA,PER
NORTHLANDS PO,6905,WA,PER
NORTH PERTH,6906,WA,PER
NEDLANDS,6907,WA,PER
NEDLANDS,6909,WA,PER
CLAREMONT,6910,WA,PER
COTTESLOE,6911,WA,PER
MOSMAN PARK,6912,WA,PER
WEMBLEY,6913,WA,PER
BALCATTA,6914,WA,PER
MOUNT HAWTHORN,6915,WA,PER
OSBORNE PARK,6916,WA,PER
OSBORNE PARK DC,6916,WA,PER
OSBORNE PARK,6917,WA,PER
INNALOO,6918,WA,PER
JOONDALUP DC,6919,WA,PER
NORTH BEACH,6920,WA,PER
KARRINYUP,6921,WA,PER
SCARBOROUGH,6922,WA,PER
HILLARYS,6923,WA,PER
GREENWOOD,6924,WA,PER
WALLISTON DC,6925,WA,PER
KALAMUNDA,6926,WA,PER
MOUNT LAWLEY,6929,WA,PER
MAYLANDS,6931,WA,PER
INGLEWOOD,6932,WA,PER
BAYSWATER,6933,WA,PER
BASSENDEAN,6934,WA,PER
GUILDFORD,6935,WA,PER
MIDLAND DC,6936,WA,PER
TUART HILL,6937,WA,PER
TUART HILL,6938,WA,PER
TUART HILL,6939,WA,PER
TUART HILL,6940,WA,PER
MIRRABOOKA,6941,WA,PER
BASSENDEAN DC,6942,WA,PER
MORLEY,6943,WA,PER
MALAGA,6944,WA,PER
MALAGA DC,6945,WA,PER
WANNEROO,6946,WA,PER
WANGARA DC,6947,WA,PER
SOUTH PERTH,6951,WA,PER
COMO,6952,WA,PER
APPLECROSS,6953,WA,PER
BOORAGOON,6954,WA,PER
WILLETTON,6955,WA,PER
MELVILLE,6956,WA,PER
PALMYRA,6957,WA,PER
FREMANTLE,6959,WA,PER
MYAREE BC,6960,WA,PER
PALMYRA DC,6961,WA,PER
HAMILTON HILL,6963,WA,PER
SUCCESS,6964,WA,PER
BIBRA LAKE DC,6965,WA,PER
KWINANA,6966,WA,PER
ROCKINGHAM DC,6967,WA,PER
ROCKINGHAM,6968,WA,PER
ROCKINGHAM BEACH,6969,WA,PER
CANNING VALE DC,6970,WA,PER
VICTORIA PARK,6979,WA,PER
CANNINGTON,6980,WA,PER
EAST VICTORIA PARK,6981,WA,PER
BENTLEY,6982,WA,PER
BENTLEY DC,6983,WA,PER
BELMONT,6984,WA,PER
CLOVERDALE,6985,WA,PER
WELSHPOOL DC,6986,WA,PER
CANNINGTON,6987,WA,PER
THORNLIE,6988,WA,PER
MADDINGTON,6989,WA,PER
GOSNELLS,6990,WA,PER
KELMSCOTT,6991,WA,PER
ARMADALE,6992,WA,PER
KELMSCOTT DC,6997,WA,PER
GLEBE,7000,TAS,TAS
HOBART,7000,TAS,TAS
MOUNT STUART,7000,TAS,TAS
NORTH HOBART,7000,TAS,TAS
QUEENS DOMAIN,7000,TAS,TAS
WEST HOBART,7000,TAS,TAS
HOBART,7001,TAS,TAS
NORTH HOBART,7002,TAS,TAS
BATTERY POINT,7004,TAS,TAS
SOUTH HOBART,7004,TAS,TAS
DYNNYRNE,7005,TAS,TAS
LOWER SANDY BAY,7005,TAS,TAS
SANDY BAY,7005,TAS,TAS
UNIVERSITY OF TASMANIA,7005,TAS,TAS
SANDY BAY,7006,TAS,TAS
MOUNT NELSON,7007,TAS,TAS
TOLMANS HILL,7007,TAS,TAS
CORNELIAN BAY,7008,TAS,TAS
LENAH VALLEY,7008,TAS,TAS
NEW TOWN,7008,TAS,TAS
DERWENT PARK,7009,TAS,TAS
LUTANA,7009,TAS,TAS
MOONAH,7009,TAS,TAS
WEST MOONAH,7009,TAS,TAS
DOWSING POINT,7010,TAS,TAS
ELWICK,7010,TAS,TAS
GLENORCHY,7010,TAS,TAS
GOODWOOD,7010,TAS,TAS
MONTROSE,7010,TAS,TAS
ROSETTA,7010,TAS,TAS
AUSTINS FERRY,7011,TAS,TAS
BERRIEDALE,7011,TAS,TAS
CHIGWELL,7011,TAS,TAS
CLAREMONT,7011,TAS,TAS
FLAGSTAFF GULLY,7015,TAS,TAS
GEILSTON BAY,7015,TAS,TAS
LINDISFARNE,7015,TAS,TAS
ROSE BAY,7015,TAS,TAS
RISDON VALE,7016,TAS,TAS
HONEYWOOD,7017,TAS,TAS
OLD BEACH,7017,TAS,TAS
OTAGO,7017,TAS,TAS
RISDON,7017,TAS,TAS
BELLERIVE,7018,TAS,TAS
HOWRAH,7018,TAS,TAS
MONTAGU BAY,7018,TAS,TAS
MORNINGTON,7018,TAS,TAS
ROSNY,7018,TAS,TAS
ROSNY PARK,7018,TAS,TAS
TRANMERE,7018,TAS,TAS
WARRANE,7018,TAS,TAS
CLARENDON VALE,7019,TAS,TAS
OAKDOWNS,7019,TAS,TAS
ROKEBY,7019,TAS,TAS
LAUDERDALE,7021,TAS,TAS
RICHMOND,7025,TAS,TAS
BRIDGEWATER,7030,TAS,TAS
BRIGHTON,7030,TAS,TAS
GAGEBROOK,7030,TAS,TAS
GRANTON,7030,TAS,TAS
ALBION HEIGHTS,7050,TAS,TAS
KINGSTON,7050,TAS,TAS
KINGSTON BEACH,7050,TAS,TAS
KINGSTON,7051,TAS,TAS
BLACKMANS BAY,7052,TAS,TAS
BONNET HILL,7053,TAS,TAS
TAROONA,7053,TAS,TAS
HOWDEN,7054,TAS,TAS
MARGATE,7054,TAS,TAS
HUNTINGFIELD,7055,TAS,TAS
HUONVILLE,7109,TAS,TAS
NEW NORFOLK,7140,TAS,TAS
ACTON PARK,7170,TAS,TAS
CAMBRIDGE,7170,TAS,TAS
MOUNT RUMNEY,7170,TAS,TAS
ROCHES BEACH,7170,TAS,TAS
SEVEN MILE BEACH,7170,TAS,TAS
MIDWAY POINT,7171,TAS,TAS
PENNA,7171,TAS,TAS
SORELL,7172,TAS,TAS
EVANDALE,7212,TAS,LAU
WESTERN JUNCTION,7212,TAS,LAU
ALANVALE,7248,TAS,LAU
INVERESK,7248,TAS,LAU
INVERMAY,7248,TAS,LAU
MAYFIELD,7248,TAS,LAU
MOWBRAY,7248,TAS,LAU
MOWBRAY HEIGHTS,7248,TAS,LAU
NEWNHAM,7248,TAS,LAU
ROCHERLEA,7248,TAS,LAU
GLEN DHU,7249,TAS,LAU
KINGS MEADOWS,7249,TAS,LAU
PUNCHBOWL,7249,TAS,LAU
SANDHILL,7249,TAS,LAU
SOUTH LAUNCESTON,7249,TAS,LAU
YOUNGTOWN,7249,TAS,LAU
BLACKSTONE HEIGHTS,7250,TAS,LAU
EAST LAUNCESTON,7250,TAS,LAU
ELPHIN,7250,TAS,LAU
LAUNCESTON,7250,TAS,LAU
NEWSTEAD,7250,TAS,LAU
NORWOOD,7250,TAS,LAU
PROSPECT,7250,TAS,LAU
PROSPECT VALE,7250,TAS,LAU
RAVENSWOOD,7250,TAS,LAU
RIVERSIDE,7250,TAS,LAU
ST LEONARDS,7250,TAS,LAU
SUMMERHILL,7250,TAS,LAU
TRAVELLERS REST,7250,TAS,LAU
TREVALLYN,7250,TAS,LAU
WAVERLEY,7250,TAS,LAU
WEST LAUNCESTON,7250,TAS,LAU
DILSTON,7252,TAS,LAU
HILLWOOD,7252,TAS,LAU
WINDERMERE,7252,TAS,LAU
BELL BAY,7253,TAS,LAU
GEORGE TOWN,7253,TAS,LAU
LONG REACH,7253,TAS,LAU
LOW HEAD,7253,TAS,LAU
BREADALBANE,7258,TAS,LAU
SCOTTSDALE,7260,TAS,LAU
BRIDPORT,7262,TAS,LAU
BEACONSFIELD,7270,TAS,LAU
BEAUTY POINT,7270,TAS,LAU
ILFRAVILLE,7270,TAS,LAU
SIDMOUTH,7270,TAS,LAU
EXETER,7275,TAS,LAU
LANENA,7275,TAS,LAU
LOIRA,7275,TAS,LAU
GRAVELLY BEACH,7276,TAS,LAU
GRINDELWALD,7277,TAS,LAU
LEGANA,7277,TAS,LAU
ROSEVEARS,7277,TAS,LAU
HADSPEN,7290,TAS,LAU
CARRICK,7291,TAS,LAU
HAGLEY,7292,TAS,LAU
DEVON HILLS,7300,TAS,LAU
PERTH,7300,TAS,LAU
LONGFORD,7301,TAS,LAU
EXTON,7303,TAS,LAU
WESTBURY,7303,TAS,LAU
DELORAINE,7304,TAS,LAU
ELIZABETH TOWN,7304,TAS,LAU
LATROBE,7307,TAS,DPO
AMBLESIDE,7310,TAS,DPO
DEVONPORT,7310,TAS,DPO
DON,7310,TAS,DPO
EAST DEVONPORT,7310,TAS,DPO
MIANDETTA,7310,TAS,DPO
QUOIBA,7310,TAS,DPO
SPREYTON,7310,TAS,DPO
STONY RISE,7310,TAS,DPO
WEST DEVONPORT,7310,TAS,DPO
LEITH,7315,TAS,DPO
TURNERS BEACH,7315,TAS,DPO
ULVERSTONE,7315,TAS,DPO
WEST ULVERSTONE,7315,TAS,DPO
HEYBRIDGE,7316,TAS,DPO
PENGUIN,7316,TAS,DPO
PRESERVATION BAY,7316,TAS,DPO
SULPHUR CREEK,7316,TAS,DPO
ACTON,7320,TAS,DPO
BROOKLYN,7320,TAS,DPO
BURNIE,7320,TAS,DPO
CAMDALE,7320,TAS,DPO
COOEE,7320,TAS,DPO
DOWNLANDS,7320,TAS,DPO
EMU HEIGHTS,7320,TAS,DPO
HAVENVIEW,7320,TAS,DPO
HILLCREST,7320,TAS,DPO
MONTELLO,7320,TAS,DPO
OCEAN VISTA,7320,TAS,DPO
PARK GROVE,7320,TAS,DPO
PARKLANDS,7320,TAS,DPO
ROMAINE,7320,TAS,DPO
ROUND HILL,7320,TAS,DPO
SHOREWELL PARK,7320,TAS,DPO
SOUTH BURNIE,7320,TAS,DPO
UPPER BURNIE,7320,TAS,DPO
WIVENHOE,7320,TAS,DPO
SOMERSET,7322,TAS,DPO
DOCTORS ROCKS,7325,TAS,DPO
WYNYARD,7325,TAS,DPO
LAUNCESTON,7901,TAS,LAU
LAUNCESTON,7902,TAS,LAU
LAUNCESTON,7903,TAS,LAU
LAUNCESTON,7904,TAS,LAU
LAUNCESTON,7905,TAS,LAU
LAUNCESTON,7906,TAS,LAU
LAUNCESTON,7907,TAS,LAU
LAUNCESTON,7908,TAS,LAU
LAUNCESTON,7909,TAS,LAU
