SUBURB,POSTCODE,ComCat,Region
ABBOTSBURY,2176,ABBOTSBURY2176,SYD
ABBOTSFORD,2046,ABBOTSFORD2046,SYD
ACACIA GARDENS,2763,ACACIA GARDENS2763,SYD
AGNES BANKS,2753,AGNES BANKS2753,SYD
AIRDS,2560,AIRDS2560,SYD
AKUNA BAY,2084,AKUNA BAY2084,SYD
ALEXANDRIA,2015,ALEXANDRIA2015,SYD
ALEXANDRIA MC,2004,ALEXANDRIA MC2004,SYD
ALFORDS POINT,2234,ALFORDS POINT2234,SYD
ALLAMBIE,2100,ALLAMBIE2100,SYD
ALLAMBIE HEIGHTS,2100,ALLAMBIE HEIGHTS2100,SYD
ALLAWAH,2218,ALLAWAH2218,SYD
AMBARVALE,2560,AMBARVALE2560,SYD
ANGUS,2765,ANGUS2765,SYD
ANNANDALE,2038,ANNANDALE2038,SYD
ANNANGROVE,2156,ANNANGROVE2156,SYD
ARCADIA,2159,ARCADIA2159,SYD
ARNCLIFFE,2205,ARNCLIFFE2205,SYD
ARNDELL PARK,2148,ARNDELL PARK2148,SYD
ARTARMON,2064,ARTARMON2064,SYD
ASHBURY,2193,ASHBURY2193,SYD
ASHCROFT,2168,ASHCROFT2168,SYD
ASHFIELD,2131,ASHFIELD2131,SYD
ASQUITH,2077,ASQUITH2077,SYD
AUBURN,2144,AUBURN2144,SYD
AUBURN SOUTH,2144,AUBURN SOUTH2144,SYD
AUSTRAL,2179,AUSTRAL2179,SYD
AVALON,2107,AVALON2107,SYD
AVALON BEACH,2107,AVALON BEACH2107,SYD
BADGERYS CREEK,2555,BADGERYS CREEK2555,SYD
BALGOWLAH,2093,BALGOWLAH2093,SYD
BALGOWLAH HEIGHTS,2093,BALGOWLAH HEIGHTS2093,SYD
BALMAIN,2041,BALMAIN2041,SYD
BALMAIN EAST,2041,BALMAIN EAST2041,SYD
BANGOR,2234,BANGOR2234,SYD
BANKSIA,2216,BANKSIA2216,SYD
BANKSMEADOW,2019,BANKSMEADOW2019,SYD
BANKSTOWN,2200,BANKSTOWN2200,SYD
BANKSTOWN AERODROME,2200,BANKSTOWN AERODROME2200,SYD
BANKSTOWN AIRPORT,2200,BANKSTOWN AIRPORT2200,SYD
BANKSTOWN NORTH,2200,BANKSTOWN NORTH2200,SYD
BANKSTOWN SQUARE,2200,BANKSTOWN SQUARE2200,SYD
BARANGAROO,2000,BARANGAROO2000,SYD
BARDEN RIDGE,2234,BARDEN RIDGE2234,SYD
BARDIA,2565,BARDIA2565,SYD
BARDWELL PARK,2207,BARDWELL PARK2207,SYD
BARDWELL VALLEY,2207,BARDWELL VALLEY2207,SYD
BASS HILL,2197,BASS HILL2197,SYD
BAULKHAM HILLS,2153,BAULKHAM HILLS2153,SYD
BAYVIEW,2104,BAYVIEW2104,SYD
BEACON HILL,2100,BEACON HILL2100,SYD
BEACONSFIELD,2015,BEACONSFIELD2015,SYD
BEAUMONT HILLS,2155,BEAUMONT HILLS2155,SYD
BEECROFT,2119,BEECROFT2119,SYD
BELFIELD,2190,BELFIELD2190,SYD
BELFIELD,2191,BELFIELD2191,SYD
BELLA VISTA,2153,BELLA VISTA2153,SYD
BELLEVUE HILL,2023,BELLEVUE HILL2023,SYD
BELMORE,2192,BELMORE2192,SYD
BELROSE,2085,BELROSE2085,SYD
BELROSE WEST,2085,BELROSE WEST2085,SYD
BEN BUCKLER,2026,BEN BUCKLER2026,SYD
BERALA,2141,BERALA2141,SYD
BERKSHIRE PARK,2765,BERKSHIRE PARK2765,SYD
BEROWRA,2081,BEROWRA2081,SYD
BEROWRA HEIGHTS,2082,BEROWRA HEIGHTS2082,SYD
BERRILEE,2159,BERRILEE2159,SYD
BEVERLEY PARK,2217,BEVERLEY PARK2217,SYD
BEVERLY HILLS,2209,BEVERLY HILLS2209,SYD
BEXLEY,2207,BEXLEY2207,SYD
BEXLEY NORTH,2207,BEXLEY NORTH2207,SYD
BEXLEY SOUTH,2207,BEXLEY SOUTH2207,SYD
BIDWILL,2770,BIDWILL2770,SYD
BILGOLA,2107,BILGOLA2107,SYD
BILGOLA BEACH,2107,BILGOLA BEACH2107,SYD
BILGOLA PLATEAU,2107,BILGOLA PLATEAU2107,SYD
BIRCHGROVE,2041,BIRCHGROVE2041,SYD
BIRRONG,2143,BIRRONG2143,SYD
BLACKETT,2770,BLACKETT2770,SYD
BLACKTOWN,2148,BLACKTOWN2148,SYD
BLACKTOWN WESTPOINT,2148,BLACKTOWN WESTPOINT2148,SYD
BLAIR ATHOL,2560,BLAIR ATHOL2560,SYD
BLAIRMOUNT,2559,BLAIRMOUNT2559,SYD
BLAKEHURST,2221,BLAKEHURST2221,SYD
BLAXCELL,2142,BLAXCELL2142,SYD
BLENHEIM ROAD,2113,BLENHEIM ROAD2113,SYD
BLIGH PARK,2756,BLIGH PARK2756,SYD
BONDI,2026,BONDI2026,SYD
BONDI BEACH,2026,BONDI BEACH2026,SYD
BONDI JUNCTION,2022,BONDI JUNCTION2022,SYD
BONDI JUNCTION PLAZA,2022,BONDI JUNCTION PLAZA2022,SYD
BONNET BAY,2226,BONNET BAY2226,SYD
BONNYRIGG,2177,BONNYRIGG2177,SYD
BONNYRIGG HEIGHTS,2177,BONNYRIGG HEIGHTS2177,SYD
BORONIA PARK,2111,BORONIA PARK2111,SYD
BOSSLEY PARK,2176,BOSSLEY PARK2176,SYD
BOTANY,2019,BOTANY2019,SYD
BOW BOWING,2566,BOW BOWING2566,SYD
BOX HILL,2765,BOX HILL2765,SYD
BRADBURY,2560,BRADBURY2560,SYD
BRADFIELD,2556,BRADFIELD2556,SYD
BREAKFAST POINT,2137,BREAKFAST POINT2137,SYD
BRIGHTON LE SANDS,2216,BRIGHTON LE SANDS2216,SYD
BRIGHTON-LE-SANDS,2216,BRIGHTON-LE-SANDS2216,SYD
BRINGELLY,2556,BRINGELLY2556,SYD
BROADWAY,2007,BROADWAY2007,SYD
BRONTE,2024,BRONTE2024,SYD
BROOKVALE,2100,BROOKVALE2100,SYD
BUNGARRIBEE,2767,BUNGARRIBEE2767,SYD
BURRANEER,2230,BURRANEER2230,SYD
BURWOOD,2134,BURWOOD2134,SYD
BURWOOD HEIGHTS,2136,BURWOOD HEIGHTS2136,SYD
BURWOOD NORTH,2134,BURWOOD NORTH2134,SYD
BUSBY,2168,BUSBY2168,SYD
CABARITA,2137,CABARITA2137,SYD
CABRAMATTA,2166,CABRAMATTA2166,SYD
CABRAMATTA WEST,2166,CABRAMATTA WEST2166,SYD
CADDENS,2747,CADDENS2747,SYD
CAMBRIDGE GARDENS,2747,CAMBRIDGE GARDENS2747,SYD
CAMBRIDGE PARK,2747,CAMBRIDGE PARK2747,SYD
CAMDEN,2570,CAMDEN2570,SYD
CAMDEN PARK,2570,CAMDEN PARK2570,SYD
CAMDEN SOUTH,2570,CAMDEN SOUTH2570,SYD
CAMELLIA,2142,CAMELLIA2142,SYD
CAMMERAY,2062,CAMMERAY2062,SYD
CAMPBELLTOWN,2560,CAMPBELLTOWN2560,SYD
CAMPBELLTOWN NORTH,2560,CAMPBELLTOWN NORTH2560,SYD
CAMPERDOWN,2050,CAMPERDOWN2050,SYD
CAMPSIE,2194,CAMPSIE2194,SYD
CANADA BAY,2046,CANADA BAY2046,SYD
CANLEY HEIGHTS,2166,CANLEY HEIGHTS2166,SYD
CANLEY VALE,2166,CANLEY VALE2166,SYD
CANTERBURY,2193,CANTERBURY2193,SYD
CARAVAN HEAD,2225,CARAVAN HEAD2225,SYD
CAREEL BAY,2107,CAREEL BAY2107,SYD
CARINGBAH,2229,CARINGBAH2229,SYD
CARINGBAH SOUTH,2229,CARINGBAH SOUTH2229,SYD
CARLINGFORD,2118,CARLINGFORD2118,SYD
CARLINGFORD COURT,2118,CARLINGFORD COURT2118,SYD
CARLINGFORD NORTH,2118,CARLINGFORD NORTH2118,SYD
CARLTON,2218,CARLTON2218,SYD
CARNES HILL,2171,CARNES HILL2171,SYD
CARRAMAR,2163,CARRAMAR2163,SYD
CARSS PARK,2221,CARSS PARK2221,SYD
CARTWRIGHT,2168,CARTWRIGHT2168,SYD
CASTLE COVE,2069,CASTLE COVE2069,SYD
CASTLE HILL,2154,CASTLE HILL2154,SYD
CASTLECRAG,2068,CASTLECRAG2068,SYD
CASTLEREAGH,2749,CASTLEREAGH2749,SYD
CASULA,2170,CASULA2170,SYD
CASULA MALL,2170,CASULA MALL2170,SYD
CATHERINE FIELD,2557,CATHERINE FIELD2557,SYD
CECIL HILLS,2171,CECIL HILLS2171,SYD
CECIL PARK,2178,CECIL PARK2178,SYD
CENTENNIAL PARK,2021,CENTENNIAL PARK2021,SYD
CHARING CROSS,2024,CHARING CROSS2024,SYD
CHATSWOOD,2057,CHATSWOOD2057,SYD
CHATSWOOD,2067,CHATSWOOD2067,SYD
CHATSWOOD WEST,2067,CHATSWOOD WEST2067,SYD
CHELTENHAM,2119,CHELTENHAM2119,SYD
CHERRYBROOK,2126,CHERRYBROOK2126,SYD
CHESTER HILL,2162,CHESTER HILL2162,SYD
CHIFLEY,2036,CHIFLEY2036,SYD
CHIPPENDALE,2008,CHIPPENDALE2008,SYD
CHIPPING NORTON,2170,CHIPPING NORTON2170,SYD
CHISWICK,2046,CHISWICK2046,SYD
CHULLORA,2190,CHULLORA2190,SYD
CHURCH POINT,2105,CHURCH POINT2105,SYD
CLAREMONT MEADOWS,2747,CLAREMONT MEADOWS2747,SYD
CLARENDON,2756,CLARENDON2756,SYD
CLAREVILLE,2107,CLAREVILLE2107,SYD
CLAYMORE,2559,CLAYMORE2559,SYD
CLEMTON PARK,2206,CLEMTON PARK2206,SYD
CLONTARF,2093,CLONTARF2093,SYD
CLOVELLY,2031,CLOVELLY2031,SYD
CLOVELLY WEST,2031,CLOVELLY WEST2031,SYD
CLYDE,2142,CLYDE2142,SYD
COBBITTY,2570,COBBITTY2570,SYD
COLEBEE,2761,COLEBEE2761,SYD
COLLAROY,2097,COLLAROY2097,SYD
COLLAROY BEACH,2097,COLLAROY BEACH2097,SYD
COLLAROY PLATEAU,2097,COLLAROY PLATEAU2097,SYD
COLLAROY PLATEAU WEST,2097,COLLAROY PLATEAU WEST2097,SYD
COLYTON,2760,COLYTON2760,SYD
COMO,2226,COMO2226,SYD
CONCORD,2137,CONCORD2137,SYD
CONCORD REPATRIATION HOSPITAL,2139,CONCORD REPATRIATION HOSPITAL2139,SYD
CONCORD WEST,2138,CONCORD WEST2138,SYD
CONDELL PARK,2200,CONDELL PARK2200,SYD
CONNELLS POINT,2221,CONNELLS POINT2221,SYD
CONSTITUTION HILL,2145,CONSTITUTION HILL2145,SYD
COOGEE,2034,COOGEE2034,SYD
CRANEBROOK,2749,CRANEBROOK2749,SYD
CREMORNE,2090,CREMORNE2090,SYD
CREMORNE JUNCTION,2090,CREMORNE JUNCTION2090,SYD
CREMORNE POINT,2090,CREMORNE POINT2090,SYD
CRESTWOOD,2153,CRESTWOOD2153,SYD
CROMER,2099,CROMER2099,SYD
CROMER HEIGHTS,2099,CROMER HEIGHTS2099,SYD
CRONULLA,2230,CRONULLA2230,SYD
CROWS NEST,2065,CROWS NEST2065,SYD
CROYDON,2132,CROYDON2132,SYD
CROYDON PARK,2133,CROYDON PARK2133,SYD
CURL CURL,2096,CURL CURL2096,SYD
CURRANS HILL,2567,CURRANS HILL2567,SYD
DACEYVILLE,2032,DACEYVILLE2032,SYD
DARLING HARBOUR,2000,DARLING HARBOUR2000,SYD
DARLING ISLAND,2009,DARLING ISLAND2009,SYD
DARLING POINT,2027,DARLING POINT2027,SYD
DARLINGHURST,2010,DARLINGHURST2010,SYD
DARLINGTON,2008,DARLINGTON2008,SYD
DAVIDSON,2085,DAVIDSON2085,SYD
DAWES POINT,2000,DAWES POINT2000,SYD
DEAN PARK,2761,DEAN PARK2761,SYD
DEE WHY,2099,DEE WHY2099,SYD
DEE WHY BEACH,2099,DEE WHY BEACH2099,SYD
DENHAM COURT,2565,DENHAM COURT2565,SYD
DENISTONE,2114,DENISTONE2114,SYD
DENISTONE EAST,2112,DENISTONE EAST2112,SYD
DENISTONE WEST,2114,DENISTONE WEST2114,SYD
DHARRUK,2770,DHARRUK2770,SYD
DIAMOND BAY,2030,DIAMOND BAY2030,SYD
DOLANS BAY,2229,DOLANS BAY2229,SYD
DOLLS POINT,2219,DOLLS POINT2219,SYD
DOONSIDE,2767,DOONSIDE2767,SYD
DOUBLE BAY,2028,DOUBLE BAY2028,SYD
DOVER HEIGHTS,2030,DOVER HEIGHTS2030,SYD
DRUMMOYNE,2047,DRUMMOYNE2047,SYD
DUFFYS FOREST,2084,DUFFYS FOREST2084,SYD
DULWICH HILL,2203,DULWICH HILL2203,SYD
DUNDAS,2117,DUNDAS2117,SYD
DUNDAS VALLEY,2117,DUNDAS VALLEY2117,SYD
DURAL,2158,DURAL2158,SYD
EAGLE VALE,2558,EAGLE VALE2558,SYD
EARLWOOD,2206,EARLWOOD2206,SYD
EAST HILLS,2213,EAST HILLS2213,SYD
EAST KILLARA,2071,EAST KILLARA2071,SYD
EAST LINDFIELD,2070,EAST LINDFIELD2070,SYD
EAST RYDE,2113,EAST RYDE2113,SYD
EASTERN CREEK,2766,EASTERN CREEK2766,SYD
EASTERN SUBURBS MC,2004,EASTERN SUBURBS MC2004,SYD
EASTGARDENS,2036,EASTGARDENS2036,SYD
EASTLAKES,2018,EASTLAKES2018,SYD
EASTWOOD,2122,EASTWOOD2122,SYD
EDENSOR PARK,2176,EDENSOR PARK2176,SYD
EDGECLIFF,2027,EDGECLIFF2027,SYD
EDMONDSON PARK,2174,EDMONDSON PARK2174,SYD
ELANORA HEIGHTS,2101,ELANORA HEIGHTS2101,SYD
ELDERSLIE,2570,ELDERSLIE2570,SYD
ELIZABETH BAY,2011,ELIZABETH BAY2011,SYD
ELIZABETH HILLS,2171,ELIZABETH HILLS2171,SYD
EMERTON,2770,EMERTON2770,SYD
EMU HEIGHTS,2750,EMU HEIGHTS2750,SYD
EMU PLAINS,2750,EMU PLAINS2750,SYD
ENFIELD,2136,ENFIELD2136,SYD
ENFIELD SOUTH,2133,ENFIELD SOUTH2133,SYD
ENGADINE,2233,ENGADINE2233,SYD
ENGLORIE PARK,2560,ENGLORIE PARK2560,SYD
ENMORE,2042,ENMORE2042,SYD
EPPING,2121,EPPING2121,SYD
ERMINGTON,2115,ERMINGTON2115,SYD
ERSKINE PARK,2759,ERSKINE PARK2759,SYD
ERSKINEVILLE,2043,ERSKINEVILLE2043,SYD
ESCHOL PARK,2558,ESCHOL PARK2558,SYD
EVELEIGH,2015,EVELEIGH2015,SYD
FAIRFIELD,2165,FAIRFIELD2165,SYD
FAIRFIELD EAST,2165,FAIRFIELD EAST2165,SYD
FAIRFIELD HEIGHTS,2165,FAIRFIELD HEIGHTS2165,SYD
FAIRFIELD WEST,2165,FAIRFIELD WEST2165,SYD
FAIRLIGHT,2094,FAIRLIGHT2094,SYD
FIDDLETOWN,2159,FIDDLETOWN2159,SYD
FIVE DOCK,2046,FIVE DOCK2046,SYD
FOREST LODGE,2037,FOREST LODGE2037,SYD
FORESTVILLE,2087,FORESTVILLE2087,SYD
FRENCHS FOREST,2086,FRENCHS FOREST2086,SYD
FRENCHS FOREST EAST,2086,FRENCHS FOREST EAST2086,SYD
FRESHWATER,2096,FRESHWATER2096,SYD
GABLES,2765,GABLES2765,SYD
GALSTON,2159,GALSTON2159,SYD
GEORGES HALL,2198,GEORGES HALL2198,SYD
GIRRAWEEN,2145,GIRRAWEEN2145,SYD
GLADESVILLE,2111,GLADESVILLE2111,SYD
GLEBE,2037,GLEBE2037,SYD
GLEDSWOOD HILL,2557,GLEDSWOOD HILL2557,SYD
GLEDSWOOD HILLS,2557,GLEDSWOOD HILLS2557,SYD
GLEN ALPINE,2560,GLEN ALPINE2560,SYD
GLENDENNING,2761,GLENDENNING2761,SYD
GLENDENNING DC,2761,GLENDENNING DC2761,SYD
GLENFIELD,2167,GLENFIELD2167,SYD
GLENHAVEN,2156,GLENHAVEN2156,SYD
GLENMORE PARK,2745,GLENMORE PARK2745,SYD
GLENORIE,2157,GLENORIE2157,SYD
GLENQUARIE,2564,GLENQUARIE2564,SYD
GLENWOOD,2768,GLENWOOD2768,SYD
GOLDEN GROVE,2008,GOLDEN GROVE2008,SYD
GORDON,2072,GORDON2072,SYD
GORE HILL,2065,GORE HILL2065,SYD
GRANTHAM FARM,2765,GRANTHAM FARM2765,SYD
GRANVILLE,2142,GRANVILLE2142,SYD
GRAYS POINT,2232,GRAYS POINT2232,SYD
GREEN VALLEY,2168,GREEN VALLEY2168,SYD
GREENACRE,2190,GREENACRE2190,SYD
GREENFIELD PARK,2176,GREENFIELD PARK2176,SYD
GREENHILLS BEACH,2230,GREENHILLS BEACH2230,SYD
GREENWICH,2065,GREENWICH2065,SYD
GREGORY HILLS,2557,GREGORY HILLS2557,SYD
GREYSTANES,2145,GREYSTANES2145,SYD
GUILDFORD,2161,GUILDFORD2161,SYD
GUILDFORD WEST,2161,GUILDFORD WEST2161,SYD
GYMEA,2227,GYMEA2227,SYD
GYMEA BAY,2227,GYMEA BAY2227,SYD
HABERFIELD,2045,HABERFIELD2045,SYD
HAMMONDVILLE,2170,HAMMONDVILLE2170,SYD
HARBORD,2096,HARBORD2096,SYD
HARRINGTON PARK,2567,HARRINGTON PARK2567,SYD
HARRIS PARK,2150,HARRIS PARK2150,SYD
HASSALL GROVE,2761,HASSALL GROVE2761,SYD
HAYMARKET,2000,HAYMARKET2000,SYD
HEATHCOTE,2233,HEATHCOTE2233,SYD
HEBERSHAM,2770,HEBERSHAM2770,SYD
HECKENBERG,2168,HECKENBERG2168,SYD
HENLEY,2111,HENLEY2111,SYD
HILLSDALE,2036,HILLSDALE2036,SYD
HILLSIDE,2157,HILLSIDE2157,SYD
HINCHINBROOK,2168,HINCHINBROOK2168,SYD
HMAS KUTTABUL,2011,HMAS KUTTABUL2011,SYD
HMAS PENGUIN,2091,HMAS PENGUIN2091,SYD
HMAS PLATYPUS,2060,HMAS PLATYPUS2060,SYD
HMAS RUSHCUTTERS,2027,HMAS RUSHCUTTERS2027,SYD
HMAS WATERHEN,2060,HMAS WATERHEN2060,SYD
HMAS WATSON,2030,HMAS WATSON2030,SYD
HOBARTVILLE,2753,HOBARTVILLE2753,SYD
HOLROYD,2142,HOLROYD2142,SYD
HOLSWORTHY,2173,HOLSWORTHY2173,SYD
HOMEBUSH,2140,HOMEBUSH2140,SYD
HOMEBUSH BAY,2127,HOMEBUSH BAY2127,SYD
HOMEBUSH SOUTH,2140,HOMEBUSH SOUTH2140,SYD
HOMEBUSH WEST,2140,HOMEBUSH WEST2140,SYD
HORNINGSEA PARK,2171,HORNINGSEA PARK2171,SYD
HORNSBY,2077,HORNSBY2077,SYD
HORNSBY HEIGHTS,2077,HORNSBY HEIGHTS2077,SYD
HORSLEY PARK,2175,HORSLEY PARK2175,SYD
HOXTON PARK,2171,HOXTON PARK2171,SYD
HUNTERS HILL,2110,HUNTERS HILL2110,SYD
HUNTERS HILL WEST,2110,HUNTERS HILL WEST2110,SYD
HUNTINGWOOD,2148,HUNTINGWOOD2148,SYD
HUNTLEYS COVE,2111,HUNTLEYS COVE2111,SYD
HUNTLEYS POINT,2111,HUNTLEYS POINT2111,SYD
HURLSTONE PARK,2193,HURLSTONE PARK2193,SYD
HURSTVILLE,2220,HURSTVILLE2220,SYD
HURSTVILLE GROVE,2220,HURSTVILLE GROVE2220,SYD
HURSTVILLE WESTFIELD,2220,HURSTVILLE WESTFIELD2220,SYD
ILLAWONG,2234,ILLAWONG2234,SYD
INGLEBURN,2565,INGLEBURN2565,SYD
INGLEBURN MILPO,2174,INGLEBURN MILPO2174,SYD
INGLESIDE,2101,INGLESIDE2101,SYD
JAMISONTOWN,2750,JAMISONTOWN2750,SYD
JANNALI,2226,JANNALI2226,SYD
JORDAN SPRINGS,2747,JORDAN SPRINGS2747,SYD
KANGAROO POINT,2224,KANGAROO POINT2224,SYD
KAREELA,2232,KAREELA2232,SYD
KEARNS,2558,KEARNS2558,SYD
KELLYVILLE,2155,KELLYVILLE2155,SYD
KELLYVILLE RIDGE,2155,KELLYVILLE RIDGE2155,SYD
KEMPS CREEK,2178,KEMPS CREEK2178,SYD
KENSINGTON,2033,KENSINGTON2033,SYD
KENTHURST,2156,KENTHURST2156,SYD
KENTLYN,2560,KENTLYN2560,SYD
KILLARA,2071,KILLARA2071,SYD
KILLARNEY HEIGHTS,2087,KILLARNEY HEIGHTS2087,SYD
KINGS CROSS,2011,KINGS CROSS2011,SYD
KINGS LANGLEY,2147,KINGS LANGLEY2147,SYD
KINGS PARK,2148,KINGS PARK2148,SYD
KINGSDENE,2118,KINGSDENE2118,SYD
KINGSFORD,2032,KINGSFORD2032,SYD
KINGSGROVE,2208,KINGSGROVE2208,SYD
KINGSWAY WEST,2208,KINGSWAY WEST2208,SYD
KINGSWOOD,2747,KINGSWOOD2747,SYD
KIRKHAM,2570,KIRKHAM2570,SYD
KIRRAWEE,2232,KIRRAWEE2232,SYD
KIRRIBILLI,2061,KIRRIBILLI2061,SYD
KOGARAH,2217,KOGARAH2217,SYD
KOGARAH BAY,2217,KOGARAH BAY2217,SYD
KURNELL,2231,KURNELL2231,SYD
KURRABA POINT,2089,KURRABA POINT2089,SYD
KYEEMAGH,2216,KYEEMAGH2216,SYD
KYLE BAY,2221,KYLE BAY2221,SYD
LA PEROUSE,2036,LA PEROUSE2036,SYD
LAKEMBA,2195,LAKEMBA2195,SYD
LALOR PARK,2147,LALOR PARK2147,SYD
LANE COVE,2066,LANE COVE2066,SYD
LANE COVE NORTH,2066,LANE COVE NORTH2066,SYD
LANE COVE WEST,2066,LANE COVE WEST2066,SYD
LANSDOWNE,2163,LANSDOWNE2163,SYD
LANSVALE,2166,LANSVALE2166,SYD
LAVENDER BAY,2060,LAVENDER BAY2060,SYD
LEICHHARDT,2040,LEICHHARDT2040,SYD
LEN WATERS ESTATE,2171,LEN WATERS ESTATE2171,SYD
LEONAY,2750,LEONAY2750,SYD
LEPPINGTON,2179,LEPPINGTON2179,SYD
LETHBRIDGE PARK,2770,LETHBRIDGE PARK2770,SYD
LEUMEAH,2560,LEUMEAH2560,SYD
LEWISHAM,2049,LEWISHAM2049,SYD
LIBERTY GROVE,2138,LIBERTY GROVE2138,SYD
LIDCOMBE,2141,LIDCOMBE2141,SYD
LIDCOMBE NORTH,2141,LIDCOMBE NORTH2141,SYD
LILLI PILLI,2229,LILLI PILLI2229,SYD
LILYFIELD,2040,LILYFIELD2040,SYD
LINDFIELD,2070,LINDFIELD2070,SYD
LINDFIELD WEST,2070,LINDFIELD WEST2070,SYD
LINLEY POINT,2066,LINLEY POINT2066,SYD
LITTLE BAY,2036,LITTLE BAY2036,SYD
LIVERPOOL,2170,LIVERPOOL2170,SYD
LIVERPOOL SOUTH,2170,LIVERPOOL SOUTH2170,SYD
LIVERPOOL WESTFIELD,2170,LIVERPOOL WESTFIELD2170,SYD
LLANDILO,2747,LLANDILO2747,SYD
LOFTUS,2232,LOFTUS2232,SYD
LONDONDERRY,2753,LONDONDERRY2753,SYD
LONG POINT,2564,LONG POINT2564,SYD
LONG REEF,2097,LONG REEF2097,SYD
LONGUEVILLE,2066,LONGUEVILLE2066,SYD
LUCAS HEIGHTS,2234,LUCAS HEIGHTS2234,SYD
LUDDENHAM,2745,LUDDENHAM2745,SYD
LUGARNO,2210,LUGARNO2210,SYD
LURNEA,2170,LURNEA2170,SYD
MACARTHUR SQUARE,2560,MACARTHUR SQUARE2560,SYD
MACQUARIE CENTRE,2113,MACQUARIE CENTRE2113,SYD
MACQUARIE FIELDS,2564,MACQUARIE FIELDS2564,SYD
MACQUARIE LINKS,2565,MACQUARIE LINKS2565,SYD
MACQUARIE PARK,2113,MACQUARIE PARK2113,SYD
MACQUARIE UNIVERSITY,2109,MACQUARIE UNIVERSITY2109,SYD
MALABAR,2036,MALABAR2036,SYD
MANAHAN,2200,MANAHAN2200,SYD
MANLY,2095,MANLY2095,SYD
MANLY EAST,2095,MANLY EAST2095,SYD
MANLY VALE,2093,MANLY VALE2093,SYD
MARAYONG,2148,MARAYONG2148,SYD
MAROUBRA,2035,MAROUBRA2035,SYD
MAROUBRA SOUTH,2035,MAROUBRA SOUTH2035,SYD
MARRICKVILLE,2204,MARRICKVILLE2204,SYD
MARRICKVILLE METRO,2204,MARRICKVILLE METRO2204,SYD
MARRICKVILLE SOUTH,2204,MARRICKVILLE SOUTH2204,SYD
MARSDEN PARK,2765,MARSDEN PARK2765,SYD
MARSFIELD,2122,MARSFIELD2122,SYD
MASCOT,2020,MASCOT2020,SYD
MATRAVILLE,2036,MATRAVILLE2036,SYD
MAYS HILL,2145,MAYS HILL2145,SYD
MCGRATHS HILL,2756,MCGRATHS HILL2756,SYD
MCMAHONS POINT,2060,MCMAHONS POINT2060,SYD
MEADOWBANK,2114,MEADOWBANK2114,SYD
MEDLOW BATH,2780,MEDLOW BATH2780,SYD
MELONBA,2765,MELONBA2765,SYD
MELROSE PARK,2114,MELROSE PARK2114,SYD
MENAI,2234,MENAI2234,SYD
MENAI CENTRAL,2234,MENAI CENTRAL2234,SYD
MERRYLANDS,2160,MERRYLANDS2160,SYD
MERRYLANDS WEST,2160,MERRYLANDS WEST2160,SYD
MIDDLE COVE,2068,MIDDLE COVE2068,SYD
MIDDLE DURAL,2158,MIDDLE DURAL2158,SYD
MIDDLETON GRANGE,2171,MIDDLETON GRANGE2171,SYD
MILLER,2168,MILLER2168,SYD
MILLERS POINT,2000,MILLERS POINT2000,SYD
MILPERRA,2214,MILPERRA2214,SYD
MILSONS POINT,2061,MILSONS POINT2061,SYD
MINCHINBURY,2770,MINCHINBURY2770,SYD
MINTO,2566,MINTO2566,SYD
MINTO DC,2566,MINTO DC2566,SYD
MINTO HEIGHTS,2566,MINTO HEIGHTS2566,SYD
MIRANDA,2228,MIRANDA2228,SYD
MISSENDEN ROAD,2050,MISSENDEN ROAD2050,SYD
MONA VALE,2103,MONA VALE2103,SYD
MONASH PARK,2111,MONASH PARK2111,SYD
MONTEREY,2217,MONTEREY2217,SYD
MOORE PARK,2021,MOORE PARK2021,SYD
MOOREBANK,2170,MOOREBANK2170,SYD
MORTDALE,2223,MORTDALE2223,SYD
MORTLAKE,2137,MORTLAKE2137,SYD
MOSMAN,2088,MOSMAN2088,SYD
MOUNT ANNAN,2567,MOUNT ANNAN2567,SYD
MOUNT COLAH,2079,MOUNT COLAH2079,SYD
MOUNT DRUITT,2770,MOUNT DRUITT2770,SYD
MOUNT DRUITT VILLAGE,2770,MOUNT DRUITT VILLAGE2770,SYD
MOUNT KURING-GAI,2080,MOUNT KURING-GAI2080,SYD
MOUNT LEWIS,2190,MOUNT LEWIS2190,SYD
MOUNT LEWIS,2200,MOUNT LEWIS2200,SYD
MOUNT PRITCHARD,2170,MOUNT PRITCHARD2170,SYD
MOUNT VERNON,2178,MOUNT VERNON2178,SYD
MOUNT VICTORIA,2786,MOUNT VICTORIA2786,SYD
MULGRAVE,2756,MULGRAVE2756,SYD
NARELLAN,2567,NARELLAN2567,SYD
NARELLAN VALE,2567,NARELLAN VALE2567,SYD
NAREMBURN,2065,NAREMBURN2065,SYD
NARRABEEN,2101,NARRABEEN2101,SYD
NARRABEEN PENINSULA,2101,NARRABEEN PENINSULA2101,SYD
NARRAWEENA,2099,NARRAWEENA2099,SYD
NARWEE,2209,NARWEE2209,SYD
NELSON,2765,NELSON2765,SYD
NEUTRAL BAY,2089,NEUTRAL BAY2089,SYD
NEUTRAL BAY JUNCTION,2089,NEUTRAL BAY JUNCTION2089,SYD
NEWINGTON,2127,NEWINGTON2127,SYD
NEWPORT,2106,NEWPORT2106,SYD
NEWPORT BEACH,2106,NEWPORT BEACH2106,SYD
NEWTOWN,2042,NEWTOWN2042,SYD
NIRIMBA FIELDS,2763,NIRIMBA FIELDS2763,SYD
NORMANHURST,2076,NORMANHURST2076,SYD
NORTH BALGOWLAH,2093,NORTH BALGOWLAH2093,SYD
NORTH BONDI,2026,NORTH BONDI2026,SYD
NORTH CURL CURL,2099,NORTH CURL CURL2099,SYD
NORTH EPPING,2121,NORTH EPPING2121,SYD
NORTH KELLYVILLE,2155,NORTH KELLYVILLE2155,SYD
NORTH MANLY,2100,NORTH MANLY2100,SYD
NORTH NARRABEEN,2101,NORTH NARRABEEN2101,SYD
NORTH PARRAMATTA,2151,NORTH PARRAMATTA2151,SYD
NORTH RICHMOND,2754,NORTH RICHMOND2754,SYD
NORTH ROCKS,2151,NORTH ROCKS2151,SYD
NORTH RYDE,2113,NORTH RYDE2113,SYD
NORTH SAINT IVES,2075,NORTH SAINT IVES2075,SYD
NORTH SAINT MARYS,2760,NORTH SAINT MARYS2760,SYD
NORTH ST IVES,2075,NORTH ST IVES2075,SYD
NORTH ST MARYS,2760,NORTH ST MARYS2760,SYD
NORTH STRATHFIELD,2137,NORTH STRATHFIELD2137,SYD
NORTH SYDNEY,2055,NORTH SYDNEY2055,SYD
NORTH SYDNEY,2059,NORTH SYDNEY2059,SYD
NORTH SYDNEY,2060,NORTH SYDNEY2060,SYD
NORTH SYDNEY SHOPPINGWORLD,2060,NORTH SYDNEY SHOPPINGWORLD2060,SYD
NORTH TURRAMURRA,2074,NORTH TURRAMURRA2074,SYD
NORTH WAHROONGA,2076,NORTH WAHROONGA2076,SYD
NORTH WILLOUGHBY,2068,NORTH WILLOUGHBY2068,SYD
NORTHBRIDGE,2063,NORTHBRIDGE2063,SYD
NORTHERN SUBURBS MC,2058,NORTHERN SUBURBS MC2058,SYD
NORTHMEAD,2152,NORTHMEAD2152,SYD
NORTHWOOD,2066,NORTHWOOD2066,SYD
NORWEST,2153,NORWEST2153,SYD
OAKHURST,2761,OAKHURST2761,SYD
OAKVILLE,2765,OAKVILLE2765,SYD
OATLANDS,2117,OATLANDS2117,SYD
OATLEY,2223,OATLEY2223,SYD
OLD GUILDFORD,2161,OLD GUILDFORD2161,SYD
OLD TOONGABBIE,2146,OLD TOONGABBIE2146,SYD
ORAN PARK,2570,ORAN PARK2570,SYD
ORCHARD HILLS,2748,ORCHARD HILLS2748,SYD
OSBORNE PARK,2066,OSBORNE PARK2066,SYD
OXFORD FALLS,2100,OXFORD FALLS2100,SYD
OXLEY PARK,2760,OXLEY PARK2760,SYD
OYSTER BAY,2225,OYSTER BAY2225,SYD
PADDINGTON,2021,PADDINGTON2021,SYD
PADSTOW,2211,PADSTOW2211,SYD
PADSTOW HEIGHTS,2211,PADSTOW HEIGHTS2211,SYD
PAGEWOOD,2035,PAGEWOOD2035,SYD
PALM BEACH,2108,PALM BEACH2108,SYD
PANANIA,2213,PANANIA2213,SYD
PARADISE BEACH,2107,PARADISE BEACH2107,SYD
PARKLEA,2768,PARKLEA2768,SYD
PARLIAMENT HOUSE,2000,PARLIAMENT HOUSE2000,SYD
PARRAMATTA,2123,PARRAMATTA2123,SYD
PARRAMATTA,2124,PARRAMATTA2124,SYD
PARRAMATTA,2150,PARRAMATTA2150,SYD
PARRAMATTA WESTFIELD,2150,PARRAMATTA WESTFIELD2150,SYD
PEAKHURST,2210,PEAKHURST2210,SYD
PEAKHURST HEIGHTS,2210,PEAKHURST HEIGHTS2210,SYD
PEMULWUY,2145,PEMULWUY2145,SYD
PENDLE HILL,2145,PENDLE HILL2145,SYD
PENNANT HILLS,2120,PENNANT HILLS2120,SYD
PENRITH,2750,PENRITH2750,SYD
PENRITH,2751,PENRITH2751,SYD
PENRITH PLAZA,2750,PENRITH PLAZA2750,SYD
PENRITH SOUTH,2750,PENRITH SOUTH2750,SYD
PENSHURST,2222,PENSHURST2222,SYD
PETERSHAM,2049,PETERSHAM2049,SYD
PETERSHAM NORTH,2049,PETERSHAM NORTH2049,SYD
PHILLIP BAY,2036,PHILLIP BAY2036,SYD
PICNIC POINT,2213,PICNIC POINT2213,SYD
PITT TOWN,2756,PITT TOWN2756,SYD
PLEASURE POINT,2172,PLEASURE POINT2172,SYD
PLUMPTON,2761,PLUMPTON2761,SYD
POINT PIPER,2027,POINT PIPER2027,SYD
PORT BOTANY,2036,PORT BOTANY2036,SYD
PORT HACKING,2229,PORT HACKING2229,SYD
POTTS HILL,2143,POTTS HILL2143,SYD
POTTS POINT,2011,POTTS POINT2011,SYD
PRAIRIEWOOD,2176,PRAIRIEWOOD2176,SYD
PRESTONS,2170,PRESTONS2170,SYD
PROSPECT,2148,PROSPECT2148,SYD
PUNCHBOWL,2196,PUNCHBOWL2196,SYD
PUTNEY,2112,PUTNEY2112,SYD
PYMBLE,2073,PYMBLE2073,SYD
PYRMONT,2009,PYRMONT2009,SYD
QUAKERS HILL,2763,QUAKERS HILL2763,SYD
QUEENS PARK,2022,QUEENS PARK2022,SYD
QUEENSCLIFF,2096,QUEENSCLIFF2096,SYD
RABY,2566,RABY2566,SYD
RAMSGATE,2217,RAMSGATE2217,SYD
RAMSGATE BEACH,2217,RAMSGATE BEACH2217,SYD
RANDWICK,2031,RANDWICK2031,SYD
REDFERN,2016,REDFERN2016,SYD
REGENTS PARK,2143,REGENTS PARK2143,SYD
REGENTVILLE,2745,REGENTVILLE2745,SYD
REVESBY,2212,REVESBY2212,SYD
REVESBY HEIGHTS,2212,REVESBY HEIGHTS2212,SYD
REVESBY NORTH,2212,REVESBY NORTH2212,SYD
RHODES,2138,RHODES2138,SYD
RICHARDS,2765,RICHARDS2765,SYD
RICHMOND,2753,RICHMOND2753,SYD
RIVERSTONE,2765,RIVERSTONE2765,SYD
RIVERVIEW,2066,RIVERVIEW2066,SYD
RIVERWOOD,2210,RIVERWOOD2210,SYD
ROCKDALE,2216,ROCKDALE2216,SYD
RODD POINT,2046,RODD POINT2046,SYD
ROOKWOOD,2141,ROOKWOOD2141,SYD
ROOTY HILL,2766,ROOTY HILL2766,SYD
ROPES CROSSING,2760,ROPES CROSSING2760,SYD
ROSE BAY,2029,ROSE BAY2029,SYD
ROSE BAY NORTH,2030,ROSE BAY NORTH2030,SYD
ROSEBERY,2018,ROSEBERY2018,SYD
ROSEHILL,2142,ROSEHILL2142,SYD
ROSELANDS,2196,ROSELANDS2196,SYD
ROSEMEADOW,2560,ROSEMEADOW2560,SYD
ROSEVILLE,2069,ROSEVILLE2069,SYD
ROSEVILLE CHASE,2069,ROSEVILLE CHASE2069,SYD
ROSSMORE,2557,ROSSMORE2557,SYD
ROUND CORNER,2158,ROUND CORNER2158,SYD
ROUSE HILL,2155,ROUSE HILL2155,SYD
ROYAL NORTH SHORE HOSPITAL,2065,ROYAL NORTH SHORE HOSPITAL2065,SYD
ROZELLE,2039,ROZELLE2039,SYD
RUSE,2560,RUSE2560,SYD
RUSHCUTTERS BAY,2011,RUSHCUTTERS BAY2011,SYD
RUSSELL LEA,2046,RUSSELL LEA2046,SYD
RYDALMERE,2116,RYDALMERE2116,SYD
RYDE,2112,RYDE2112,SYD
SADLEIR,2168,SADLEIR2168,SYD
SAINT CLAIR,2759,SAINT CLAIR2759,SYD
SAINT IVES,2075,SAINT IVES2075,SYD
SAINT LEONARDS,2065,SAINT LEONARDS2065,SYD
SANDRINGHAM,2219,SANDRINGHAM2219,SYD
SANDY POINT,2172,SANDY POINT2172,SYD
SANS SOUCI,2219,SANS SOUCI2219,SYD
SCHOFIELDS,2762,SCHOFIELDS2762,SYD
SEAFORTH,2092,SEAFORTH2092,SYD
SEFTON,2162,SEFTON2162,SYD
SEVEN HILLS,2147,SEVEN HILLS2147,SYD
SEVEN HILLS WEST,2147,SEVEN HILLS WEST2147,SYD
SHALVEY,2770,SHALVEY2770,SYD
SHANES PARK,2747,SHANES PARK2747,SYD
SILVERDALE,2752,SILVERDALE2752,SYD
SILVERWATER,2128,SILVERWATER2128,SYD
SMEATON GRANGE,2567,SMEATON GRANGE2567,SYD
SMITHFIELD,2164,SMITHFIELD2164,SYD
SMITHFIELD WEST,2164,SMITHFIELD WEST2164,SYD
SOUTH COOGEE,2034,SOUTH COOGEE2034,SYD
SOUTH GRANVILLE,2142,SOUTH GRANVILLE2142,SYD
SOUTH HURSTVILLE,2221,SOUTH HURSTVILLE2221,SYD
SOUTH PENRITH,2750,SOUTH PENRITH2750,SYD
SOUTH TURRAMURRA,2074,SOUTH TURRAMURRA2074,SYD
SOUTH WENTWORTHVILLE,2145,SOUTH WENTWORTHVILLE2145,SYD
SOUTH WINDSOR,2756,SOUTH WINDSOR2756,SYD
SPIT JUNCTION,2088,SPIT JUNCTION2088,SYD
SPRING FARM,2570,SPRING FARM2570,SYD
ST ANDREWS,2566,ST ANDREWS2566,SYD
ST CLAIR,2759,ST CLAIR2759,SYD
ST HELENS PARK,2560,ST HELENS PARK2560,SYD
ST IVES,2075,ST IVES2075,SYD
ST IVES CHASE,2075,ST IVES CHASE2075,SYD
ST JOHNS PARK,2176,ST JOHNS PARK2176,SYD
ST LEONARDS,2065,ST LEONARDS2065,SYD
ST MARYS,2760,ST MARYS2760,SYD
ST MARYS EAST,2760,ST MARYS EAST2760,SYD
ST MARYS SOUTH,2760,ST MARYS SOUTH2760,SYD
ST PAULS,2031,ST PAULS2031,SYD
ST PETERS,2044,ST PETERS2044,SYD
STANHOPE GARDENS,2768,STANHOPE GARDENS2768,SYD
STANMORE,2048,STANMORE2048,SYD
STRATHFIELD,2135,STRATHFIELD2135,SYD
STRATHFIELD SOUTH,2136,STRATHFIELD SOUTH2136,SYD
STRAWBERRY HILLS,2012,STRAWBERRY HILLS2012,SYD
STRAWBERRY HILLS,2013,STRAWBERRY HILLS2013,SYD
SUMMER HILL,2130,SUMMER HILL2130,SYD
SURRY HILLS,2010,SURRY HILLS2010,SYD
SUTHERLAND,2232,SUTHERLAND2232,SYD
SYDENHAM,2044,SYDENHAM2044,SYD
SYDNEY,2000,SYDNEY2000,SYD
SYDNEY,2001,SYDNEY2001,SYD
SYDNEY,2199,SYDNEY2199,SYD
SYDNEY DOMESTIC AIRPORT,2020,SYDNEY DOMESTIC AIRPORT2020,SYD
SYDNEY GATEWAY FACILITY,2891,SYDNEY GATEWAY FACILITY2891,SYD
SYDNEY INTERNATIONAL AIRPORT,2020,SYDNEY INTERNATIONAL AIRPORT2020,SYD
SYDNEY MARKETS,2129,SYDNEY MARKETS2129,SYD
SYDNEY OLYMPIC PARK,2127,SYDNEY OLYMPIC PARK2127,SYD
SYDNEY SOUTH,2000,SYDNEY SOUTH2000,SYD
SYLVANIA,2224,SYLVANIA2224,SYD
SYLVANIA SOUTHGATE,2224,SYLVANIA SOUTHGATE2224,SYD
SYLVANIA WATERS,2224,SYLVANIA WATERS2224,SYD
TALLAWONG,2762,TALLAWONG2762,SYD
TAMARAMA,2026,TAMARAMA2026,SYD
TAREN POINT,2229,TAREN POINT2229,SYD
TAYLOR SQUARE,2010,TAYLOR SQUARE2010,SYD
TAYLORS POINT,2107,TAYLORS POINT2107,SYD
TELOPEA,2117,TELOPEA2117,SYD
TEMPE,2044,TEMPE2044,SYD
TENNYSON POINT,2111,TENNYSON POINT2111,SYD
TERREY HILLS,2084,TERREY HILLS2084,SYD
THE BASIN,2108,THE BASIN2108,SYD
THE PONDS,2769,THE PONDS2769,SYD
THE ROCKS,2000,THE ROCKS2000,SYD
THE UNIVERSITY OF SYDNEY,2006,THE UNIVERSITY OF SYDNEY2006,SYD
THORNLEIGH,2120,THORNLEIGH2120,SYD
TOONGABBIE,2146,TOONGABBIE2146,SYD
TOONGABBIE EAST,2146,TOONGABBIE EAST2146,SYD
TREGEAR,2770,TREGEAR2770,SYD
TURRAMURRA,2074,TURRAMURRA2074,SYD
TURRELLA,2205,TURRELLA2205,SYD
ULTIMO,2007,ULTIMO2007,SYD
UNDERCLIFFE,2206,UNDERCLIFFE2206,SYD
UNIVERSITY OF NEW SOUTH WALES,2052,UNIVERSITY OF NEW SOUTH WALES2052,SYD
UNSW SYDNEY,2052,UNSW SYDNEY2052,SYD
VARROVILLE,2566,VARROVILLE2566,SYD
VAUCLUSE,2030,VAUCLUSE2030,SYD
VILLAWOOD,2163,VILLAWOOD2163,SYD
VINEYARD,2765,VINEYARD2765,SYD
VOYAGER POINT,2172,VOYAGER POINT2172,SYD
WAHROONGA,2076,WAHROONGA2076,SYD
WAITARA,2077,WAITARA2077,SYD
WAKELEY,2176,WAKELEY2176,SYD
WAREEMBA,2046,WAREEMBA2046,SYD
WARRAWEE,2074,WARRAWEE2074,SYD
WARRIEWOOD,2102,WARRIEWOOD2102,SYD
WARRIEWOOD SHOPPING SQUARE,2102,WARRIEWOOD SHOPPING SQUARE2102,SYD
WARRINGAH MALL,2100,WARRINGAH MALL2100,SYD
WARWICK FARM,2170,WARWICK FARM2170,SYD
WATERLOO,2017,WATERLOO2017,SYD
WATSONS BAY,2030,WATSONS BAY2030,SYD
WATTLE GROVE,2173,WATTLE GROVE2173,SYD
WAVERLEY,2024,WAVERLEY2024,SYD
WAVERTON,2060,WAVERTON2060,SYD
WENTWORTH POINT,2127,WENTWORTH POINT2127,SYD
WENTWORTH PORT,2177,WENTWORTH PORT2177,SYD
WENTWORTHVILLE,2145,WENTWORTHVILLE2145,SYD
WERRINGTON,2747,WERRINGTON2747,SYD
WERRINGTON COUNTY,2747,WERRINGTON COUNTY2747,SYD
WERRINGTON DOWNS,2747,WERRINGTON DOWNS2747,SYD
WEST HOXTON,2171,WEST HOXTON2171,SYD
WEST PENNANT HILLS,2125,WEST PENNANT HILLS2125,SYD
WEST PYMBLE,2073,WEST PYMBLE2073,SYD
WEST RYDE,2114,WEST RYDE2114,SYD
WESTGATE,2048,WESTGATE2048,SYD
WESTLEIGH,2120,WESTLEIGH2120,SYD
WESTMEAD,2145,WESTMEAD2145,SYD
WETHERILL PARK,2164,WETHERILL PARK2164,SYD
WETHERILL PARK NSW,2164,WETHERILL PARK NSW2164,SYD
WHALAN,2770,WHALAN2770,SYD
WHALE BEACH,2107,WHALE BEACH2107,SYD
WHEELER HEIGHTS,2097,WHEELER HEIGHTS2097,SYD
WILEY PARK,2195,WILEY PARK2195,SYD
WILLMOT,2770,WILLMOT2770,SYD
WILLOUGHBY,2068,WILLOUGHBY2068,SYD
WILLOUGHBY EAST,2068,WILLOUGHBY EAST2068,SYD
WILLOUGHBY NORTH,2068,WILLOUGHBY NORTH2068,SYD
WINDSOR,2756,WINDSOR2756,SYD
WINDSOR DOWNS,2756,WINDSOR DOWNS2756,SYD
WINGALA,2099,WINGALA2099,SYD
WINSTON HILLS,2153,WINSTON HILLS2153,SYD
WOLLI CREEK,2205,WOLLI CREEK2205,SYD
WOLLSTONECRAFT,2065,WOLLSTONECRAFT2065,SYD
WOODBINE,2560,WOODBINE2560,SYD
WOODCROFT,2767,WOODCROFT2767,SYD
WOODPARK,2164,WOODPARK2164,SYD
WOOLLAHRA,2025,WOOLLAHRA2025,SYD
WOOLLOOMOOLOO,2011,WOOLLOOMOOLOO2011,SYD
WOOLOOWARE,2230,WOOLOOWARE2230,SYD
WOOLWICH,2110,WOOLWICH2110,SYD
WORLD SQUARE,2002,WORLD SQUARE2002,SYD
WORONORA,2232,WORONORA2232,SYD
WORONORA HEIGHTS,2233,WORONORA HEIGHTS2233,SYD
YAGOONA,2199,YAGOONA2199,SYD
YAGOONA WEST,2199,YAGOONA WEST2199,SYD
YARRAWARRAH,2233,YARRAWARRAH2233,SYD
YENNORA,2161,YENNORA2161,SYD
YOWIE BAY,2228,YOWIE BAY2228,SYD
ZETLAND,2017,ZETLAND2017,SYD
ABBOTSFORD,3067,ABBOTSFORD3067,MEL
ABERCROMBIE,2795,ABERCROMBIE2795,OAG
ABERDARE,2325,ABERDARE2325,NEW
ABERFELDIE,3040,ABERFELDIE3040,MEL
ABERFOYLE PARK,5159,ABERFOYLE PARK5159,ADL
ABERGLASSLYN,2320,ABERGLASSLYN2320,NEW
ABERMAIN,2326,ABERMAIN2326,NEW
ACACIA RIDGE,4110,ACACIA RIDGE4110,BRI
ACACIA RIDGE BC,4110,ACACIA RIDGE BC4110,BRI
ACACIA RIDGE DC,4110,ACACIA RIDGE DC4110,BRI
ACTON,2601,ACTON2601,CBR
ACTON,7320,ACTON7320,DPO
ACTON PARK,7170,ACTON PARK7170,TAS
ADAMSTOWN,2289,ADAMSTOWN2289,NEW
ADAMSTOWN HEIGHTS,2289,ADAMSTOWN HEIGHTS2289,NEW
ADARE,4343,ADARE4343,TOO
ADELAIDE,5000,ADELAIDE5000,ADL
ADELAIDE,5001,ADELAIDE5001,ADL
ADELAIDE,5800,ADELAIDE5800,ADL
ADELAIDE,5810,ADELAIDE5810,ADL
ADELAIDE,5839,ADELAIDE5839,ADL
ADELAIDE AIRPORT,5950,ADELAIDE AIRPORT5950,ADL
ADELAIDE BC,5000,ADELAIDE BC5000,ADL
ADELAIDE UNIVERSITY,5005,ADELAIDE UNIVERSITY5005,ADL
AEROGLEN,4870,AEROGLEN4870,CNS
AINSLIE,2602,AINSLIE2602,CBR
AINTREE,3336,AINTREE3336,MEL
AIRLIE BEACH,4802,AIRLIE BEACH4802,MKY
AIRPORT WEST,3042,AIRPORT WEST3042,MEL
AITKENVALE,4814,AITKENVALE4814,TVL
AITKENVALE BC,4814,AITKENVALE BC4814,TVL
ALABAMA HILL,4820,ALABAMA HILL4820,TVL
ALANVALE,7248,ALANVALE7248,LAU
ALBANVALE,3021,ALBANVALE3021,MEL
ALBANY CREEK,4035,ALBANY CREEK4035,BRI
ALBERT PARK,3206,ALBERT PARK3206,MEL
ALBERT PARK,5014,ALBERT PARK5014,ADL
ALBERTON,5014,ALBERTON5014,ADL
ALBION,3020,ALBION3020,MEL
ALBION,4010,ALBION4010,BRI
ALBION BC,4010,ALBION BC4010,BRI
ALBION DC,4010,ALBION DC4010,BRI
ALBION HEIGHTS,7050,ALBION HEIGHTS7050,TAS
ALBION PARK,2527,ALBION PARK2527,WOL
ALBION PARK RAIL,2527,ALBION PARK RAIL2527,WOL
ALBURY,2640,ALBURY2640,ALB
ALBURY MSC,2708,ALBURY MSC2708,ALB
ALDERLEY,4051,ALDERLEY4051,BRI
ALDERSHOT,4650,ALDERSHOT4650,MYB
ALDINGA,5173,ALDINGA5173,ADL
ALDINGA BEACH,5173,ALDINGA BEACH5173,ADL
ALEXANDER HEIGHTS,6064,ALEXANDER HEIGHTS6064,PER
ALEXANDRA,4740,ALEXANDRA4740,MKY
ALEXANDRA HEADLAND,4572,ALEXANDRA HEADLAND4572,SUN
ALEXANDRA HILLS,4161,ALEXANDRA HILLS4161,BRI
ALFRED COVE,6154,ALFRED COVE6154,PER
ALFREDTON,3350,ALFREDTON3350,GEE
ALGESTER,4115,ALGESTER4115,BRI
ALICE RIVER,4817,ALICE RIVER4817,TVL
ALISON,2259,ALISON2259,CCT
ALKIMOS,6038,ALKIMOS6038,PER
ALLANDALE,2320,ALLANDALE2320,NEW
ALLENBY GARDENS,5009,ALLENBY GARDENS5009,ADL
ALLENSTOWN,4700,ALLENSTOWN4700,CAP
ALLIGATOR CREEK,4816,ALLIGATOR CREEK4816,TVL
ALLORA,4362,ALLORA4362,TOO
ALLOWAY,4670,ALLOWAY4670,BDB
ALPHINGTON,3078,ALPHINGTON3078,MEL
ALPINE,2575,ALPINE2575,WOL
ALSTONVILLE,2477,ALSTONVILLE2477,NTH
ALTANDI,4109,ALTANDI4109,BRI
ALTONA,3018,ALTONA3018,MEL
ALTONA,5351,ALTONA5351,ADL
ALTONA EAST,3025,ALTONA EAST3025,MEL
ALTONA GATE,3025,ALTONA GATE3025,MEL
ALTONA MEADOWS,3028,ALTONA MEADOWS3028,MEL
ALTONA NORTH,3025,ALTONA NORTH3025,MEL
AMAROO,2914,AMAROO2914,CBR
AMBLESIDE,7310,AMBLESIDE7310,DPO
ANDERGROVE,4740,ANDERGROVE4740,MKY
ANDREWS FARM,5114,ANDREWS FARM5114,ADL
ANGASTON,5353,ANGASTON5353,ADL
ANGLE PARK,5010,ANGLE PARK5010,ADL
ANGLE VALE,5117,ANGLE VALE5117,ADL
ANGOURIE,2464,ANGOURIE2464,NTH
ANKETELL,6167,ANKETELL6167,PER
ANNA BAY,2316,ANNA BAY2316,NEW
ANNANDALE,4814,ANNANDALE4814,TVL
ANNERLEY,4103,ANNERLEY4103,BRI
ANNERLEY DC,4103,ANNERLEY DC4103,BRI
ANSTEAD,4070,ANSTEAD4070,BRI
ANU,200,ANU200,CBR
APPIN,2560,APPIN2560,WOL
APPLE TREE CREEK,4660,APPLE TREE CREEK4660,BDB
APPLECROSS,6153,APPLECROSS6153,PER
APPLECROSS,6953,APPLECROSS6953,PER
APPLECROSS NORTH,6153,APPLECROSS NORTH6153,PER
APPLETHORPE,4378,APPLETHORPE4378,TOO
ARALUEN,4570,ARALUEN4570,SUN
ARANA HILLS,4054,ARANA HILLS4054,BRI
ARANDA,2614,ARANDA2614,CBR
ARCADIA VALE,2283,ARCADIA VALE2283,NEW
ARCHERFIELD,4108,ARCHERFIELD4108,BRI
ARCHERFIELD BC,4108,ARCHERFIELD BC4108,BRI
ARDEER,3022,ARDEER3022,MEL
ARDROSS,6153,ARDROSS6153,PER
ARGENTON,2284,ARGENTON2284,NEW
ARGYLE,3523,ARGYLE3523,BEN
ARMADALE,3143,ARMADALE3143,MEL
ARMADALE,6112,ARMADALE6112,PER
ARMADALE,6992,ARMADALE6992,PER
ARMADALE NORTH,3143,ARMADALE NORTH3143,MEL
ARMSTRONG CREEK,3217,ARMSTRONG CREEK3217,GEE
AROONA,4551,AROONA4551,SUN
ARRAWARRA,2456,ARRAWARRA2456,CFS
ARRAWARRA HEADLAND,2456,ARRAWARRA HEADLAND2456,CFS
ARTHURS SEAT,3936,ARTHURS SEAT3936,MEL
ARUNDEL,4214,ARUNDEL4214,GLD
ARUNDEL BC,4214,ARUNDEL BC4214,GLD
ARUNDEL DC,4214,ARUNDEL DC4214,GLD
ASCOT,3551,ASCOT3551,BEN
ASCOT,4007,ASCOT4007,BRI
ASCOT,6104,ASCOT6104,PER
ASCOT PARK,5043,ASCOT PARK5043,ADL
ASCOT VALE,3032,ASCOT VALE3032,MEL
ASHBURTON,3147,ASHBURTON3147,MEL
ASHBY,6065,ASHBY6065,PER
ASHFIELD,4670,ASHFIELD4670,BDB
ASHFIELD,6054,ASHFIELD6054,PER
ASHFORD,5035,ASHFORD5035,ADL
ASHGROVE,4060,ASHGROVE4060,BRI
ASHGROVE WEST,4060,ASHGROVE WEST4060,BRI
ASHMONT,2650,ASHMONT2650,YNG
ASHMORE,4214,ASHMORE4214,GLD
ASHMORE CITY,4214,ASHMORE CITY4214,GLD
ASHTONFIELD,2323,ASHTONFIELD2323,NEW
ASHWOOD,3147,ASHWOOD3147,MEL
ASPENDALE,3195,ASPENDALE3195,MEL
ASPENDALE GARDENS,3195,ASPENDALE GARDENS3195,MEL
ASPLEY,4034,ASPLEY4034,BRI
ATHELSTONE,5076,ATHELSTONE5076,ADL
ATHERTON,4883,ATHERTON4883,CNS
ATHOL PARK,5012,ATHOL PARK5012,ADL
ATTADALE,6156,ATTADALE6156,PER
ATTWOOD,3049,ATTWOOD3049,MEL
ATWELL,6164,ATWELL6164,PER
AUBIN GROVE,6164,AUBIN GROVE6164,PER
AUBURN,3123,AUBURN3123,MEL
AUBURN SOUTH,3122,AUBURN SOUTH3122,MEL
AUCHENFLOWER,4066,AUCHENFLOWER4066,BRI
AUGUSTINE HEIGHTS,4300,AUGUSTINE HEIGHTS4300,BRI
AULDANA,5072,AULDANA5072,ADL
AUSTINMER,2515,AUSTINMER2515,WOL
AUSTINS FERRY,7011,AUSTINS FERRY7011,TAS
AUSTRALIA FAIR,4215,AUSTRALIA FAIR4215,GLD
AUSTRALIAN NATIONAL UNIVERSITY,200,AUSTRALIAN NATIONAL UNIVERSITY200,CBR
AVELEY,6069,AVELEY6069,PER
AVENELL HEIGHTS,4670,AVENELL HEIGHTS4670,BDB
AVOCA,4670,AVOCA4670,BDB
AVOCA BEACH,2251,AVOCA BEACH2251,CCT
AVONDALE,2530,AVONDALE2530,WOL
AVONDALE HEIGHTS,3034,AVONDALE HEIGHTS3034,MEL
AWABA,2283,AWABA2283,NEW
AXEDALE,3551,AXEDALE3551,BEN
AYLMERTON,2575,AYLMERTON2575,WOL
AYR,4807,AYR4807,TVL
BABINDA,4861,BABINDA4861,CNS
BACCHUS MARSH,3340,BACCHUS MARSH3340,MEL
BAGO,2446,BAGO2446,PQQ
BAGSHOT,3551,BAGSHOT3551,BEN
BAKERS CREEK,4740,BAKERS CREEK4740,MKY
BAKERY HILL,3350,BAKERY HILL3350,GEE
BALACLAVA,2575,BALACLAVA2575,WOL
BALACLAVA,3183,BALACLAVA3183,MEL
BALARANG,2529,BALARANG2529,WOL
BALCATTA,6021,BALCATTA6021,PER
BALCATTA,6914,BALCATTA6914,PER
BALCOLYN,2264,BALCOLYN2264,NEW
BALD HILLS,4036,BALD HILLS4036,BRI
BALDIVIS,6171,BALDIVIS6171,PER
BALGA,6061,BALGA6061,PER
BALGAL BEACH,4816,BALGAL BEACH4816,TVL
BALGOWNIE,2519,BALGOWNIE2519,WOL
BALLAJURA,6066,BALLAJURA6066,PER
BALLANDEAN,4382,BALLANDEAN4382,TOO
BALLARAT,3350,BALLARAT3350,GEE
BALLARAT,3353,BALLARAT3353,GEE
BALLARAT CENTRAL,3350,BALLARAT CENTRAL3350,GEE
BALLARAT EAST,3350,BALLARAT EAST3350,GEE
BALLARAT MC,3354,BALLARAT MC3354,GEE
BALLARAT NORTH,3350,BALLARAT NORTH3350,GEE
BALLARAT WEST,3350,BALLARAT WEST3350,GEE
BALLINA,2478,BALLINA2478,NTH
BALLYMORE,4059,BALLYMORE4059,BRI
BALMORAL,2283,BALMORAL2283,NEW
BALMORAL,4171,BALMORAL4171,BRI
BALMORAL RIDGE,4552,BALMORAL RIDGE4552,SUN
BALMORAL VILLAGE,2571,BALMORAL VILLAGE2571,WOL
BALNARRING,3926,BALNARRING3926,MEL
BALNARRING BEACH,3926,BALNARRING BEACH3926,MEL
BALWYN,3103,BALWYN3103,MEL
BALWYN EAST,3103,BALWYN EAST3103,MEL
BALWYN NORTH,3104,BALWYN NORTH3104,MEL
BAMBAROO,4850,BAMBAROO4850,TVL
BANDIANA,3691,BANDIANA3691,ALB
BANDIANA,3694,BANDIANA3694,ALB
BANDIANA MILPO,3694,BANDIANA MILPO3694,ALB
BANGALEE,2541,BANGALEE2541,WOL
BANGALEE,4703,BANGALEE4703,CAP
BANGALOW,2479,BANGALOW2479,NTH
BANGHOLME,3175,BANGHOLME3175,MEL
BANJUP,6164,BANJUP6164,PER
BANKS,2906,BANKS2906,CBR
BANKSIA BEACH,4507,BANKSIA BEACH4507,BRI
BANKSIA GROVE,6031,BANKSIA GROVE6031,PER
BANKSIA PARK,5091,BANKSIA PARK5091,ADL
BANNOCKBURN,3331,BANNOCKBURN3331,GEE
BANOON,4109,BANOON4109,BRI
BANORA POINT,2486,BANORA POINT2486,GLD
BANYA,4551,BANYA4551,SUN
BANYO,4014,BANYO4014,BRI
BAR BEACH,2300,BAR BEACH2300,NEW
BARANDUDA,3691,BARANDUDA3691,ALB
BARDON,4065,BARDON4065,BRI
BARDON WEST,4065,BARDON WEST4065,BRI
BAREENA,3220,BAREENA3220,GEE
BARGARA,4670,BARGARA4670,BDB
BARGO,2574,BARGO2574,WOL
BARINGA,4551,BARINGA4551,SUN
BARLOWS HILL,4703,BARLOWS HILL4703,CAP
BARMARYEE,4703,BARMARYEE4703,CAP
BARNAWARTHA,3688,BARNAWARTHA3688,ALB
BARNAWARTHA NORTH,3688,BARNAWARTHA NORTH3688,ALB
BARNAWARTHA NORTH,3691,BARNAWARTHA NORTH3691,ALB
BARNSLEY,2278,BARNSLEY2278,NEW
BAROONA,4064,BAROONA4064,BRI
BARRACK HEIGHTS,2528,BARRACK HEIGHTS2528,WOL
BARRACK POINT,2528,BARRACK POINT2528,WOL
BARRAGUP,6209,BARRAGUP6209,PER
BARRAGUP,6210,BARRAGUP6210,PER
BARRON,4878,BARRON4878,CNS
BARTON,2600,BARTON2600,CBR
BARWON HEADS,3227,BARWON HEADS3227,GEE
BASIN POCKET,4305,BASIN POCKET4305,BRI
BASSENDEAN,6054,BASSENDEAN6054,PER
BASSENDEAN,6934,BASSENDEAN6934,PER
BASSENDEAN DC,6054,BASSENDEAN DC6054,PER
BASSENDEAN DC,6942,BASSENDEAN DC6942,PER
BATEAU BAY,2261,BATEAU BAY2261,CCT
BATEMAN,6150,BATEMAN6150,PER
BATHURST,2795,BATHURST2795,OAG
BATHURST MC,2796,BATHURST MC2796,OAG
BATTERY HILL,4551,BATTERY HILL4551,SUN
BATTERY POINT,7004,BATTERY POINT7004,TAS
BAXTER,3911,BAXTER3911,MEL
BAY VILLAGE,2261,BAY VILLAGE2261,CCT
BAYLDON,2452,BAYLDON2452,CFS
BAYSWATER,3153,BAYSWATER3153,MEL
BAYSWATER,6053,BAYSWATER6053,PER
BAYSWATER,6933,BAYSWATER6933,PER
BAYSWATER NORTH,3153,BAYSWATER NORTH3153,MEL
BAYVIEW HEIGHTS,4868,BAYVIEW HEIGHTS4868,CNS
BEACH HOLM,4818,BEACH HOLM4818,TVL
BEACHMERE,4510,BEACHMERE4510,BRI
BEACONSFIELD,3807,BEACONSFIELD3807,MEL
BEACONSFIELD,4740,BEACONSFIELD4740,MKY
BEACONSFIELD,6162,BEACONSFIELD6162,PER
BEACONSFIELD,7270,BEACONSFIELD7270,LAU
BEARD,2620,BEARD2620,CBR
BEAUDESERT,4285,BEAUDESERT4285,BRI
BEAUMARIS,3193,BEAUMARIS3193,MEL
BEAUMONT,5066,BEAUMONT5066,ADL
BEAUTY POINT,7270,BEAUTY POINT7270,LAU
BECKENHAM,6107,BECKENHAM6107,PER
BEDFORD,6052,BEDFORD6052,PER
BEDFORD PARK,5042,BEDFORD PARK5042,ADL
BEECHBORO,6063,BEECHBORO6063,PER
BEECHWORTH,3747,BEECHWORTH3747,ALB
BEELBANGERA,2680,BEELBANGERA2680,YNG
BEELIAR,6164,BEELIAR6164,PER
BEENLEIGH,4207,BEENLEIGH4207,BRI
BEERWAH,4519,BEERWAH4519,SUN
BELAIR,5052,BELAIR5052,ADL
BELCONNEN,2616,BELCONNEN2616,CBR
BELCONNEN,2617,BELCONNEN2617,CBR
BELCONNEN DC,2617,BELCONNEN DC2617,CBR
BELDON,6027,BELDON6027,PER
BELFORD,2335,BELFORD2335,NEW
BELGIAN GARDENS,4810,BELGIAN GARDENS4810,TVL
BELHUS,6069,BELHUS6069,PER
BELL BAY,7253,BELL BAY7253,LAU
BELL PARK,3215,BELL PARK3215,GEE
BELL POST HILL,3215,BELL POST HILL3215,GEE
BELLAMBI,2518,BELLAMBI2518,WOL
BELLARA,4507,BELLARA4507,BRI
BELLARINE,3221,BELLARINE3221,GEE
BELLARINE,3223,BELLARINE3223,GEE
BELLBIRD,2325,BELLBIRD2325,NEW
BELLBIRD HEIGHTS,2325,BELLBIRD HEIGHTS2325,NEW
BELLBIRD PARK,4300,BELLBIRD PARK4300,BRI
BELLBOWRIE,4070,BELLBOWRIE4070,BRI
BELLERIVE,7018,BELLERIVE7018,TAS
BELLEVUE,6056,BELLEVUE6056,PER
BELLEVUE HEIGHTS,5050,BELLEVUE HEIGHTS5050,ADL
BELLFIELD,3081,BELLFIELD3081,MEL
BELLINGEN,2454,BELLINGEN2454,CFS
BELLMERE,4510,BELLMERE4510,BRI
BELLS CREEK,4551,BELLS CREEK4551,SUN
BELMONT,2280,BELMONT2280,NEW
BELMONT,3216,BELMONT3216,GEE
BELMONT,4153,BELMONT4153,BRI
BELMONT,6104,BELMONT6104,PER
BELMONT,6984,BELMONT6984,PER
BELMONT HEIGHTS,4153,BELMONT HEIGHTS4153,BRI
BELMONT NORTH,2280,BELMONT NORTH2280,NEW
BELMONT SOUTH,2280,BELMONT SOUTH2280,NEW
BELVEDERE,4860,BELVEDERE4860,CNS
BENDIGO,3550,BENDIGO3550,BEN
BENDIGO,3552,BENDIGO3552,BEN
BENDIGO DC,3554,BENDIGO DC3554,BEN
BENDIGO FORWARD,3551,BENDIGO FORWARD3551,BEN
BENDIGO SOUTH,3550,BENDIGO SOUTH3550,BEN
BENNETSWOOD,3125,BENNETSWOOD3125,MEL
BENNETT SPRINGS,6063,BENNETT SPRINGS6063,PER
BENNETTS GREEN,2290,BENNETTS GREEN2290,NEW
BENOWA,4217,BENOWA4217,GLD
BENSVILLE,2251,BENSVILLE2251,CCT
BENTLEIGH,3204,BENTLEIGH3204,MEL
BENTLEIGH EAST,3165,BENTLEIGH EAST3165,MEL
BENTLEY,6102,BENTLEY6102,PER
BENTLEY,6982,BENTLEY6982,PER
BENTLEY DC,6102,BENTLEY DC6102,PER
BENTLEY DC,6983,BENTLEY DC6983,PER
BENTLEY PARK,4869,BENTLEY PARK4869,CNS
BENTLEY SOUTH,6102,BENTLEY SOUTH6102,PER
BERESFIELD,2322,BERESFIELD2322,NEW
BERKELEY,2506,BERKELEY2506,WOL
BERKELEY VALE,2261,BERKELEY VALE2261,CCT
BERRIEDALE,7011,BERRIEDALE7011,TAS
BERRIMA,2577,BERRIMA2577,WOL
BERRINBA,4117,BERRINBA4117,BRI
BERRY,2535,BERRY2535,WOL
BERSERKER,4701,BERSERKER4701,CAP
BERTRAM,6167,BERTRAM6167,PER
BERWICK,3806,BERWICK3806,MEL
BETHANIA,4205,BETHANIA4205,BRI
BETHANY,5352,BETHANY5352,ADL
BEULAH PARK,5067,BEULAH PARK5067,ADL
BEVERLEY,5009,BEVERLEY5009,ADL
BIBARINGA,5118,BIBARINGA5118,ADL
BIBRA LAKE,6163,BIBRA LAKE6163,PER
BIBRA LAKE DC,6163,BIBRA LAKE DC6163,PER
BIBRA LAKE DC,6965,BIBRA LAKE DC6965,PER
BICTON,6157,BICTON6157,PER
BIG HILL,3555,BIG HILL3555,BEN
BIGGERA WATERS,4216,BIGGERA WATERS4216,GLD
BILAMBIL,2486,BILAMBIL2486,GLD
BILAMBIL HEIGHTS,2486,BILAMBIL HEIGHTS2486,GLD
BILBUL,2680,BILBUL2680,YNG
BILINGA,4225,BILINGA4225,GLD
BILLINUDGEL,2483,BILLINUDGEL2483,NTH
BIRKALLA,4854,BIRKALLA4854,CNS
BIRKDALE,4159,BIRKDALE4159,BRI
BIRKENHEAD,5015,BIRKENHEAD5015,ADL
BIRMINGHAM GARDENS,2287,BIRMINGHAM GARDENS2287,NEW
BIRNAM,4352,BIRNAM4352,TOO
BIRTINYA,4575,BIRTINYA4575,SUN
BISHOPS BRIDGE,2326,BISHOPS BRIDGE2326,NEW
BITTERN,3918,BITTERN3918,MEL
BLACK FOREST,5035,BLACK FOREST5035,ADL
BLACK HEAD,2430,BLACK HEAD2430,PQQ
BLACK HILL,2322,BLACK HILL2322,NEW
BLACK HILL,3350,BLACK HILL3350,GEE
BLACK MOUNTAIN,2601,BLACK MOUNTAIN2601,CBR
BLACK RIVER,4818,BLACK RIVER4818,TVL
BLACK ROCK,3193,BLACK ROCK3193,MEL
BLACKALLS PARK,2283,BLACKALLS PARK2283,NEW
BLACKBURN,3130,BLACKBURN3130,MEL
BLACKBURN NORTH,3130,BLACKBURN NORTH3130,MEL
BLACKBURN SOUTH,3130,BLACKBURN SOUTH3130,MEL
BLACKBUTT,2529,BLACKBUTT2529,WOL
BLACKHEATH,2785,BLACKHEATH2785,SYD
BLACKMANS BAY,7052,BLACKMANS BAY7052,TAS
BLACKS BEACH,4740,BLACKS BEACH4740,MKY
BLACKSMITHS,2281,BLACKSMITHS2281,NEW
BLACKSTONE,4304,BLACKSTONE4304,BRI
BLACKSTONE HEIGHTS,7250,BLACKSTONE HEIGHTS7250,LAU
BLACKWALL,2256,BLACKWALL2256,CCT
BLACKWOOD,5051,BLACKWOOD5051,ADL
BLAIR ATHOL,5084,BLAIR ATHOL5084,ADL
BLAIR ATHOL WEST,5084,BLAIR ATHOL WEST5084,ADL
BLAIRGOWRIE,3942,BLAIRGOWRIE3942,MEL
BLAKEVIEW,5114,BLAKEVIEW5114,ADL
BLAXLAND,2774,BLAXLAND2774,SYD
BLAXLAND EAST,2774,BLAXLAND EAST2774,SYD
BLETCHINGTON,2800,BLETCHINGTON2800,OAG
BLEWITT SPRINGS,5171,BLEWITT SPRINGS5171,ADL
BLI BLI,4560,BLI BLI4560,SUN
BLOOMFIELD,2800,BLOOMFIELD2800,OAG
BLUE BAY,2261,BLUE BAY2261,CCT
BLUE HAVEN,2262,BLUE HAVEN2262,CCT
BLUE MOUNTAIN HEIGHTS,4350,BLUE MOUNTAIN HEIGHTS4350,TOO
BLUEWATER,4818,BLUEWATER4818,TVL
BLUEWATER PARK,4818,BLUEWATER PARK4818,TVL
BOAMBEE,2450,BOAMBEE2450,CFS
BOAMBEE EAST,2452,BOAMBEE EAST2452,CFS
BOAT HARBOUR,2316,BOAT HARBOUR2316,NEW
BOBS FARM,2316,BOBS FARM2316,NEW
BOGANGAR,2488,BOGANGAR2488,GLD
BOHLE,4818,BOHLE4818,TVL
BOHLE PLAINS,4817,BOHLE PLAINS4817,TVL
BOHNOCK,2430,BOHNOCK2430,PQQ
BOKARINA,4575,BOKARINA4575,SUN
BOLIVAR,5110,BOLIVAR5110,ADL
BOLONG,2540,BOLONG2540,WOL
BOLTON POINT,2283,BOLTON POINT2283,NEW
BOLWARRA,2320,BOLWARRA2320,NEW
BOLWARRA HEIGHTS,2320,BOLWARRA HEIGHTS2320,NEW
BOMADERRY,2541,BOMADERRY2541,WOL
BOMBO,2533,BOMBO2533,WOL
BOMEN,2650,BOMEN2650,YNG
BONBEACH,3196,BONBEACH3196,MEL
BOND UNIVERSITY,4229,BOND UNIVERSITY4229,GLD
BONEO,3939,BONEO3939,MEL
BONGAREE,4507,BONGAREE4507,BRI
BONNELLS BAY,2264,BONNELLS BAY2264,NEW
BONNER,2914,BONNER2914,CBR
BONNET HILL,7053,BONNET HILL7053,TAS
BONNIE BROOK,3335,BONNIE BROOK3335,MEL
BONNIE DOON,4873,BONNIE DOON4873,CNS
BONNY HILLS,2445,BONNY HILLS2445,PQQ
BONOGIN,4213,BONOGIN4213,GLD
BONVILLE,2441,BONVILLE2441,CFS
BONVILLE,2450,BONVILLE2450,CFS
BONYTHON,2905,BONYTHON2905,CBR
BOOGAN,4871,BOOGAN4871,CNS
BOOKER BAY,2257,BOOKER BAY2257,CCT
BOOLAROO,2284,BOOLAROO2284,NEW
BOONDALL,4034,BOONDALL4034,BRI
BOORAGOON,6154,BOORAGOON6154,PER
BOORAGOON,6954,BOORAGOON6954,PER
BOORAGUL,2284,BOORAGUL2284,NEW
BOORAL,4655,BOORAL4655,MYB
BOOROOMA,2650,BOOROOMA2650,YNG
BOOTAWA,2430,BOOTAWA2430,PQQ
BOOTI BOOTI,2428,BOOTI BOOTI2428,PQQ
BOOVAL,4304,BOOVAL4304,BRI
BOOVAL BC,4304,BOOVAL BC4304,BRI
BOOVAL DC,4304,BOOVAL DC4304,BRI
BOOVAL FAIR,4304,BOOVAL FAIR4304,BRI
BORONIA,3155,BORONIA3155,MEL
BORONIA HEIGHTS,4124,BORONIA HEIGHTS4124,BRI
BOTANIC RIDGE,3977,BOTANIC RIDGE3977,MEL
BOUDDI,2251,BOUDDI2251,CCT
BOURKELANDS,2650,BOURKELANDS2650,YNG
BOWDEN,5007,BOWDEN5007,ADL
BOWEN,2800,BOWEN2800,OAG
BOWEN,4805,BOWEN4805,MKY
BOWEN BRIDGE,4006,BOWEN BRIDGE4006,BRI
BOWEN HILLS,4006,BOWEN HILLS4006,BRI
BOWRAL,2576,BOWRAL2576,WOL
BOWSER,3678,BOWSER3678,ALB
BOX HEAD,2257,BOX HEAD2257,CCT
BOX HILL,3128,BOX HILL3128,MEL
BOX HILL CENTRAL,3128,BOX HILL CENTRAL3128,MEL
BOX HILL NORTH,3129,BOX HILL NORTH3129,MEL
BOX HILL SOUTH,3128,BOX HILL SOUTH3128,MEL
BOYA,6056,BOYA6056,PER
BOYKAMBIL,4212,BOYKAMBIL4212,GLD
BRABHAM,6055,BRABHAM6055,PER
BRACKEN RIDGE,4017,BRACKEN RIDGE4017,BRI
BRADDON,2612,BRADDON2612,CBR
BRAEMAR,2575,BRAEMAR2575,WOL
BRAESIDE,3195,BRAESIDE3195,MEL
BRAHMA LODGE,5109,BRAHMA LODGE5109,ADL
BRANDON,4808,BRANDON4808,TVL
BRANDON PARK,3150,BRANDON PARK3150,MEL
BRANXTON,2335,BRANXTON2335,NEW
BRANYAN,4670,BRANYAN4670,BDB
BRASSALL,4305,BRASSALL4305,BRI
BRASSALL HEIGHTS,4305,BRASSALL HEIGHTS4305,BRI
BRAY PARK,2484,BRAY PARK2484,GLD
BRAY PARK,4500,BRAY PARK4500,BRI
BRAYBROOK,3019,BRAYBROOK3019,MEL
BRAYBROOK NORTH,3019,BRAYBROOK NORTH3019,MEL
BREADALBANE,7258,BREADALBANE7258,LAU
BREAKFAST CREEK,4010,BREAKFAST CREEK4010,BRI
BREAKWATER,3219,BREAKWATER3219,GEE
BREAMLEA,3227,BREAMLEA3227,GEE
BREDDAN,4820,BREDDAN4820,TVL
BREMER,4305,BREMER4305,BRI
BRENDALE,4500,BRENDALE4500,BRI
BRENDALE BC,4500,BRENDALE BC4500,BRI
BRENDALE DC,4500,BRENDALE DC4500,BRI
BRENTWOOD,6153,BRENTWOOD6153,PER
BRIAR HILL,3088,BRIAR HILL3088,MEL
BRIBIE ISLAND,4507,BRIBIE ISLAND4507,BRI
BRIBIE ISLAND DC,4507,BRIBIE ISLAND DC4507,BRI
BRIBIE ISLAND NORTH,4507,BRIBIE ISLAND NORTH4507,BRI
BRIDGEMAN DOWNS,4035,BRIDGEMAN DOWNS4035,BRI
BRIDGEWATER,7030,BRIDGEWATER7030,TAS
BRIDPORT,7262,BRIDPORT7262,LAU
BRIGHT,3741,BRIGHT3741,ALB
BRIGHTON,3186,BRIGHTON3186,MEL
BRIGHTON,4017,BRIGHTON4017,BRI
BRIGHTON,5048,BRIGHTON5048,ADL
BRIGHTON,7030,BRIGHTON7030,TAS
BRIGHTON EAST,3187,BRIGHTON EAST3187,MEL
BRIGHTON EVENTIDE,4017,BRIGHTON EVENTIDE4017,BRI
BRIGHTON NATHAN STREET,4017,BRIGHTON NATHAN STREET4017,BRI
BRIGHTON NORTH,3186,BRIGHTON NORTH3186,MEL
BRIGHTON ROAD,3184,BRIGHTON ROAD3184,MEL
BRIGHTVIEW,4311,BRIGHTVIEW4311,TOO
BRIGHTWATERS,2264,BRIGHTWATERS2264,NEW
BRIMBIN,2430,BRIMBIN2430,PQQ
BRINSMEAD,4870,BRINSMEAD4870,CNS
BRISBANE,4000,BRISBANE4000,BRI
BRISBANE,4001,BRISBANE4001,BRI
BRISBANE,9000,BRISBANE9000,BRI
BRISBANE,9001,BRISBANE9001,BRI
BRISBANE,9002,BRISBANE9002,BRI
BRISBANE,9005,BRISBANE9005,BRI
BRISBANE,9007,BRISBANE9007,BRI
BRISBANE,9009,BRISBANE9009,BRI
BRISBANE,9010,BRISBANE9010,BRI
BRISBANE,9013,BRISBANE9013,BRI
BRISBANE,9015,BRISBANE9015,BRI
BRISBANE ADELAIDE STREET,4000,BRISBANE ADELAIDE STREET4000,BRI
BRISBANE AIRPORT,4007,BRISBANE AIRPORT4007,BRI
BRISBANE AIRPORT,4008,BRISBANE AIRPORT4008,BRI
BRISBANE ALBERT STREET BC,4002,BRISBANE ALBERT STREET BC4002,BRI
BRISBANE CITY,4000,BRISBANE CITY4000,BRI
BRISBANE CITY DC,4000,BRISBANE CITY DC4000,BRI
BRISBANE EXHIBITION,4006,BRISBANE EXHIBITION4006,BRI
BRISBANE GPO,4000,BRISBANE GPO4000,BRI
BRISBANE MARKET,4106,BRISBANE MARKET4106,BRI
BRISBANE-CITY,4000,BRISBANE-CITY4000,BRI
BROADBEACH,4218,BROADBEACH4218,GLD
BROADBEACH WATERS,4218,BROADBEACH WATERS4218,GLD
BROADMEADOW,2292,BROADMEADOW2292,NEW
BROADMEADOWS,3047,BROADMEADOWS3047,MEL
BROADVIEW,5083,BROADVIEW5083,ADL
BROADWATER,4380,BROADWATER4380,TOO
BROADWAY NEDLANDS,6009,BROADWAY NEDLANDS6009,PER
BROKE,2330,BROKE2330,NEW
BROMPTON,5007,BROMPTON5007,ADL
BROOKDALE,6112,BROOKDALE6112,PER
BROOKFIELD,3338,BROOKFIELD3338,MEL
BROOKFIELD,4069,BROOKFIELD4069,BRI
BROOKHILL,4816,BROOKHILL4816,TVL
BROOKLYN,3012,BROOKLYN3012,MEL
BROOKLYN,7320,BROOKLYN7320,DPO
BROOKLYN PARK,5032,BROOKLYN PARK5032,ADL
BROOKSIDE CENTRE,4053,BROOKSIDE CENTRE4053,BRI
BROOKWATER,4300,BROOKWATER4300,BRI
BROUGHTON,2535,BROUGHTON2535,WOL
BROUGHTON,4820,BROUGHTON4820,TVL
BROUGHTON VILLAGE,2534,BROUGHTON VILLAGE2534,WOL
BROWN HILL,3350,BROWN HILL3350,GEE
BROWNS PLAINS,4118,BROWNS PLAINS4118,BRI
BROWNS PLAINS BC,4118,BROWNS PLAINS BC4118,BRI
BROWNSLEIGH,4118,BROWNSLEIGH4118,BRI
BROWNSVILLE,2530,BROWNSVILLE2530,WOL
BRUCE,2617,BRUCE2617,CBR
BRUNSWICK,3056,BRUNSWICK3056,MEL
BRUNSWICK,8538,BRUNSWICK8538,MEL
BRUNSWICK EAST,3057,BRUNSWICK EAST3057,MEL
BRUNSWICK HEADS,2483,BRUNSWICK HEADS2483,NTH
BRUNSWICK LOWER,3056,BRUNSWICK LOWER3056,MEL
BRUNSWICK NORTH,3056,BRUNSWICK NORTH3056,MEL
BRUNSWICK SOUTH,3055,BRUNSWICK SOUTH3055,MEL
BRUNSWICK WEST,3055,BRUNSWICK WEST3055,MEL
BUCASIA,4750,BUCASIA4750,MKY
BUCHAN POINT,4879,BUCHAN POINT4879,CNS
BUCHANAN,2323,BUCHANAN2323,NEW
BUCHFELDE,5118,BUCHFELDE5118,ADL
BUCKLAND PARK,5120,BUCKLAND PARK5120,ADL
BUDDINA,4575,BUDDINA4575,SUN
BUDERIM,4556,BUDERIM4556,SUN
BUDGEWOI,2262,BUDGEWOI2262,CCT
BUDGEWOI PENINSULA,2262,BUDGEWOI PENINSULA2262,CCT
BUFF POINT,2262,BUFF POINT2262,CCT
BULIMBA,4171,BULIMBA4171,BRI
BULL CREEK,6149,BULL CREEK6149,PER
BULLABURRA,2784,BULLABURRA2784,SYD
BULLEEN,3105,BULLEEN3105,MEL
BULLEEN SOUTH,3105,BULLEEN SOUTH3105,MEL
BULLI,2516,BULLI2516,WOL
BULLI TOPS,2516,BULLI TOPS2516,WOL
BULLS CAMP,2778,BULLS CAMP2778,SYD
BULLYARD,4671,BULLYARD4671,BDB
BULWER ISLAND,4008,BULWER ISLAND4008,BRI
BUNDABERG,4670,BUNDABERG4670,BDB
BUNDABERG CENTRAL,4670,BUNDABERG CENTRAL4670,BDB
BUNDABERG DC,4670,BUNDABERG DC4670,BDB
BUNDABERG EAST,4670,BUNDABERG EAST4670,BDB
BUNDABERG NORTH,4670,BUNDABERG NORTH4670,BDB
BUNDABERG SOUTH,4670,BUNDABERG SOUTH4670,BDB
BUNDABERG WEST,4670,BUNDABERG WEST4670,BDB
BUNDALL,4217,BUNDALL4217,GLD
BUNDALL BC,4217,BUNDALL BC4217,GLD
BUNDALL DC,4217,BUNDALL DC4217,GLD
BUNDALONG,3730,BUNDALONG3730,ALB
BUNDAMBA,4304,BUNDAMBA4304,BRI
BUNDANOON,2578,BUNDANOON2578,WOL
BUNDOORA,3083,BUNDOORA3083,MEL
BUNGADOO,4671,BUNGADOO4671,BDB
BUNGALOW,4870,BUNGALOW4870,CNS
BUNINYONG,3357,BUNINYONG3357,GEE
BUNYA,4055,BUNYA4055,BRI
BUNYA CREEK,4655,BUNYA CREEK4655,MYB
BURANDA,4102,BURANDA4102,BRI
BURBANK,4156,BURBANK4156,BRI
BURDELL,4818,BURDELL4818,TVL
BURLEIGH BC,4220,BURLEIGH BC4220,GLD
BURLEIGH DC,4220,BURLEIGH DC4220,GLD
BURLEIGH HEADS,4220,BURLEIGH HEADS4220,GLD
BURLEIGH TOWN,4220,BURLEIGH TOWN4220,GLD
BURLEIGH WATERS,4220,BURLEIGH WATERS4220,GLD
BURNETT DOWNS,4670,BURNETT DOWNS4670,BDB
BURNETT HEADS,4670,BURNETT HEADS4670,BDB
BURNIE,7320,BURNIE7320,DPO
BURNLEY,3121,BURNLEY3121,MEL
BURNLEY NORTH,3121,BURNLEY NORTH3121,MEL
BURNS BEACH,6028,BURNS BEACH6028,PER
BURNSIDE,3023,BURNSIDE3023,MEL
BURNSIDE,4560,BURNSIDE4560,SUN
BURNSIDE,5066,BURNSIDE5066,ADL
BURNSIDE HEIGHTS,3023,BURNSIDE HEIGHTS3023,MEL
BURPENGARY,4505,BURPENGARY4505,BRI
BURPENGARY DC,4505,BURPENGARY DC4505,BRI
BURPENGARY EAST,4505,BURPENGARY EAST4505,BRI
BURRADOO,2576,BURRADOO2576,WOL
BURRAWANG,2577,BURRAWANG2577,WOL
BURSWOOD,6100,BURSWOOD6100,PER
BURTON,5110,BURTON5110,ADL
BURWOOD,3125,BURWOOD3125,MEL
BURWOOD EAST,3151,BURWOOD EAST3151,MEL
BURWOOD HEIGHTS,3151,BURWOOD HEIGHTS3151,MEL
BUSHELLS RIDGE,2259,BUSHELLS RIDGE2259,CCT
BUSHLAND BEACH,4818,BUSHLAND BEACH4818,TVL
BUSHMEAD,6055,BUSHMEAD6055,PER
BUTLER,6036,BUTLER6036,PER
BUTTABA,2283,BUTTABA2283,NEW
BUTTAI,2323,BUTTAI2323,NEW
BUXTON,2571,BUXTON2571,WOL
BYFORD,6122,BYFORD6122,PER
BYRON BAY,2481,BYRON BAY2481,NTH
CABARITA BEACH,2488,CABARITA BEACH2488,GLD
CABARLAH,4352,CABARLAH4352,TOO
CABBAGE TREE POINT,4207,CABBAGE TREE POINT4207,BRI
CABOOLTURE,4510,CABOOLTURE4510,BRI
CABOOLTURE BC,4510,CABOOLTURE BC4510,BRI
CABOOLTURE SOUTH,4510,CABOOLTURE SOUTH4510,BRI
CADELLO,3442,CADELLO3442,MEL
CAIRNLEA,3023,CAIRNLEA3023,MEL
CAIRNS,4870,CAIRNS4870,CNS
CAIRNS CENTRAL,4870,CAIRNS CENTRAL4870,CNS
CAIRNS CITY,4870,CAIRNS CITY4870,CNS
CAIRNS DC,4870,CAIRNS DC4870,CNS
CAIRNS MC,4870,CAIRNS MC4870,CNS
CAIRNS NORTH,4870,CAIRNS NORTH4870,CNS
CAIRNS ORCHID PLAZA,4870,CAIRNS ORCHID PLAZA4870,CNS
CALAMVALE,4116,CALAMVALE4116,BRI
CALARE,2800,CALARE2800,OAG
CALCIUM,4816,CALCIUM4816,TVL
CALDER PARK,3037,CALDER PARK3037,MEL
CALDER PARK,3049,CALDER PARK3049,MEL
CALDERWOOD,2527,CALDERWOOD2527,WOL
CALIFORNIA GULLY,3556,CALIFORNIA GULLY3556,BEN
CALISTA,6167,CALISTA6167,PER
CALLAGHAN,2308,CALLAGHAN2308,NEW
CALOUNDRA,4551,CALOUNDRA4551,SUN
CALOUNDRA BC,4551,CALOUNDRA BC4551,SUN
CALOUNDRA DC,4551,CALOUNDRA DC4551,SUN
CALOUNDRA WEST,4551,CALOUNDRA WEST4551,SUN
CALWELL,2905,CALWELL2905,CBR
CAMBERWELL,3124,CAMBERWELL3124,MEL
CAMBERWELL,8626,CAMBERWELL8626,MEL
CAMBERWELL,8627,CAMBERWELL8627,MEL
CAMBERWELL EAST,3126,CAMBERWELL EAST3126,MEL
CAMBERWELL NORTH,3124,CAMBERWELL NORTH3124,MEL
CAMBERWELL SOUTH,3124,CAMBERWELL SOUTH3124,MEL
CAMBERWELL WEST,3124,CAMBERWELL WEST3124,MEL
CAMBEWARRA,2540,CAMBEWARRA2540,WOL
CAMBEWARRA VILLAGE,2540,CAMBEWARRA VILLAGE2540,WOL
CAMBOOYA,4358,CAMBOOYA4358,TOO
CAMBRIDGE,7170,CAMBRIDGE7170,TAS
CAMDALE,7320,CAMDALE7320,DPO
CAMDEN HEAD,2443,CAMDEN HEAD2443,PQQ
CAMDEN PARK,5038,CAMDEN PARK5038,ADL
CAMERON PARK,2285,CAMERON PARK2285,NEW
CAMILLO,6111,CAMILLO6111,PER
CAMIRA,4300,CAMIRA4300,BRI
CAMP HILL,4152,CAMP HILL4152,BRI
CAMPBELL,2612,CAMPBELL2612,CBR
CAMPBELLFIELD,3061,CAMPBELLFIELD3061,MEL
CAMPBELLS CREEK,3451,CAMPBELLS CREEK3451,BEN
CAMPBELLTOWN,5074,CAMPBELLTOWN5074,ADL
CAMPVALE,2318,CAMPVALE2318,NEW
CAMS WHARF,2281,CAMS WHARF2281,NEW
CANADIAN,3350,CANADIAN3350,GEE
CANBERRA,2600,CANBERRA2600,CBR
CANBERRA,2601,CANBERRA2601,CBR
CANBERRA AIRPORT,2609,CANBERRA AIRPORT2609,CBR
CANBERRA BC,2610,CANBERRA BC2610,CBR
CANBERRA INTERNATIONAL AIRPORT,2609,CANBERRA INTERNATIONAL AIRPORT2609,CBR
CANBERRA MC,2610,CANBERRA MC2610,CBR
CANNING BRIDGE APPLECROSS,6153,CANNING BRIDGE APPLECROSS6153,PER
CANNING VALE,6155,CANNING VALE6155,PER
CANNING VALE DC,6155,CANNING VALE DC6155,PER
CANNING VALE DC,6970,CANNING VALE DC6970,PER
CANNING VALE EAST,6155,CANNING VALE EAST6155,PER
CANNING VALE SOUTH,6155,CANNING VALE SOUTH6155,PER
CANNINGTON,6107,CANNINGTON6107,PER
CANNINGTON,6980,CANNINGTON6980,PER
CANNINGTON,6987,CANNINGTON6987,PER
CANNON HILL,4170,CANNON HILL4170,BRI
CANNON VALLEY,4800,CANNON VALLEY4800,MKY
CANNONVALE,4802,CANNONVALE4802,MKY
CANOBOLAS,2800,CANOBOLAS2800,OAG
CANOWINDRA,4209,CANOWINDRA4209,GLD
CANTERBURY,3126,CANTERBURY3126,MEL
CANTON BEACH,2263,CANTON BEACH2263,CCT
CANUNGRA,4275,CANUNGRA4275,GLD
CAPALABA,4157,CAPALABA4157,BRI
CAPALABA BC,4157,CAPALABA BC4157,BRI
CAPALABA DC,4157,CAPALABA DC4157,BRI
CAPALABA WEST,4157,CAPALABA WEST4157,BRI
CAPE SCHANCK,3939,CAPE SCHANCK3939,MEL
CAPEL SOUND,3940,CAPEL SOUND3940,MEL
CAPITAL HILL,2600,CAPITAL HILL2600,CBR
CARABOODA,6033,CARABOODA6033,PER
CARAVONICA,4878,CARAVONICA4878,CNS
CARBROOK,4130,CARBROOK4130,BRI
CARDIFF,2285,CARDIFF2285,NEW
CARDIFF HEIGHTS,2285,CARDIFF HEIGHTS2285,NEW
CARDIFF SOUTH,2285,CARDIFF SOUTH2285,NEW
CARDIGAN,3352,CARDIGAN3352,GEE
CAREY BAY,2283,CAREY BAY2283,NEW
CARINA,4152,CARINA4152,BRI
CARINA HEIGHTS,4152,CARINA HEIGHTS4152,BRI
CARINA NORTH,4152,CARINA NORTH4152,BRI
CARINDALE,4152,CARINDALE4152,BRI
CARINE,6020,CARINE6020,PER
CARLISLE,6101,CARLISLE6101,PER
CARLISLE NORTH,6101,CARLISLE NORTH6101,PER
CARLISLE SOUTH,6101,CARLISLE SOUTH6101,PER
CARLTON,3053,CARLTON3053,MEL
CARLTON NORTH,3054,CARLTON NORTH3054,MEL
CARLTON SOUTH,3053,CARLTON SOUTH3053,MEL
CARNEGIE,3163,CARNEGIE3163,MEL
CAROLE PARK,4300,CAROLE PARK4300,BRI
CAROLINE SPRINGS,3023,CAROLINE SPRINGS3023,MEL
CARPENDALE,4344,CARPENDALE4344,TOO
CARRAMAR,6031,CARRAMAR6031,PER
CARRARA,4211,CARRARA4211,GLD
CARRICK,7291,CARRICK7291,LAU
CARRINGTON,2294,CARRINGTON2294,NEW
CARRINGTON,4350,CARRINGTON4350,TOO
CARRUM,3197,CARRUM3197,MEL
CARRUM DOWNS,3201,CARRUM DOWNS3201,MEL
CARSELDINE,4034,CARSELDINE4034,BRI
CARTWRIGHTS HILL,2650,CARTWRIGHTS HILL2650,YNG
CASEY,2913,CASEY2913,CBR
CASHMERE,4500,CASHMERE4500,BRI
CASINO,2470,CASINO2470,NTH
CASTAWAYS BEACH,4567,CASTAWAYS BEACH4567,SUN
CASTLE HILL,4810,CASTLE HILL4810,TVL
CASTLEMAINE,3450,CASTLEMAINE3450,BEN
CASUARINA,2487,CASUARINA2487,GLD
CASUARINA,6167,CASUARINA6167,PER
CATHERINE HILL BAY,2281,CATHERINE HILL BAY2281,NEW
CAULFIELD,3162,CAULFIELD3162,MEL
CAULFIELD EAST,3145,CAULFIELD EAST3145,MEL
CAULFIELD JUNCTION,3161,CAULFIELD JUNCTION3161,MEL
CAULFIELD NORTH,3161,CAULFIELD NORTH3161,MEL
CAULFIELD SOUTH,3162,CAULFIELD SOUTH3162,MEL
CAUSEWAY,2604,CAUSEWAY2604,CBR
CAVAN,5094,CAVAN5094,ADL
CAVERSHAM,6055,CAVERSHAM6055,PER
CAVES BEACH,2281,CAVES BEACH2281,NEW
CAWDOR,4352,CAWDOR4352,TOO
CEDAR VALE,4285,CEDAR VALE4285,BRI
CENTENARY HEIGHTS,4350,CENTENARY HEIGHTS4350,TOO
CENTENARY PARK,4869,CENTENARY PARK4869,CNS
CENTRAL COAST MC,2252,CENTRAL COAST MC2252,CCT
CENTRAL PLAZA,4001,CENTRAL PLAZA4001,BRI
CENTRAL QUEENSLAND UNIVERSITY,4701,CENTRAL QUEENSLAND UNIVERSITY4701,CAP
CERES,3221,CERES3221,GEE
CESSNOCK,2325,CESSNOCK2325,NEW
CESSNOCK WEST,2325,CESSNOCK WEST2325,NEW
CHADSTONE,3148,CHADSTONE3148,MEL
CHADSTONE CENTRE,3148,CHADSTONE CENTRE3148,MEL
CHAIN VALLEY BAY,2259,CHAIN VALLEY BAY2259,CCT
CHAMBERS FLAT,4133,CHAMBERS FLAT4133,BRI
CHAMPION LAKES,6111,CHAMPION LAKES6111,PER
CHANDLER,4155,CHANDLER4155,BRI
CHANDLERS HILL,5159,CHANDLERS HILL5159,ADL
CHAPEL HILL,4069,CHAPEL HILL4069,BRI
CHAPMAN,2611,CHAPMAN2611,CBR
CHARLEMONT,3217,CHARLEMONT3217,GEE
CHARLES STURT UNIVERSITY,2678,CHARLES STURT UNIVERSITY2678,YNG
CHARLES STURT UNIVERSITY,2795,CHARLES STURT UNIVERSITY2795,OAG
CHARLESTOWN,2290,CHARLESTOWN2290,NEW
CHARLTON,4350,CHARLTON4350,TOO
CHARMHAVEN,2263,CHARMHAVEN2263,CCT
CHARNWOOD,2615,CHARNWOOD2615,CBR
CHARTERS TOWERS,4820,CHARTERS TOWERS4820,TVL
CHARTERS TOWERS CITY,4820,CHARTERS TOWERS CITY4820,TVL
CHARTWELL,3030,CHARTWELL3030,MEL
CHATHAM,2430,CHATHAM2430,PQQ
CHATSWOOD HILLS,4127,CHATSWOOD HILLS4127,BRI
CHELMER,4068,CHELMER4068,BRI
CHELSEA,3196,CHELSEA3196,MEL
CHELSEA HEIGHTS,3196,CHELSEA HEIGHTS3196,MEL
CHELTENHAM,3192,CHELTENHAM3192,MEL
CHELTENHAM,5014,CHELTENHAM5014,ADL
CHELTENHAM EAST,3192,CHELTENHAM EAST3192,MEL
CHELTENHAM NORTH,3192,CHELTENHAM NORTH3192,MEL
CHERMSIDE,4032,CHERMSIDE4032,BRI
CHERMSIDE BC,4032,CHERMSIDE BC4032,BRI
CHERMSIDE CENTRE,4032,CHERMSIDE CENTRE4032,BRI
CHERMSIDE SOUTH,4032,CHERMSIDE SOUTH4032,BRI
CHERMSIDE WEST,4032,CHERMSIDE WEST4032,BRI
CHEVALLUM,4555,CHEVALLUM4555,SUN
CHEVRON ISLAND,4217,CHEVRON ISLAND4217,GLD
CHEWTON,3451,CHEWTON3451,BEN
CHIFLEY,2606,CHIFLEY2606,CBR
CHIGWELL,7011,CHIGWELL7011,TAS
CHILCOTTS GRASS,2480,CHILCOTTS GRASS2480,NTH
CHILDERS,4660,CHILDERS4660,BDB
CHILTERN,3683,CHILTERN3683,ALB
CHINDERAH,2487,CHINDERAH2487,GLD
CHIRN PARK,4215,CHIRN PARK4215,GLD
CHIRNSIDE PARK,3116,CHIRNSIDE PARK3116,MEL
CHISHOLM,2322,CHISHOLM2322,NEW
CHISHOLM,2905,CHISHOLM2905,CBR
CHITTAWAY BAY,2261,CHITTAWAY BAY2261,CCT
CHITTAWAY POINT,2261,CHITTAWAY POINT2261,CCT
CHRISTIE DOWNS,5164,CHRISTIE DOWNS5164,ADL
CHRISTIES BEACH,5165,CHRISTIES BEACH5165,ADL
CHRISTIES BEACH NORTH,5165,CHRISTIES BEACH NORTH5165,ADL
CHURCHILL,4305,CHURCHILL4305,BRI
CHURCHLANDS,6018,CHURCHLANDS6018,PER
CITY,2601,CITY2601,CBR
CITY BEACH,6015,CITY BEACH6015,PER
CITY DELIVERY CENTRE,6000,CITY DELIVERY CENTRE6000,PER
CITY EAST,4002,CITY EAST4002,BRI
CITY WEST CAMPUS,5000,CITY WEST CAMPUS5000,ADL
CIVIC SQUARE,2608,CIVIC SQUARE2608,CBR
CLAGIRABA,4211,CLAGIRABA4211,GLD
CLAPHAM,5062,CLAPHAM5062,ADL
CLAREMONT,6010,CLAREMONT6010,PER
CLAREMONT,6910,CLAREMONT6910,PER
CLAREMONT,7011,CLAREMONT7011,TAS
CLAREMONT NORTH,6010,CLAREMONT NORTH6010,PER
CLARENCE GARDENS,5039,CLARENCE GARDENS5039,ADL
CLARENCE PARK,5034,CLARENCE PARK5034,ADL
CLARENDON VALE,7019,CLARENDON VALE7019,TAS
CLARINDA,3169,CLARINDA3169,MEL
CLARKSON,6030,CLARKSON6030,PER
CLAYFIELD,4011,CLAYFIELD4011,BRI
CLAYTON,3168,CLAYTON3168,MEL
CLAYTON SOUTH,3169,CLAYTON SOUTH3169,MEL
CLEAR ISLAND WATERS,4226,CLEAR ISLAND WATERS4226,GLD
CLEARVIEW,5085,CLEARVIEW5085,ADL
CLEMANT,4816,CLEMANT4816,TVL
CLEVELAND,2530,CLEVELAND2530,WOL
CLEVELAND,4163,CLEVELAND4163,BRI
CLEVELAND DC,4163,CLEVELAND DC4163,BRI
CLIFFORD GARDENS,4350,CLIFFORD GARDENS4350,TOO
CLIFTLEIGH,2321,CLIFTLEIGH2321,NEW
CLIFTON,2515,CLIFTON2515,WOL
CLIFTON,4361,CLIFTON4361,TOO
CLIFTON BEACH,4879,CLIFTON BEACH4879,CNS
CLIFTON GROVE,2800,CLIFTON GROVE2800,OAG
CLIFTON HILL,3068,CLIFTON HILL3068,MEL
CLIFTON HILL,4105,CLIFTON HILL4105,BRI
CLIFTON SPRINGS,3222,CLIFTON SPRINGS3222,GEE
CLOISTERS SQUARE,6850,CLOISTERS SQUARE6850,PER
CLOISTERS SQUARE PO,6850,CLOISTERS SQUARE PO6850,PER
CLONTARF,4019,CLONTARF4019,BRI
CLONTARF BEACH,4019,CLONTARF BEACH4019,BRI
CLONTARF DC,4019,CLONTARF DC4019,BRI
CLOTHIERS CREEK,2484,CLOTHIERS CREEK2484,GLD
CLOVELLY PARK,5042,CLOVELLY PARK5042,ADL
CLOVERDALE,6105,CLOVERDALE6105,PER
CLOVERDALE,6985,CLOVERDALE6985,PER
CLUDEN,4811,CLUDEN4811,TVL
COAL POINT,2283,COAL POINT2283,NEW
COALCLIFF,2508,COALCLIFF2508,WOL
COALFALLS,4305,COALFALLS4305,BRI
COBURG,3058,COBURG3058,MEL
COBURG NORTH,3058,COBURG NORTH3058,MEL
COCKATOO VALLEY,5351,COCKATOO VALLEY5351,ADL
COCKBURN CENTRAL,6164,COCKBURN CENTRAL6164,PER
COES CREEK,4560,COES CREEK4560,SUN
COFFS HARBOUR,2450,COFFS HARBOUR2450,CFS
COFFS HARBOUR JETTY,2450,COFFS HARBOUR JETTY2450,CFS
COFFS HARBOUR PLAZA,2450,COFFS HARBOUR PLAZA2450,CFS
COLAC,3250,COLAC3250,GEE
COLAC EAST,3250,COLAC EAST3250,GEE
COLAC WEST,3250,COLAC WEST3250,GEE
COLEDALE,2515,COLEDALE2515,WOL
COLLEGE PARK,5069,COLLEGE PARK5069,ADL
COLLEGE VIEW,4343,COLLEGE VIEW4343,TOO
COLLINGWOOD,3066,COLLINGWOOD3066,MEL
COLLINGWOOD NORTH,3066,COLLINGWOOD NORTH3066,MEL
COLLINGWOOD PARK,4301,COLLINGWOOD PARK4301,BRI
COLLINS STREET EAST,8003,COLLINS STREET EAST8003,MEL
COLLINS STREET WEST,8007,COLLINS STREET WEST8007,MEL
COLLINSWOOD,5081,COLLINSWOOD5081,ADL
COLMSLIE,4170,COLMSLIE4170,BRI
COLO VALE,2575,COLO VALE2575,WOL
COLONEL LIGHT GARDENS,5041,COLONEL LIGHT GARDENS5041,ADL
COLONGRA,2262,COLONGRA2262,CCT
COLUMBIA,4820,COLUMBIA4820,TVL
COMO,6152,COMO6152,PER
COMO,6952,COMO6952,PER
CONCORDIA,5118,CONCORDIA5118,ADL
CONDER,2906,CONDER2906,CBR
CONDON,4815,CONDON4815,TVL
CONDONG,2484,CONDONG2484,GLD
CONINGSBY,4740,CONINGSBY4740,MKY
CONISTON,2500,CONISTON2500,WOL
CONNEWARRE,3227,CONNEWARRE3227,GEE
CONNOLLY,6027,CONNOLLY6027,PER
COODANUP,6210,COODANUP6210,PER
COOEE,7320,COOEE7320,DPO
COOEE BAY,4703,COOEE BAY4703,CAP
COOGEE,6166,COOGEE6166,PER
COOK,2614,COOK2614,CBR
COOKS HILL,2300,COOKS HILL2300,NEW
COOLANGATTA,2535,COOLANGATTA2535,WOL
COOLANGATTA,4225,COOLANGATTA4225,GLD
COOLAROO,3048,COOLAROO3048,MEL
COOLBELLUP,6163,COOLBELLUP6163,PER
COOLBINIA,6050,COOLBINIA6050,PER
COOLOONGUP,6168,COOLOONGUP6168,PER
COOLUM BEACH,4573,COOLUM BEACH4573,SUN
COOMBABAH,4216,COOMBABAH4216,GLD
COOMBS,2611,COOMBS2611,CBR
COOMERA,4209,COOMERA4209,GLD
COOPERS PLAINS,4108,COOPERS PLAINS4108,BRI
COORANBONG,2265,COORANBONG2265,NEW
COOROY,4563,COOROY4563,SUN
COOROY MOUNTAIN,4563,COOROY MOUNTAIN4563,SUN
COORPAROO,4151,COORPAROO4151,BRI
COORPAROO BC,4151,COORPAROO BC4151,BRI
COORPAROO DC,4151,COORPAROO DC4151,BRI
COOTAMUNDRA,2590,COOTAMUNDRA2590,YNG
COOYA BEACH,4873,COOYA BEACH4873,CNS
COPACABANA,2251,COPACABANA2251,CCT
CORAL COVE,4670,CORAL COVE4670,BDB
CORBOULD PARK,4551,CORBOULD PARK4551,SUN
CORDALBA,4660,CORDALBA4660,BDB
CORDEAUX,2526,CORDEAUX2526,WOL
CORDEAUX HEIGHTS,2526,CORDEAUX HEIGHTS2526,WOL
CORINDA,4075,CORINDA4075,BRI
CORINDI BEACH,2456,CORINDI BEACH2456,CFS
CORIO,3214,CORIO3214,GEE
CORLETTE,2315,CORLETTE2315,NEW
CORNELIAN BAY,7008,CORNELIAN BAY7008,TAS
CORNUBIA,4130,CORNUBIA4130,BRI
COROMANDEL VALLEY,5051,COROMANDEL VALLEY5051,ADL
COROWA,2646,COROWA2646,ALB
CORRIMAL,2518,CORRIMAL2518,WOL
CORRIMAL EAST,2518,CORRIMAL EAST2518,WOL
COSGROVE,4818,COSGROVE4818,TVL
COTSWOLD HILLS,4350,COTSWOLD HILLS4350,TOO
COTTESLOE,6011,COTTESLOE6011,PER
COTTESLOE,6911,COTTESLOE6911,PER
COTTON TREE,4558,COTTON TREE4558,SUN
COTTONVALE,4375,COTTONVALE4375,TOO
COURIDJAH,2571,COURIDJAH2571,WOL
COWANDILLA,5033,COWANDILLA5033,ADL
COWRA,2794,COWRA2794,YNG
CRACE,2911,CRACE2911,CBR
CRAIGBURN FARM,5051,CRAIGBURN FARM5051,ADL
CRAIGIE,6025,CRAIGIE6025,PER
CRAIGIEBURN,3064,CRAIGIEBURN3064,MEL
CRAIGLIE,4877,CRAIGLIE4877,CNS
CRAIGMORE,5114,CRAIGMORE5114,ADL
CRAIGNISH,4655,CRAIGNISH4655,MYB
CRAIGSLEA,4032,CRAIGSLEA4032,BRI
CRANBOURNE,3977,CRANBOURNE3977,MEL
CRANBOURNE EAST,3977,CRANBOURNE EAST3977,MEL
CRANBOURNE NORTH,3977,CRANBOURNE NORTH3977,MEL
CRANBOURNE SOUTH,3977,CRANBOURNE SOUTH3977,MEL
CRANBOURNE WEST,3977,CRANBOURNE WEST3977,MEL
CRANBROOK,4814,CRANBROOK4814,TVL
CRANGAN BAY,2259,CRANGAN BAY2259,CCT
CRANLEY,4350,CRANLEY4350,TOO
CRAWLEY,6009,CRAWLEY6009,PER
CREMORNE,3121,CREMORNE3121,MEL
CREMORNE,4740,CREMORNE4740,MKY
CRESTMEAD,4132,CRESTMEAD4132,BRI
CRESTMEAD DC,4132,CRESTMEAD DC4132,BRI
CRESTWOOD,2620,CRESTWOOD2620,CBR
CRIB POINT,3919,CRIB POINT3919,MEL
CRIMEA,4816,CRIMEA4816,TVL
CRINGILA,2502,CRINGILA2502,WOL
CROMARTY,4809,CROMARTY4809,TVL
CROOM,2527,CROOM2527,WOL
CROSSLANDS,2446,CROSSLANDS2446,PQQ
CROUDACE BAY,2280,CROUDACE BAY2280,NEW
CROWLEY VALE,4342,CROWLEY VALE4342,TOO
CROWS NEST,4355,CROWS NEST4355,TOO
CROYDON,3136,CROYDON3136,MEL
CROYDON,5008,CROYDON5008,ADL
CROYDON HILLS,3136,CROYDON HILLS3136,MEL
CROYDON NORTH,3136,CROYDON NORTH3136,MEL
CROYDON PARK,5008,CROYDON PARK5008,ADL
CROYDON PARK SOUTH,5008,CROYDON PARK SOUTH5008,ADL
CROYDON SOUTH,3136,CROYDON SOUTH3136,MEL
CUDGEN,2487,CUDGEN2487,GLD
CULLINANE,4860,CULLINANE4860,CNS
CUMBALUM,2478,CUMBALUM2478,NTH
CUMBERLAND PARK,5041,CUMBERLAND PARK5041,ADL
CUNDLETOWN,2430,CUNDLETOWN2430,PQQ
CURLEWIS,3222,CURLEWIS3222,GEE
CURRAJONG,4812,CURRAJONG4812,TVL
CURRAMBINE,6028,CURRAMBINE6028,PER
CURRAMORE,2533,CURRAMORE2533,WOL
CURRIMUNDI,4551,CURRIMUNDI4551,SUN
CURRUMBIN,4223,CURRUMBIN4223,GLD
CURRUMBIN DC,4223,CURRUMBIN DC4223,GLD
CURRUMBIN WATERS,4223,CURRUMBIN WATERS4223,GLD
CURTIN,2605,CURTIN2605,CBR
CYPRESS GARDENS,4218,CYPRESS GARDENS4218,GLD
DAGLISH,6008,DAGLISH6008,PER
DAISY HILL,4127,DAISY HILL4127,BRI
DAKABIN,4503,DAKABIN4503,BRI
DALBY,4405,DALBY4405,TOO
DALEYS POINT,2257,DALEYS POINT2257,CCT
DALKEITH,6009,DALKEITH6009,PER
DALLAS,3047,DALLAS3047,MEL
DALVEEN,4374,DALVEEN4374,TOO
DANDENONG,3175,DANDENONG3175,MEL
DANDENONG EAST,3175,DANDENONG EAST3175,MEL
DANDENONG NORTH,3175,DANDENONG NORTH3175,MEL
DANDENONG PLAZA,3175,DANDENONG PLAZA3175,MEL
DANDENONG SOUTH,3164,DANDENONG SOUTH3164,MEL
DANDENONG SOUTH,3175,DANDENONG SOUTH3175,MEL
DAPTO,2530,DAPTO2530,WOL
DARADGEE,4860,DARADGEE4860,CNS
DARAWANK,2428,DARAWANK2428,PQQ
DARCH,6065,DARCH6065,PER
DARKES FOREST,2508,DARKES FOREST2508,WOL
DARLEY,3340,DARLEY3340,MEL
DARLING DOWNS,6122,DARLING DOWNS6122,PER
DARLING HEIGHTS,4350,DARLING HEIGHTS4350,TOO
DARLINGTON,2330,DARLINGTON2330,NEW
DARLINGTON,5047,DARLINGTON5047,ADL
DARLINGTON,6070,DARLINGTON6070,PER
DARRA,4076,DARRA4076,BRI
DAVISTOWN,2251,DAVISTOWN2251,CCT
DAVOREN PARK,5113,DAVOREN PARK5113,ADL
DAVOREN PARK NORTH,5113,DAVOREN PARK NORTH5113,ADL
DAVOREN PARK SOUTH,5113,DAVOREN PARK SOUTH5113,ADL
DAW PARK,5041,DAW PARK5041,ADL
DAWESVILLE,6211,DAWESVILLE6211,PER
DAYTON,6055,DAYTON6055,PER
DEAGON,4017,DEAGON4017,BRI
DEAKIN,2600,DEAKIN2600,CBR
DEAKIN UNIVERSITY,3217,DEAKIN UNIVERSITY3217,GEE
DEAKIN WEST,2600,DEAKIN WEST2600,CBR
DEANSIDE,3336,DEANSIDE3336,MEL
DECEPTION BAY,4508,DECEPTION BAY4508,BRI
DEEPDENE,3103,DEEPDENE3103,MEL
DEEPDENE DC,3103,DEEPDENE DC3103,MEL
DEER PARK,3023,DEER PARK3023,MEL
DEER PARK EAST,3022,DEER PARK EAST3022,MEL
DEER PARK NORTH,3023,DEER PARK NORTH3023,MEL
DEERAGUN,4818,DEERAGUN4818,TVL
DEERAL,4871,DEERAL4871,CNS
DELACOMBE,3356,DELACOMBE3356,GEE
DELAHEY,3037,DELAHEY3037,MEL
DELORAINE,7304,DELORAINE7304,LAU
DELTA,4805,DELTA4805,MKY
DENMAN PROSPECT,2611,DENMAN PROSPECT2611,CBR
DEPOT HILL,4700,DEPOT HILL4700,CAP
DERNANCOURT,5075,DERNANCOURT5075,ADL
DERRIMUT,3026,DERRIMUT3026,MEL
DERRIMUT,3030,DERRIMUT3030,MEL
DERWENT PARK,7009,DERWENT PARK7009,TAS
DEVON HILLS,7300,DEVON HILLS7300,LAU
DEVON MEADOWS,3977,DEVON MEADOWS3977,MEL
DEVON PARK,5008,DEVON PARK5008,ADL
DEVONPORT,7310,DEVONPORT7310,DPO
DIAMOND BEACH,2430,DIAMOND BEACH2430,PQQ
DIAMOND HEAD,4551,DIAMOND HEAD4551,SUN
DIANELLA,6059,DIANELLA6059,PER
DICKS HILL,2443,DICKS HILL2443,PQQ
DICKSON,2602,DICKSON2602,CBR
DICKY BEACH,4551,DICKY BEACH4551,SUN
DIDDILLIBAH,4559,DIDDILLIBAH4559,SUN
DIGGERS REST,3427,DIGGERS REST3427,MEL
DILSTON,7252,DILSTON7252,LAU
DINGLEY,3172,DINGLEY3172,MEL
DINGLEY VILLAGE,3172,DINGLEY VILLAGE3172,MEL
DINMORE,4303,DINMORE4303,BRI
DIREK,5110,DIREK5110,ADL
DOBOY,4174,DOBOY4174,BRI
DOCKLANDS,3008,DOCKLANDS3008,MEL
DOCKLANDS,8012,DOCKLANDS8012,MEL
DOCTORS ROCKS,7325,DOCTORS ROCKS7325,DPO
DODSWORTH,2620,DODSWORTH2620,CBR
DOG SWAMP,6060,DOG SWAMP6060,PER
DOHLES ROCKS,4503,DOHLES ROCKS4503,BRI
DOLPHIN HEADS,4740,DOLPHIN HEADS4740,MKY
DON,7310,DON7310,DPO
DONCASTER,3108,DONCASTER3108,MEL
DONCASTER EAST,3109,DONCASTER EAST3109,MEL
DONCASTER HEIGHTS,3109,DONCASTER HEIGHTS3109,MEL
DONNELLYVILLE,2447,DONNELLYVILLE2447,CFS
DONVALE,3111,DONVALE3111,MEL
DOOLANDELLA,4077,DOOLANDELLA4077,BRI
DOOMBEN,4007,DOOMBEN4007,BRI
DOONAN,4562,DOONAN4562,SUN
DORA CREEK,2264,DORA CREEK2264,NEW
DOREEN,3754,DOREEN3754,MEL
DORRIGO,2453,DORRIGO2453,CFS
DORRIGO MOUNTAIN,2453,DORRIGO MOUNTAIN2453,CFS
DORRINGTON,4060,DORRINGTON4060,BRI
DOTSWOOD,4820,DOTSWOOD4820,TVL
DOUBLEVIEW,6018,DOUBLEVIEW6018,PER
DOUGLAS,4814,DOUGLAS4814,TVL
DOVER GARDENS,5048,DOVER GARDENS5048,ADL
DOVETON,3177,DOVETON3177,MEL
DOWNER,2602,DOWNER2602,CBR
DOWNLANDS,7320,DOWNLANDS7320,DPO
DOWSING POINT,7010,DOWSING POINT7010,TAS
DOYALSON,2262,DOYALSON2262,CCT
DOYALSON NORTH,2262,DOYALSON NORTH2262,CCT
DRAPER,4520,DRAPER4520,BRI
DRAYTON,4350,DRAYTON4350,TOO
DRAYTON NORTH,4350,DRAYTON NORTH4350,TOO
DREWVALE,4116,DREWVALE4116,BRI
DROMANA,3936,DROMANA3936,MEL
DRUMCONDRA,3215,DRUMCONDRA3215,GEE
DRY CREEK,5094,DRY CREEK5094,ADL
DRYSDALE,3222,DRYSDALE3222,GEE
DUDLEY,2290,DUDLEY2290,NEW
DUDLEY PARK,5008,DUDLEY PARK5008,ADL
DUDLEY PARK,6210,DUDLEY PARK6210,PER
DUFFY,2611,DUFFY2611,CBR
DULONG,4560,DULONG4560,SUN
DULWICH,5065,DULWICH5065,ADL
DUMARESQ ISLAND,2430,DUMARESQ ISLAND2430,PQQ
DUNBOGAN,2443,DUNBOGAN2443,PQQ
DUNCRAIG,6023,DUNCRAIG6023,PER
DUNDATHU,4650,DUNDATHU4650,MYB
DUNDOWRAN,4655,DUNDOWRAN4655,MYB
DUNDOWRAN BEACH,4655,DUNDOWRAN BEACH4655,MYB
DUNDULA,4740,DUNDULA4740,MKY
DUNLOP,2615,DUNLOP2615,CBR
DUNMORE,2529,DUNMORE2529,WOL
DUNOLLY,2330,DUNOLLY2330,NEW
DUNTROON,2600,DUNTROON2600,CBR
DURACK,4077,DURACK4077,BRI
DURANBAH,2487,DURANBAH2487,GLD
DUTTON PARK,4102,DUTTON PARK4102,BRI
DYNNYRNE,7005,DYNNYRNE7005,TAS
EAGLE FARM,4009,EAGLE FARM4009,BRI
EAGLE FARM BC,4009,EAGLE FARM BC4009,BRI
EAGLE HEIGHTS,4271,EAGLE HEIGHTS4271,GLD
EAGLE JUNCTION,4011,EAGLE JUNCTION4011,BRI
EAGLEBY,4207,EAGLEBY4207,BRI
EAGLEHAWK,3556,EAGLEHAWK3556,BEN
EAGLEMONT,3084,EAGLEMONT3084,MEL
EARLVILLE,4870,EARLVILLE4870,CNS
EARLVILLE BC,4870,EARLVILLE BC4870,CNS
EAST ALBURY,2640,EAST ALBURY2640,ALB
EAST BALLINA,2478,EAST BALLINA2478,NTH
EAST BENDIGO,3550,EAST BENDIGO3550,BEN
EAST BOWRAL,2576,EAST BOWRAL2576,WOL
EAST BRANXTON,2335,EAST BRANXTON2335,NEW
EAST BRISBANE,4169,EAST BRISBANE4169,BRI
EAST CANNINGTON,6107,EAST CANNINGTON6107,PER
EAST CORRIMAL,2518,EAST CORRIMAL2518,WOL
EAST DEVONPORT,7310,EAST DEVONPORT7310,DPO
EAST FREMANTLE,6158,EAST FREMANTLE6158,PER
EAST GEELONG,3219,EAST GEELONG3219,GEE
EAST GOSFORD,2250,EAST GOSFORD2250,CCT
EAST GREENMOUNT,4359,EAST GREENMOUNT4359,TOO
EAST INNISFAIL,4860,EAST INNISFAIL4860,CNS
EAST IPSWICH,4305,EAST IPSWICH4305,BRI
EAST KEMPSEY,2440,EAST KEMPSEY2440,PQQ
EAST LAUNCESTON,7250,EAST LAUNCESTON7250,LAU
EAST LISMORE,2480,EAST LISMORE2480,NTH
EAST MACKAY,4740,EAST MACKAY4740,MKY
EAST MAITLAND,2323,EAST MAITLAND2323,NEW
EAST MELBOURNE,3002,EAST MELBOURNE3002,MEL
EAST PERTH,6004,EAST PERTH6004,PER
EAST PERTH,6892,EAST PERTH6892,PER
EAST ROCKINGHAM,6168,EAST ROCKINGHAM6168,PER
EAST TOOWOOMBA,4350,EAST TOOWOOMBA4350,TOO
EAST VICTORIA PARK,6101,EAST VICTORIA PARK6101,PER
EAST VICTORIA PARK,6981,EAST VICTORIA PARK6981,PER
EAST WAGGA WAGGA,2650,EAST WAGGA WAGGA2650,YNG
EAST WANGARATTA,3678,EAST WANGARATTA3678,ALB
EASTERN HEIGHTS,4305,EASTERN HEIGHTS4305,BRI
EASTWOOD,5063,EASTWOOD5063,ADL
EATONS HILL,4037,EATONS HILL4037,BRI
EBBW VALE,4304,EBBW VALE4304,BRI
EDEN HILL,6054,EDEN HILL6054,PER
EDEN HILLS,5050,EDEN HILLS5050,ADL
EDENS LANDING,4207,EDENS LANDING4207,BRI
EDGE HILL,4870,EDGE HILL4870,CNS
EDGEWATER,6027,EDGEWATER6027,PER
EDGEWORTH,2285,EDGEWORTH2285,NEW
EDINBURGH,5111,EDINBURGH5111,ADL
EDINBURGH NORTH,5113,EDINBURGH NORTH5113,ADL
EDITHVALE,3196,EDITHVALE3196,MEL
EDMONTON,4869,EDMONTON4869,CNS
EDWARDSTOWN,5039,EDWARDSTOWN5039,ADL
EGLINTON,2795,EGLINTON2795,OAG
EGLINTON,6034,EGLINTON6034,PER
EIGHT MILE PLAINS,4113,EIGHT MILE PLAINS4113,BRI
EILDON HILL,4030,EILDON HILL4030,BRI
EIMEO,4740,EIMEO4740,MKY
EKIBIN,4121,EKIBIN4121,BRI
EL ARISH,4855,EL ARISH4855,CNS
ELANORA,4221,ELANORA4221,GLD
ELEEBANA,2282,ELEEBANA2282,NEW
ELERMORE VALE,2287,ELERMORE VALE2287,NEW
ELI WATERS,4655,ELI WATERS4655,MYB
ELIZABETH,5112,ELIZABETH5112,ADL
ELIZABETH DOWNS,5113,ELIZABETH DOWNS5113,ADL
ELIZABETH EAST,5112,ELIZABETH EAST5112,ADL
ELIZABETH GROVE,5112,ELIZABETH GROVE5112,ADL
ELIZABETH NORTH,5113,ELIZABETH NORTH5113,ADL
ELIZABETH PARK,5113,ELIZABETH PARK5113,ADL
ELIZABETH SOUTH,5112,ELIZABETH SOUTH5112,ADL
ELIZABETH TOWN,7304,ELIZABETH TOWN7304,LAU
ELIZABETH VALE,5112,ELIZABETH VALE5112,ADL
ELIZABETH WEST,5113,ELIZABETH WEST5113,ADL
ELIZABETH WEST DC,5113,ELIZABETH WEST DC5113,ADL
ELLEN GROVE,4078,ELLEN GROVE4078,BRI
ELLENBROOK,6069,ELLENBROOK6069,PER
ELLENBROOK EAST,6069,ELLENBROOK EAST6069,PER
ELLIMINYT,3250,ELLIMINYT3250,GEE
ELLIOTT,4670,ELLIOTT4670,BDB
ELLIOTT HEADS,4670,ELLIOTT HEADS4670,BDB
ELLIS BEACH,4879,ELLIS BEACH4879,CNS
ELPHIN,7250,ELPHIN7250,LAU
ELPHINSTONE,3448,ELPHINSTONE3448,BEN
ELSTERNWICK,3185,ELSTERNWICK3185,MEL
ELTHAM,3095,ELTHAM3095,MEL
ELTHAM NORTH,3095,ELTHAM NORTH3095,MEL
ELWICK,7010,ELWICK7010,TAS
ELWOOD,3184,ELWOOD3184,MEL
EMBLETON,6062,EMBLETON6062,PER
EMERALD BEACH,2456,EMERALD BEACH2456,CFS
EMPIRE BAY,2257,EMPIRE BAY2257,CCT
EMU HEIGHTS,7320,EMU HEIGHTS7320,DPO
EMU PARK,4710,EMU PARK4710,CAP
ENDEAVOUR HILLS,3802,ENDEAVOUR HILLS3802,MEL
ENFIELD,5085,ENFIELD5085,ADL
ENFIELD PLAZA,5085,ENFIELD PLAZA5085,ADL
ENOGGERA,4051,ENOGGERA4051,BRI
ENVIRONA,2620,ENVIRONA2620,CBR
EPPING,3076,EPPING3076,MEL
EPPING DC,3076,EPPING DC3076,MEL
EPSOM,3551,EPSOM3551,BEN
ERARING,2264,ERARING2264,NEW
ERINA,2250,ERINA2250,CCT
ERINA FAIR,2250,ERINA FAIR2250,CCT
ERINA HEIGHTS,2260,ERINA HEIGHTS2260,CCT
ERINDALE,5066,ERINDALE5066,ADL
ERINDALE CENTRE,2903,ERINDALE CENTRE2903,CBR
EROBIN,4160,EROBIN4160,BRI
ERSKINE,6210,ERSKINE6210,PER
ESSENDON,3040,ESSENDON3040,MEL
ESSENDON FIELDS,3041,ESSENDON FIELDS3041,MEL
ESSENDON NORTH,3041,ESSENDON NORTH3041,MEL
ESSENDON WEST,3040,ESSENDON WEST3040,MEL
ESTELLA,2650,ESTELLA2650,YNG
ETHELTON,5015,ETHELTON5015,ADL
ETTALONG BEACH,2257,ETTALONG BEACH2257,CCT
ETTAMOGAH,2640,ETTAMOGAH2640,ALB
EUDLO,4554,EUDLO4554,SUN
EUMEMMERRING,3177,EUMEMMERRING3177,MEL
EUMUNDI,4562,EUMUNDI4562,SUN
EUNGAI CREEK,2441,EUNGAI CREEK2441,CFS
EUNGAI RAIL,2441,EUNGAI RAIL2441,CFS
EUREKA,3350,EUREKA3350,GEE
EUROBIN,3739,EUROBIN3739,ALB
EVANDALE,5069,EVANDALE5069,ADL
EVANDALE,7212,EVANDALE7212,LAU
EVANS HEAD,2473,EVANS HEAD2473,NTH
EVANSTON,5116,EVANSTON5116,ADL
EVANSTON GARDENS,5116,EVANSTON GARDENS5116,ADL
EVANSTON PARK,5116,EVANSTON PARK5116,ADL
EVANSTON SOUTH,5116,EVANSTON SOUTH5116,ADL
EVATT,2617,EVATT2617,CBR
EVERARD PARK,5035,EVERARD PARK5035,ADL
EVERTON,3678,EVERTON3678,ALB
EVERTON HILLS,4053,EVERTON HILLS4053,BRI
EVERTON PARK,4053,EVERTON PARK4053,BRI
EVERTON UPPER,3678,EVERTON UPPER3678,ALB
EWINGSDALE,2481,EWINGSDALE2481,NTH
EXETER,2579,EXETER2579,WOL
EXETER,5019,EXETER5019,ADL
EXETER,7275,EXETER7275,LAU
EXPORT PARK,5950,EXPORT PARK5950,ADL
EXTON,7303,EXTON7303,LAU
FADDEN,2904,FADDEN2904,CBR
FAILFORD,2430,FAILFORD2430,PQQ
FAIRBAIRN RAAF,2600,FAIRBAIRN RAAF2600,CBR
FAIRFIELD,3078,FAIRFIELD3078,MEL
FAIRFIELD,4103,FAIRFIELD4103,BRI
FAIRFIELD GARDENS,4103,FAIRFIELD GARDENS4103,BRI
FAIRVIEW PARK,5126,FAIRVIEW PARK5126,ADL
FAIRY BOWER,4700,FAIRY BOWER4700,CAP
FAIRY MEADOW,2519,FAIRY MEADOW2519,WOL
FAIRYMEAD,4670,FAIRYMEAD4670,BDB
FALCON,6210,FALCON6210,PER
FALLS CREEK,2540,FALLS CREEK2540,WOL
FARLEIGH,4741,FARLEIGH4741,MKY
FARLEY,2320,FARLEY2320,NEW
FARMBOROUGH HEIGHTS,2526,FARMBOROUGH HEIGHTS2526,WOL
FARNBOROUGH,4703,FARNBOROUGH4703,CAP
FARRER,2607,FARRER2607,CBR
FASSIFERN,2283,FASSIFERN2283,NEW
FAULCONBRIDGE,2776,FAULCONBRIDGE2776,SYD
FAWKNER,3060,FAWKNER3060,MEL
FAWKNER EAST,3060,FAWKNER EAST3060,MEL
FAWKNER NORTH,3060,FAWKNER NORTH3060,MEL
FELIXSTOW,5070,FELIXSTOW5070,ADL
FELUGA,4854,FELUGA4854,CNS
FENNELL BAY,2283,FENNELL BAY2283,NEW
FERN BAY,2295,FERN BAY2295,NEW
FERNBANK CREEK,2444,FERNBANK CREEK2444,PQQ
FERNDALE,6148,FERNDALE6148,PER
FERNHILL,2519,FERNHILL2519,WOL
FERNMOUNT,2454,FERNMOUNT2454,CFS
FERNTREE GULLY,3156,FERNTREE GULLY3156,MEL
FERNVALE,4306,FERNVALE4306,TOO
FERNY GROVE,4055,FERNY GROVE4055,BRI
FERNY HILLS,4055,FERNY HILLS4055,BRI
FERNY HILLS DC,4055,FERNY HILLS DC4055,BRI
FERODALE,2318,FERODALE2318,NEW
FERRYDEN PARK,5010,FERRYDEN PARK5010,ADL
FIG TREE POCKET,4069,FIG TREE POCKET4069,BRI
FIGTREE,2525,FIGTREE2525,WOL
FINDON,5023,FINDON5023,ADL
FINGAL,3939,FINGAL3939,MEL
FINGAL BAY,2315,FINGAL BAY2315,NEW
FINGAL HEAD,2487,FINGAL HEAD2487,GLD
FINNIE,4350,FINNIE4350,TOO
FIRLE,5070,FIRLE5070,ADL
FISHER,2611,FISHER2611,CBR
FISHERMANS BAY,2316,FISHERMANS BAY2316,NEW
FISHERY FALLS,4871,FISHERY FALLS4871,CNS
FISHING POINT,2283,FISHING POINT2283,NEW
FITZGIBBON,4018,FITZGIBBON4018,BRI
FITZROY,3065,FITZROY3065,MEL
FITZROY,5082,FITZROY5082,ADL
FITZROY,8557,FITZROY8557,MEL
FITZROY NORTH,3068,FITZROY NORTH3068,MEL
FIVE WAYS,3977,FIVE WAYS3977,MEL
FLAGSTAFF GULLY,7015,FLAGSTAFF GULLY7015,TAS
FLAGSTAFF HILL,5159,FLAGSTAFF HILL5159,ADL
FLAGSTONE,4280,FLAGSTONE4280,BRI
FLAMETREE,4802,FLAMETREE4802,MKY
FLAXTON,4560,FLAXTON4560,SUN
FLEMINGTON,3031,FLEMINGTON3031,MEL
FLETCHER,2287,FLETCHER2287,NEW
FLETCHER,4381,FLETCHER4381,TOO
FLINDERS,2529,FLINDERS2529,WOL
FLINDERS,3929,FLINDERS3929,MEL
FLINDERS LANE,8009,FLINDERS LANE8009,MEL
FLINDERS NAVAL DEPOT,3920,FLINDERS NAVAL DEPOT3920,MEL
FLINDERS PARK,5025,FLINDERS PARK5025,ADL
FLINDERS UNIVERSITY,5042,FLINDERS UNIVERSITY5042,ADL
FLINDERS VIEW,4305,FLINDERS VIEW4305,BRI
FLORA HILL,3550,FLORA HILL3550,BEN
FLORAVILLE,2280,FLORAVILLE2280,NEW
FLOREAT,6014,FLOREAT6014,PER
FLOREAT FORUM,6014,FLOREAT FORUM6014,PER
FLOREY,2615,FLOREY2615,CBR
FLORIDA GARDENS,4218,FLORIDA GARDENS4218,GLD
FLYNN,2615,FLYNN2615,CBR
FLYNNS BEACH,2444,FLYNNS BEACH2444,PQQ
FOOTSCRAY,3011,FOOTSCRAY3011,MEL
FORDE,2914,FORDE2914,CBR
FOREST GLADE,4306,FOREST GLADE4306,BRI
FOREST GLEN,4556,FOREST GLEN4556,SUN
FOREST HILL,2651,FOREST HILL2651,YNG
FOREST HILL,3131,FOREST HILL3131,MEL
FOREST HILL,4342,FOREST HILL4342,TOO
FOREST LAKE,4078,FOREST LAKE4078,BRI
FORESTDALE,4118,FORESTDALE4118,BRI
FORESTVILLE,5035,FORESTVILLE5035,ADL
FORREST,2603,FORREST2603,CBR
FORRESTDALE,6112,FORRESTDALE6112,PER
FORRESTERS BEACH,2260,FORRESTERS BEACH2260,CCT
FORRESTFIELD,6058,FORRESTFIELD6058,PER
FORSTER,2428,FORSTER2428,PQQ
FORSTER SHOPPING VILLAGE,2428,FORSTER SHOPPING VILLAGE2428,PQQ
FORTITUDE VALLEY,4006,FORTITUDE VALLEY4006,BRI
FORTITUDE VALLEY BC,4006,FORTITUDE VALLEY BC4006,BRI
FOULDEN,4740,FOULDEN4740,MKY
FOUNTAIN GATE,3805,FOUNTAIN GATE3805,MEL
FOUNTAINDALE,2258,FOUNTAINDALE2258,CCT
FOUR MILE BEACH,4871,FOUR MILE BEACH4871,CNS
FOXGROUND,2534,FOXGROUND2534,WOL
FRANKLIN,2913,FRANKLIN2913,CBR
FRANKSTON,3199,FRANKSTON3199,MEL
FRANKSTON EAST,3199,FRANKSTON EAST3199,MEL
FRANKSTON HEIGHTS,3199,FRANKSTON HEIGHTS3199,MEL
FRANKSTON NORTH,3200,FRANKSTON NORTH3200,MEL
FRANKSTON SOUTH,3199,FRANKSTON SOUTH3199,MEL
FRASER,2615,FRASER2615,CBR
FRASER RISE,3336,FRASER RISE3336,MEL
FREDERICKTON,2440,FREDERICKTON2440,PQQ
FREEMANS,2259,FREEMANS2259,CCT
FREMANTLE,6160,FREMANTLE6160,PER
FREMANTLE,6959,FREMANTLE6959,PER
FRENCHS FOREST,4502,FRENCHS FOREST4502,BRI
FRENCHVILLE,4701,FRENCHVILLE4701,CAP
FRESHWATER,4870,FRESHWATER4870,CNS
FREWVILLE,5063,FREWVILLE5063,ADL
FRUITGROVE,4113,FRUITGROVE4113,BRI
FULHAM,5024,FULHAM5024,ADL
FULHAM GARDENS,5024,FULHAM GARDENS5024,ADL
FULLARTON,5063,FULLARTON5063,ADL
FULLERTON COVE,2318,FULLERTON COVE2318,NEW
FURNISSDALE,6209,FURNISSDALE6209,PER
FURNISSDALE,6210,FURNISSDALE6210,PER
FYANSFORD,3218,FYANSFORD3218,GEE
FYSHWICK,2609,FYSHWICK2609,CBR
GAGALBA,4551,GAGALBA4551,SUN
GAGEBROOK,7030,GAGEBROOK7030,TAS
GAILES,4300,GAILES4300,BRI
GALLOWAYS HILL,4171,GALLOWAYS HILL4171,BRI
GAN GAN,2315,GAN GAN2315,NEW
GARBUTT,4814,GARBUTT4814,TVL
GARBUTT BC,4814,GARBUTT BC4814,TVL
GARBUTT EAST,4814,GARBUTT EAST4814,TVL
GARDEN CITY,3207,GARDEN CITY3207,MEL
GARDEN SUBURB,2289,GARDEN SUBURB2289,NEW
GARDENVALE,3185,GARDENVALE3185,MEL
GARRADUNGA,4860,GARRADUNGA4860,CNS
GARRAN,2605,GARRAN2605,CBR
GATESHEAD,2290,GATESHEAD2290,NEW
GATEWAY ISLAND,3691,GATEWAY ISLAND3691,ALB
GATTON,4343,GATTON4343,TOO
GATTON COLLEGE,4345,GATTON COLLEGE4345,TOO
GAVEN,4211,GAVEN4211,GLD
GAWLER,5118,GAWLER5118,ADL
GAWLER BELT,5118,GAWLER BELT5118,ADL
GAWLER EAST,5118,GAWLER EAST5118,ADL
GAWLER SOUTH,5118,GAWLER SOUTH5118,ADL
GAWLER WEST,5118,GAWLER WEST5118,ADL
GAYTHORNE,4051,GAYTHORNE4051,BRI
GEEBUNG,4034,GEEBUNG4034,BRI
GEELONG,3220,GEELONG3220,GEE
GEELONG MC,3221,GEELONG MC3221,GEE
GEELONG NORTH,3215,GEELONG NORTH3215,GEE
GEELONG WEST,3218,GEELONG WEST3218,GEE
GEHAM,4352,GEHAM4352,TOO
GEILSTON BAY,7015,GEILSTON BAY7015,TAS
GENEVA,2474,GENEVA2474,NTH
GEORGE STREET,4003,GEORGE STREET4003,BRI
GEORGE TOWN,7253,GEORGE TOWN7253,LAU
GEORGETOWN,2298,GEORGETOWN2298,NEW
GEPPS CROSS,5094,GEPPS CROSS5094,ADL
GERRINGONG,2534,GERRINGONG2534,WOL
GERROA,2534,GERROA2534,WOL
GHERINGHAP,3331,GHERINGHAP3331,GEE
GHOST HILL,4655,GHOST HILL4655,MYB
GILBERTON,5081,GILBERTON5081,ADL
GILLES PLAINS,5086,GILLES PLAINS5086,ADL
GILLIESTON HEIGHTS,2321,GILLIESTON HEIGHTS2321,NEW
GILLMAN,5013,GILLMAN5013,ADL
GILMORE,2905,GILMORE2905,CBR
GILSTON,4211,GILSTON4211,GLD
GIN GIN,4671,GIN GIN4671,BDB
GINNINDERRA VILLAGE,2913,GINNINDERRA VILLAGE2913,CBR
GIRALANG,2617,GIRALANG2617,CBR
GIRARDS HILL,2480,GIRARDS HILL2480,NTH
GIRRAWHEEN,6064,GIRRAWHEEN6064,PER
GIRU,4809,GIRU4809,TVL
GISBORNE,3437,GISBORNE3437,MEL
GISBORNE SOUTH,3437,GISBORNE SOUTH3437,MEL
GLADSTONE PARK,3043,GLADSTONE PARK3043,MEL
GLANDORE,5037,GLANDORE5037,ADL
GLANMIRE,4570,GLANMIRE4570,SUN
GLANVILLE,5015,GLANVILLE5015,ADL
GLEBE,7000,GLEBE7000,TAS
GLEN APLIN,4381,GLEN APLIN4381,TOO
GLEN DHU,7249,GLEN DHU7249,LAU
GLEN FORREST,6071,GLEN FORREST6071,PER
GLEN HUNTLY,3163,GLEN HUNTLY3163,MEL
GLEN IRIS,3146,GLEN IRIS3146,MEL
GLEN KEDRON,4031,GLEN KEDRON4031,BRI
GLEN OSMOND,5064,GLEN OSMOND5064,ADL
GLEN WAVERLEY,3150,GLEN WAVERLEY3150,MEL
GLENALTA,5052,GLENALTA5052,ADL
GLENBROOK,2773,GLENBROOK2773,SYD
GLENDALE,2285,GLENDALE2285,NEW
GLENDALE,4711,GLENDALE4711,CAP
GLENDALOUGH,6016,GLENDALOUGH6016,PER
GLENEAGLE,4285,GLENEAGLE4285,BRI
GLENELG,5045,GLENELG5045,ADL
GLENELG EAST,5045,GLENELG EAST5045,ADL
GLENELG JETTY ROAD,5045,GLENELG JETTY ROAD5045,ADL
GLENELG NORTH,5045,GLENELG NORTH5045,ADL
GLENELG SOUTH,5045,GLENELG SOUTH5045,ADL
GLENELLA,4740,GLENELLA4740,MKY
GLENFIELD PARK,2650,GLENFIELD PARK2650,YNG
GLENGALA,3020,GLENGALA3020,MEL
GLENGARRY,6023,GLENGARRY6023,PER
GLENGOWRIE,5044,GLENGOWRIE5044,ADL
GLENLEE,4711,GLENLEE4711,CAP
GLENLOGAN,4280,GLENLOGAN4280,BRI
GLENNIE HEIGHTS,4370,GLENNIE HEIGHTS4370,TOO
GLENNING VALLEY,2261,GLENNING VALLEY2261,CCT
GLENORCHY,7010,GLENORCHY7010,TAS
GLENORE GROVE,4342,GLENORE GROVE4342,TOO
GLENROI,2800,GLENROI2800,OAG
GLENROY,2640,GLENROY2640,ALB
GLENROY,3046,GLENROY3046,MEL
GLENSIDE,5065,GLENSIDE5065,ADL
GLENTHORNE,2430,GLENTHORNE2430,PQQ
GLENUNGA,5064,GLENUNGA5064,ADL
GLENVALE,4350,GLENVALE4350,TOO
GLENVALE PARK,4350,GLENVALE PARK4350,TOO
GLENVIEW,4553,GLENVIEW4553,SUN
GLOBE DERBY PARK,5110,GLOBE DERBY PARK5110,ADL
GLYNDE,5070,GLYNDE5070,ADL
GLYNDE DC,5070,GLYNDE DC5070,ADL
GLYNDE PLAZA,5070,GLYNDE PLAZA5070,ADL
GNANGARA,6065,GNANGARA6065,PER
GNANGARA,6077,GNANGARA6077,PER
GOBBAGOMBALIN,2650,GOBBAGOMBALIN2650,YNG
GODWIN BEACH,4511,GODWIN BEACH4511,BRI
GOLD COAST MC,4217,GOLD COAST MC4217,GLD
GOLD COAST MC,9726,GOLD COAST MC9726,GLD
GOLDEN BAY,6174,GOLDEN BAY6174,PER
GOLDEN BEACH,4551,GOLDEN BEACH4551,SUN
GOLDEN GROVE,5125,GOLDEN GROVE5125,ADL
GOLDEN GROVE VILLAGE,5125,GOLDEN GROVE VILLAGE5125,ADL
GOLDEN GULLY,3555,GOLDEN GULLY3555,BEN
GOLDEN POINT,3350,GOLDEN POINT3350,GEE
GOLDEN SQUARE,3555,GOLDEN SQUARE3555,BEN
GOMERSAL,5352,GOMERSAL5352,ADL
GOOBURRUM,4670,GOOBURRUM4670,BDB
GOODNA,4300,GOODNA4300,BRI
GOODNA DC,4300,GOODNA DC4300,BRI
GOODNA EAST,4300,GOODNA EAST4300,BRI
GOODWOOD,5034,GOODWOOD5034,ADL
GOODWOOD,7010,GOODWOOD7010,TAS
GOOGONG,2620,GOOGONG2620,CBR
GOONDI,4860,GOONDI4860,CNS
GOONDI BEND,4860,GOONDI BEND4860,CNS
GOONDI HILL,4860,GOONDI HILL4860,CNS
GOONELLABAH,2480,GOONELLABAH2480,NTH
GOOSEBERRY HILL,6076,GOOSEBERRY HILL6076,PER
GORDON,2906,GORDON2906,CBR
GORDON PARK,4031,GORDON PARK4031,BRI
GORDONVALE,4865,GORDONVALE4865,CNS
GORMANS HILL,2795,GORMANS HILL2795,OAG
GOROKAN,2263,GOROKAN2263,CCT
GOSFORD,2250,GOSFORD2250,CCT
GOSFORD WEST,2250,GOSFORD WEST2250,CCT
GOSNELLS,6110,GOSNELLS6110,PER
GOSNELLS,6990,GOSNELLS6990,PER
GOULD CREEK,5114,GOULD CREEK5114,ADL
GOWANBRAE,3043,GOWANBRAE3043,MEL
GOWRIE,2904,GOWRIE2904,CBR
GOWRIE,4350,GOWRIE4350,TOO
GOWRIE JUNCTION,4352,GOWRIE JUNCTION4352,TOO
GOWRIE MOUNTAIN,4350,GOWRIE MOUNTAIN4350,TOO
GRACEMERE,4702,GRACEMERE4702,CAP
GRACEVILLE,4075,GRACEVILLE4075,BRI
GRACEVILLE EAST,4075,GRACEVILLE EAST4075,BRI
GRAFTON,2460,GRAFTON2460,NTH
GRAFTON WEST,2460,GRAFTON WEST2460,NTH
GRAND SECRET,4820,GRAND SECRET4820,TVL
GRANGE,4051,GRANGE4051,BRI
GRANGE,5022,GRANGE5022,ADL
GRANTHAM,4347,GRANTHAM4347,TOO
GRANTON,7030,GRANTON7030,TAS
GRANTS BEACH,2445,GRANTS BEACH2445,PQQ
GRANVILLE,4650,GRANVILLE4650,MYB
GRASSY HEAD,2441,GRASSY HEAD2441,CFS
GRAVELLY BEACH,7276,GRAVELLY BEACH7276,LAU
GREEN FIELDS,5107,GREEN FIELDS5107,ADL
GREEN HILLS,2323,GREEN HILLS2323,NEW
GREEN POINT,2251,GREEN POINT2251,CCT
GREENACRES,5086,GREENACRES5086,ADL
GREENBANK,4124,GREENBANK4124,BRI
GREENDALE,2745,GREENDALE2745,SYD
GREENFIELDS,6210,GREENFIELDS6210,PER
GREENHILLS,2323,GREENHILLS2323,NEW
GREENLEIGH,2620,GREENLEIGH2620,CBR
GREENMOUNT,4225,GREENMOUNT4225,GLD
GREENMOUNT,4359,GREENMOUNT4359,TOO
GREENMOUNT,4751,GREENMOUNT4751,MKY
GREENMOUNT,6056,GREENMOUNT6056,PER
GREENSBOROUGH,3088,GREENSBOROUGH3088,MEL
GREENSLOPES,4120,GREENSLOPES4120,BRI
GREENVALE,3059,GREENVALE3059,MEL
GREENWAY,2900,GREENWAY2900,CBR
GREENWITH,5125,GREENWITH5125,ADL
GREENWOOD,6024,GREENWOOD6024,PER
GREENWOOD,6924,GREENWOOD6924,PER
GREENWOOD VILLAGE,4301,GREENWOOD VILLAGE4301,BRI
GRETA,2334,GRETA2334,NEW
GREYTHORN,3104,GREYTHORN3104,MEL
GRIFFIN,4503,GRIFFIN4503,BRI
GRIFFITH,2603,GRIFFITH2603,CBR
GRIFFITH,2680,GRIFFITH2680,YNG
GRIFFITH DC,2680,GRIFFITH DC2680,YNG
GRIFFITH EAST,2680,GRIFFITH EAST2680,YNG
GRIFFITH UNIVERSITY,4111,GRIFFITH UNIVERSITY4111,BRI
GRIFFITH UNIVERSITY,4222,GRIFFITH UNIVERSITY4222,GLD
GRINDELWALD,7277,GRINDELWALD7277,LAU
GROVEDALE,3216,GROVEDALE3216,GEE
GROVEDALE EAST,3216,GROVEDALE EAST3216,GEE
GROVELY,4054,GROVELY4054,BRI
GUANABA,4210,GUANABA4210,GLD
GUILDFORD,6055,GUILDFORD6055,PER
GUILDFORD,6935,GUILDFORD6935,PER
GULFVIEW HEIGHTS,5096,GULFVIEW HEIGHTS5096,ADL
GULLIVER,4812,GULLIVER4812,TVL
GULMARRAD,2463,GULMARRAD2463,NTH
GUMDALE,4154,GUMDALE4154,BRI
GUMLY GUMLY,2652,GUMLY GUMLY2652,YNG
GUNGAHLIN,2912,GUNGAHLIN2912,CBR
GWANDALAN,2259,GWANDALAN2259,CCT
GWELUP,6018,GWELUP6018,PER
GWELUP DC,6018,GWELUP DC6018,PER
GWYNNEVILLE,2500,GWYNNEVILLE2500,WOL
GYMPIE,4570,GYMPIE4570,SUN
GYMPIE DC,4570,GYMPIE DC4570,SUN
HACKETT,2602,HACKETT2602,CBR
HACKHAM,5163,HACKHAM5163,ADL
HACKHAM WEST,5163,HACKHAM WEST5163,ADL
HACKNEY,5069,HACKNEY5069,ADL
HADFIELD,3046,HADFIELD3046,MEL
HADSPEN,7290,HADSPEN7290,LAU
HAGLEY,7292,HAGLEY7292,LAU
HALEKULANI,2262,HALEKULANI2262,CCT
HALIFAX STREET,5000,HALIFAX STREET5000,ADL
HALL,2618,HALL2618,CBR
HALLAM,3803,HALLAM3803,MEL
HALLETT COVE,5158,HALLETT COVE5158,ADL
HALLIDAYS POINT,2430,HALLIDAYS POINT2430,PQQ
HALLORAN,2259,HALLORAN2259,CCT
HALLS HEAD,6210,HALLS HEAD6210,PER
HAMERSLEY,6022,HAMERSLEY6022,PER
HAMILTON,2303,HAMILTON2303,NEW
HAMILTON,4007,HAMILTON4007,BRI
HAMILTON CENTRAL,4007,HAMILTON CENTRAL4007,BRI
HAMILTON EAST,2303,HAMILTON EAST2303,NEW
HAMILTON HILL,6163,HAMILTON HILL6163,PER
HAMILTON HILL,6963,HAMILTON HILL6963,PER
HAMILTON NORTH,2292,HAMILTON NORTH2292,NEW
HAMILTON SOUTH,2303,HAMILTON SOUTH2303,NEW
HAMILTON VALLEY,2641,HAMILTON VALLEY2641,ALB
HAMLYN HEIGHTS,3215,HAMLYN HEIGHTS3215,GEE
HAMLYN TERRACE,2259,HAMLYN TERRACE2259,CCT
HAMMOND PARK,6164,HAMMOND PARK6164,PER
HAMPSTEAD GARDENS,5086,HAMPSTEAD GARDENS5086,ADL
HAMPTON,3188,HAMPTON3188,MEL
HAMPTON,4352,HAMPTON4352,TOO
HAMPTON EAST,3188,HAMPTON EAST3188,MEL
HAMPTON NORTH,3188,HAMPTON NORTH3188,MEL
HAMPTON PARK,3976,HAMPTON PARK3976,MEL
HANWOOD,2680,HANWOOD2680,YNG
HAPPY VALLEY,5159,HAPPY VALLEY5159,ADL
HARCOURT,3453,HARCOURT3453,BEN
HARDYS BAY,2257,HARDYS BAY2257,CCT
HARKNESS,3337,HARKNESS3337,MEL
HARLAXTON,4350,HARLAXTON4350,TOO
HARMAN,2600,HARMAN2600,CBR
HARPERS HILL,2321,HARPERS HILL2321,NEW
HARRINGTON,2427,HARRINGTON2427,PQQ
HARRISDALE,6112,HARRISDALE6112,PER
HARRISON,2914,HARRISON2914,CBR
HARRISTOWN,4350,HARRISTOWN4350,TOO
HARTWELL,3124,HARTWELL3124,MEL
HARWOOD,2465,HARWOOD2465,NTH
HASTINGS,3915,HASTINGS3915,MEL
HASTINGS POINT,2489,HASTINGS POINT2489,GLD
HATTON VALE,4341,HATTON VALE4341,TOO
HAVENVIEW,7320,HAVENVIEW7320,DPO
HAWKER,2614,HAWKER2614,CBR
HAWKS NEST,2324,HAWKS NEST2324,NEW
HAWKSBURN,3142,HAWKSBURN3142,MEL
HAWTHORN,3122,HAWTHORN3122,MEL
HAWTHORN,5062,HAWTHORN5062,ADL
HAWTHORN,8622,HAWTHORN8622,MEL
HAWTHORN EAST,3123,HAWTHORN EAST3123,MEL
HAWTHORN NORTH,3122,HAWTHORN NORTH3122,MEL
HAWTHORN WEST,3122,HAWTHORN WEST3122,MEL
HAWTHORNE,4171,HAWTHORNE4171,BRI
HAYNES,6112,HAYNES6112,PER
HAYWARDS BAY,2530,HAYWARDS BAY2530,WOL
HAZELBROOK,2779,HAZELBROOK2779,SYD
HAZELMERE,6055,HAZELMERE6055,PER
HAZELWOOD PARK,5066,HAZELWOOD PARK5066,ADL
HEATHCOTE,3523,HEATHCOTE3523,BEN
HEATHERBRAE,2324,HEATHERBRAE2324,NEW
HEATHERTON,3202,HEATHERTON3202,MEL
HEATHMONT,3135,HEATHMONT3135,MEL
HEATHPOOL,5068,HEATHPOOL5068,ADL
HEATHRIDGE,6027,HEATHRIDGE6027,PER
HEATHWOOD,4110,HEATHWOOD4110,BRI
HEATHWOOD DF,4110,HEATHWOOD DF4110,BRI
HEATLEY,4814,HEATLEY4814,TVL
HECTORVILLE,5073,HECTORVILLE5073,ADL
HEDDON GRETA,2321,HEDDON GRETA2321,NEW
HEIDELBERG,3084,HEIDELBERG3084,MEL
HEIDELBERG HEIGHTS,3081,HEIDELBERG HEIGHTS3081,MEL
HEIDELBERG RGH,3081,HEIDELBERG RGH3081,MEL
HEIDELBERG WEST,3081,HEIDELBERG WEST3081,MEL
HELENA VALLEY,6056,HELENA VALLEY6056,PER
HELENS HILL,4850,HELENS HILL4850,TVL
HELENSBURGH,2508,HELENSBURGH2508,WOL
HELENSVALE,4212,HELENSVALE4212,GLD
HELENSVALE TOWN CENTRE,4212,HELENSVALE TOWN CENTRE4212,GLD
HELIDON,4344,HELIDON4344,TOO
HELIDON SPA,4344,HELIDON SPA4344,TOO
HEMMANT,4174,HEMMANT4174,BRI
HENDERSON,6166,HENDERSON6166,PER
HENDON,5014,HENDON5014,ADL
HENDRA,4011,HENDRA4011,BRI
HENLEY BEACH,5022,HENLEY BEACH5022,ADL
HENLEY BEACH SOUTH,5022,HENLEY BEACH SOUTH5022,ADL
HENLEY BROOK,6055,HENLEY BROOK6055,PER
HERDSMAN,6017,HERDSMAN6017,PER
HERITAGE PARK,4118,HERITAGE PARK4118,BRI
HERMIT PARK,4812,HERMIT PARK4812,TVL
HERNE HILL,3218,HERNE HILL3218,GEE
HERNE HILL,6056,HERNE HILL6056,PER
HERSTON,4006,HERSTON4006,BRI
HERVEY BAY,4655,HERVEY BAY4655,MYB
HERVEY BAY DC,4655,HERVEY BAY DC4655,MYB
HEWETT,5118,HEWETT5118,ADL
HEXHAM,2322,HEXHAM2322,NEW
HEYBRIDGE,7316,HEYBRIDGE7316,DPO
HIDDEN VALLEY,4703,HIDDEN VALLEY4703,CAP
HIGGINS,2615,HIGGINS2615,CBR
HIGH WYCOMBE,6057,HIGH WYCOMBE6057,PER
HIGHBURY,5089,HIGHBURY5089,ADL
HIGHETT,3190,HIGHETT3190,MEL
HIGHFIELDS,2289,HIGHFIELDS2289,NEW
HIGHFIELDS,4352,HIGHFIELDS4352,TOO
HIGHGATE,5063,HIGHGATE5063,ADL
HIGHGATE,6003,HIGHGATE6003,PER
HIGHGATE HILL,4101,HIGHGATE HILL4101,BRI
HIGHLAND PARK,4211,HIGHLAND PARK4211,GLD
HIGHPOINT CITY,3032,HIGHPOINT CITY3032,MEL
HIGHTON,3216,HIGHTON3216,GEE
HIGHWORTH,4560,HIGHWORTH4560,SUN
HILBERT,6112,HILBERT6112,PER
HILL TOP,2575,HILL TOP2575,WOL
HILLARYS,6025,HILLARYS6025,PER
HILLARYS,6923,HILLARYS6923,PER
HILLBANK,5112,HILLBANK5112,ADL
HILLCREST,4118,HILLCREST4118,BRI
HILLCREST,5086,HILLCREST5086,ADL
HILLCREST,7320,HILLCREST7320,DPO
HILLIER,5116,HILLIER5116,ADL
HILLMAN,6168,HILLMAN6168,PER
HILLSBOROUGH,2290,HILLSBOROUGH2290,NEW
HILLSIDE,3037,HILLSIDE3037,MEL
HILLWOOD,7252,HILLWOOD7252,LAU
HILTON,5033,HILTON5033,ADL
HILTON,6163,HILTON6163,PER
HILTON PLAZA,5033,HILTON PLAZA5033,ADL
HINDMARSH,5007,HINDMARSH5007,ADL
HMAS ALBATROSS,2540,HMAS ALBATROSS2540,WOL
HMAS HARMAN,2600,HMAS HARMAN2600,CBR
HOBART,7000,HOBART7000,TAS
HOBART,7001,HOBART7001,TAS
HOCKING,6065,HOCKING6065,PER
HODGSON VALE,4352,HODGSON VALE4352,TOO
HOLDEN HILL,5088,HOLDEN HILL5088,ADL
HOLDER,2611,HOLDER2611,CBR
HOLGATE,2250,HOLGATE2250,CCT
HOLLAND PARK,4121,HOLLAND PARK4121,BRI
HOLLAND PARK EAST,4121,HOLLAND PARK EAST4121,BRI
HOLLAND PARK WEST,4121,HOLLAND PARK WEST4121,BRI
HOLLOWAYS BEACH,4878,HOLLOWAYS BEACH4878,CNS
HOLLYWELL,4216,HOLLYWELL4216,GLD
HOLMESVILLE,2286,HOLMESVILLE2286,NEW
HOLMVIEW,4207,HOLMVIEW4207,BRI
HOLT,2615,HOLT2615,CBR
HOME HILL,4806,HOME HILL4806,TVL
HONEYWOOD,7017,HONEYWOOD7017,TAS
HOPE ISLAND,4212,HOPE ISLAND4212,GLD
HOPE VALLEY,5090,HOPE VALLEY5090,ADL
HOPE VALLEY,6165,HOPE VALLEY6165,PER
HOPETOUN PARK,3340,HOPETOUN PARK3340,MEL
HOPPERS CROSSING,3029,HOPPERS CROSSING3029,MEL
HORSESHOE BEND,2320,HORSESHOE BEND2320,NEW
HORSESHOE LAGOON,4809,HORSESHOE LAGOON4809,TVL
HORSFIELD BAY,2256,HORSFIELD BAY2256,CCT
HORSLEY,2530,HORSLEY2530,WOL
HOVE,5048,HOVE5048,ADL
HOVEA,6071,HOVEA6071,PER
HOWARD,4659,HOWARD4659,MYB
HOWDEN,7054,HOWDEN7054,TAS
HOWLONG,2643,HOWLONG2643,ALB
HOWRAH,7018,HOWRAH7018,TAS
HUGHES,2605,HUGHES2605,CBR
HUGHESDALE,3166,HUGHESDALE3166,MEL
HUME,2620,HUME2620,CBR
HUMPYBONG,4019,HUMPYBONG4019,BRI
HUNTER REGION MC,2310,HUNTER REGION MC2310,NEW
HUNTERVIEW,2330,HUNTERVIEW2330,NEW
HUNTFIELD HEIGHTS,5163,HUNTFIELD HEIGHTS5163,ADL
HUNTINGDALE,3166,HUNTINGDALE3166,MEL
HUNTINGDALE,6110,HUNTINGDALE6110,PER
HUNTINGFIELD,7055,HUNTINGFIELD7055,TAS
HUNTLEY,2530,HUNTLEY2530,WOL
HUNTLEY,2800,HUNTLEY2800,OAG
HUNTLY,3551,HUNTLY3551,BEN
HUON CREEK,3691,HUON CREEK3691,ALB
HUONVILLE,7109,HUONVILLE7109,TAS
HUTT STREET,5000,HUTT STREET5000,ADL
HUXLEY,4660,HUXLEY4660,BDB
HYDE PARK,4812,HYDE PARK4812,TVL
HYDE PARK,5061,HYDE PARK5061,ADL
HYDE PARK CASTLETOWN,4812,HYDE PARK CASTLETOWN4812,TVL
HYLAND PARK,2448,HYLAND PARK2448,CFS
IDALIA,4811,IDALIA4811,TVL
ILFRAVILLE,7270,ILFRAVILLE7270,LAU
ILKLEY,4554,ILKLEY4554,SUN
ILLAROO,2540,ILLAROO2540,WOL
ILUKA,6028,ILUKA6028,PER
IMAGE FLAT,4560,IMAGE FLAT4560,SUN
INALA,4077,INALA4077,BRI
INALA EAST,4077,INALA EAST4077,BRI
INALA HEIGHTS,4077,INALA HEIGHTS4077,BRI
INALA WEST,4077,INALA WEST4077,BRI
INDENTED HEAD,3223,INDENTED HEAD3223,GEE
INDIGO,3683,INDIGO3683,ALB
INDIGO UPPER,3688,INDIGO UPPER3688,ALB
INDOOROOPILLY,4068,INDOOROOPILLY4068,BRI
INDOOROOPILLY CENTRE,4068,INDOOROOPILLY CENTRE4068,BRI
INGHAM,4850,INGHAM4850,TVL
INGLE FARM,5098,INGLE FARM5098,ADL
INGLEWOOD,6052,INGLEWOOD6052,PER
INGLEWOOD,6932,INGLEWOOD6932,PER
INNALOO,6018,INNALOO6018,PER
INNALOO,6918,INNALOO6918,PER
INNES PARK,4670,INNES PARK4670,BDB
INNISFAIL,4860,INNISFAIL4860,CNS
INNISFAIL ESTATE,4860,INNISFAIL ESTATE4860,CNS
INVERESK,7248,INVERESK7248,LAU
INVERMAY,3352,INVERMAY3352,GEE
INVERMAY,7248,INVERMAY7248,LAU
INVERMAY PARK,3350,INVERMAY PARK3350,GEE
INVERNESS,4703,INVERNESS4703,CAP
IPSWICH,4305,IPSWICH4305,BRI
IRONBARK,3550,IRONBARK3550,BEN
IRONSIDE,4067,IRONSIDE4067,BRI
ISAACS,2607,ISAACS2607,CBR
ISABELLA PLAINS,2905,ISABELLA PLAINS2905,CBR
ISIS CENTRAL,4660,ISIS CENTRAL4660,BDB
ISLE OF CAPRI,4217,ISLE OF CAPRI4217,GLD
ISLINGTON,2296,ISLINGTON2296,NEW
ITHACA,4059,ITHACA4059,BRI
IVANHOE,3079,IVANHOE3079,MEL
IVANHOE,8576,IVANHOE8576,MEL
IVANHOE EAST,3079,IVANHOE EAST3079,MEL
IVANHOE NORTH,3079,IVANHOE NORTH3079,MEL
JACANA,3047,JACANA3047,MEL
JACKA,2914,JACKA2914,CBR
JACKASS FLAT,3556,JACKASS FLAT3556,BEN
JAMBEROO,2533,JAMBEROO2533,WOL
JAMBOREE HEIGHTS,4074,JAMBOREE HEIGHTS4074,BRI
JAMES COOK UNIVERSITY,4811,JAMES COOK UNIVERSITY4811,TVL
JAMISON CENTRE,2614,JAMISON CENTRE2614,CBR
JAN JUC,3228,JAN JUC3228,GEE
JANDAKOT,6164,JANDAKOT6164,PER
JANE BROOK,6056,JANE BROOK6056,PER
JASPERS BRUSH,2535,JASPERS BRUSH2535,WOL
JENSEN,4818,JENSEN4818,TVL
JERRABOMBERRA,2619,JERRABOMBERRA2619,CBR
JERRARA,2533,JERRARA2533,WOL
JESMOND,2299,JESMOND2299,NEW
JEWELLS,2280,JEWELLS2280,NEW
JIMBOOMBA,4280,JIMBOOMBA4280,BRI
JINDALEE,4074,JINDALEE4074,BRI
JINDALEE,6036,JINDALEE6036,PER
JINDERA,2642,JINDERA2642,ALB
JOLIMONT,6014,JOLIMONT6014,PER
JOLLY NOSE,2445,JOLLY NOSE2445,PQQ
JONES HILL,4570,JONES HILL4570,SUN
JOONDALUP,6027,JOONDALUP6027,PER
JOONDALUP DC,6027,JOONDALUP DC6027,PER
JOONDALUP DC,6919,JOONDALUP DC6919,PER
JOONDANNA,6060,JOONDANNA6060,PER
JOSLIN,5070,JOSLIN5070,ADL
JOYNER,4500,JOYNER4500,BRI
JUBILEE,4065,JUBILEE4065,BRI
JUBILEE POCKET,4802,JUBILEE POCKET4802,MKY
JULAGO,4816,JULAGO4816,TVL
JUNCTION HILL,2460,JUNCTION HILL2460,NTH
JUNCTION VILLAGE,3977,JUNCTION VILLAGE3977,MEL
JUNORTOUN,3551,JUNORTOUN3551,BEN
KAHIBAH,2290,KAHIBAH2290,NEW
KALAMIA,4807,KALAMIA4807,TVL
KALAMUNDA,6076,KALAMUNDA6076,PER
KALAMUNDA,6926,KALAMUNDA6926,PER
KALBEEBA,5118,KALBEEBA5118,ADL
KALEEN,2617,KALEEN2617,CBR
KALINGA,4030,KALINGA4030,BRI
KALKA,4701,KALKA4701,CAP
KALKIE,4670,KALKIE4670,BDB
KALLANGUR,4503,KALLANGUR4503,BRI
KALLAROO,6025,KALLAROO6025,PER
KAMBAH,2902,KAMBAH2902,CBR
KAMBAH VILLAGE,2902,KAMBAH VILLAGE2902,CBR
KAMERUNGA,4870,KAMERUNGA4870,CNS
KANAHOOKA,2530,KANAHOOKA2530,WOL
KANGAROO FLAT,3555,KANGAROO FLAT3555,BEN
KANGAROO POINT,4169,KANGAROO POINT4169,BRI
KANGY ANGY,2258,KANGY ANGY2258,CCT
KANIMBLA,4870,KANIMBLA4870,CNS
KANWAL,2259,KANWAL2259,CCT
KARABAR,2620,KARABAR2620,CBR
KARAWARA,6152,KARAWARA6152,PER
KARAWATHA,4117,KARAWATHA4117,BRI
KARDINYA,6163,KARDINYA6163,PER
KARINGAL,3199,KARINGAL3199,MEL
KARIONG,2250,KARIONG2250,CCT
KARNUP,6176,KARNUP6176,PER
KARRAKATTA,6010,KARRAKATTA6010,PER
KARRINYUP,6018,KARRINYUP6018,PER
KARRINYUP,6921,KARRINYUP6921,PER
KARUAH,2324,KARUAH2324,NEW
KATOOMBA,2780,KATOOMBA2780,SYD
KATOOMBA DC,2780,KATOOMBA DC2780,SYD
KAWANA,4701,KAWANA4701,CAP
KAWANA WATERS,4575,KAWANA WATERS4575,SUN
KAWUNGAN,4655,KAWUNGAN4655,MYB
KEALBA,3021,KEALBA3021,MEL
KEARNEYS SPRING,4350,KEARNEYS SPRING4350,TOO
KEARSLEY,2325,KEARSLEY2325,NEW
KEDRON,4031,KEDRON4031,BRI
KEDRON UPPER,4055,KEDRON UPPER4055,BRI
KEEBRA PARK,4215,KEEBRA PARK4215,GLD
KEILOR,3036,KEILOR3036,MEL
KEILOR DOWNS,3038,KEILOR DOWNS3038,MEL
KEILOR EAST,3033,KEILOR EAST3033,MEL
KEILOR LODGE,3038,KEILOR LODGE3038,MEL
KEILOR NORTH,3036,KEILOR NORTH3036,MEL
KEILOR PARK,3042,KEILOR PARK3042,MEL
KEINBAH,2320,KEINBAH2320,NEW
KEIRAVILLE,2500,KEIRAVILLE2500,WOL
KELMSCOTT,6111,KELMSCOTT6111,PER
KELMSCOTT,6991,KELMSCOTT6991,PER
KELMSCOTT DC,6111,KELMSCOTT DC6111,PER
KELMSCOTT DC,6997,KELMSCOTT DC6997,PER
KELSO,2795,KELSO2795,OAG
KELSO,4815,KELSO4815,TVL
KELVIN GROVE,4059,KELVIN GROVE4059,BRI
KELVIN GROVE BC,4059,KELVIN GROVE BC4059,BRI
KELVIN GROVE DC,4059,KELVIN GROVE DC4059,BRI
KEMBLA GRANGE,2526,KEMBLA GRANGE2526,WOL
KEMBLA HEIGHTS,2526,KEMBLA HEIGHTS2526,WOL
KEMP BEACH,4703,KEMP BEACH4703,CAP
KEMPSEY,2440,KEMPSEY2440,PQQ
KENDALL,2439,KENDALL2439,PQQ
KENMORE,4069,KENMORE4069,BRI
KENMORE DC,4069,KENMORE DC4069,BRI
KENMORE EAST,4069,KENMORE EAST4069,BRI
KENMORE HILLS,4069,KENMORE HILLS4069,BRI
KENNINGTON,3550,KENNINGTON3550,BEN
KENSINGTON,3031,KENSINGTON3031,MEL
KENSINGTON,4670,KENSINGTON4670,BDB
KENSINGTON,5068,KENSINGTON5068,ADL
KENSINGTON,6151,KENSINGTON6151,PER
KENSINGTON GARDENS,5068,KENSINGTON GARDENS5068,ADL
KENSINGTON GROVE,4341,KENSINGTON GROVE4341,TOO
KENSINGTON PARK,5068,KENSINGTON PARK5068,ADL
KENT TOWN,5067,KENT TOWN5067,ADL
KENT TOWN,5071,KENT TOWN5071,ADL
KENT TOWN DC,5071,KENT TOWN DC5071,ADL
KENWICK,6107,KENWICK6107,PER
KEON PARK,3073,KEON PARK3073,MEL
KEPERRA,4054,KEPERRA4054,BRI
KEPNOCK,4670,KEPNOCK4670,BDB
KERRYDALE,4226,KERRYDALE4226,GLD
KESWICK,5035,KESWICK5035,ADL
KESWICK TERMINAL,5035,KESWICK TERMINAL5035,ADL
KEW,2439,KEW2439,PQQ
KEW,3101,KEW3101,MEL
KEW EAST,3102,KEW EAST3102,MEL
KEWARRA BEACH,4879,KEWARRA BEACH4879,CNS
KEWDALE,6105,KEWDALE6105,PER
KEYSBOROUGH,3173,KEYSBOROUGH3173,MEL
KIAMA,2533,KIAMA2533,WOL
KIAMA DOWNS,2533,KIAMA DOWNS2533,WOL
KIAMA HEIGHTS,2533,KIAMA HEIGHTS2533,WOL
KIARA,6054,KIARA6054,PER
KIDMAN PARK,5025,KIDMAN PARK5025,ADL
KIELS MOUNTAIN,4559,KIELS MOUNTAIN4559,SUN
KIEWA,3691,KIEWA3691,ALB
KILABEN BAY,2283,KILABEN BAY2283,NEW
KILBURN,5084,KILBURN5084,ADL
KILBURN NORTH,5084,KILBURN NORTH5084,ADL
KILKENNY,5009,KILKENNY5009,ADL
KILLALOE,4877,KILLALOE4877,CNS
KILLARA,3691,KILLARA3691,ALB
KILLARNEY VALE,2261,KILLARNEY VALE2261,CCT
KILLCARE,2257,KILLCARE2257,CCT
KILLCARE HEIGHTS,2257,KILLCARE HEIGHTS2257,CCT
KILLINGWORTH,2278,KILLINGWORTH2278,NEW
KILSYTH,3137,KILSYTH3137,MEL
KILSYTH SOUTH,3137,KILSYTH SOUTH3137,MEL
KIMBERLEY PARK,4128,KIMBERLEY PARK4128,BRI
KINCUMBER,2251,KINCUMBER2251,CCT
KINCUMBER SOUTH,2251,KINCUMBER SOUTH2251,CCT
KING CREEK,2446,KING CREEK2446,PQQ
KINGFISHER SHORES,2259,KINGFISHER SHORES2259,CCT
KINGS BEACH,4551,KINGS BEACH4551,SUN
KINGS MEADOWS,7249,KINGS MEADOWS7249,LAU
KINGS PARK,3021,KINGS PARK3021,MEL
KINGS PARK,5034,KINGS PARK5034,ADL
KINGS PARK,6005,KINGS PARK6005,PER
KINGSBURY,3083,KINGSBURY3083,MEL
KINGSCLIFF,2487,KINGSCLIFF2487,GLD
KINGSFORD,5118,KINGSFORD5118,ADL
KINGSLEY,6026,KINGSLEY6026,PER
KINGSTHORPE,4400,KINGSTHORPE4400,TOO
KINGSTON,2604,KINGSTON2604,CBR
KINGSTON,4114,KINGSTON4114,BRI
KINGSTON,7050,KINGSTON7050,TAS
KINGSTON,7051,KINGSTON7051,TAS
KINGSTON BEACH,7050,KINGSTON BEACH7050,TAS
KINGSTON PARK,5049,KINGSTON PARK5049,ADL
KINGSVILLE,3012,KINGSVILLE3012,MEL
KINGSVILLE WEST,3012,KINGSVILLE WEST3012,MEL
KINGSWAY,6065,KINGSWAY6065,PER
KINGSWOOD,5062,KINGSWOOD5062,ADL
KINKA BEACH,4703,KINKA BEACH4703,CAP
KINROSS,6028,KINROSS6028,PER
KIPPA-RING,4021,KIPPA-RING4021,BRI
KIPPAX,2615,KIPPAX2615,CBR
KIPPAX CENTRE,2615,KIPPAX CENTRE2615,CBR
KIRKCALDY,5022,KIRKCALDY5022,ADL
KIRRA,4225,KIRRA4225,GLD
KIRWAN,4817,KIRWAN4817,TVL
KIWARRAK,2430,KIWARRAK2430,PQQ
KLEINTON,4352,KLEINTON4352,TOO
KLEMZIG,5087,KLEMZIG5087,ADL
KNOX CITY CENTRE,3152,KNOX CITY CENTRE3152,MEL
KNOXFIELD,3180,KNOXFIELD3180,MEL
KOLODONG,2430,KOLODONG2430,PQQ
KOMUNGLA,2580,KOMUNGLA2580,CBR
KOOLEWONG,2256,KOOLEWONG2256,CCT
KOONAWARRA,2530,KOONAWARRA2530,WOL
KOONDOOLA,6064,KOONDOOLA6064,PER
KOONGAL,4701,KOONGAL4701,CAP
KOONGAMIA,6056,KOONGAMIA6056,PER
KOORAGANG,2304,KOORAGANG2304,NEW
KOORAINGHAT,2430,KOORAINGHAT2430,PQQ
KOORINGAL,2650,KOORINGAL2650,YNG
KOOYONG,3144,KOOYONG3144,MEL
KORORA,2450,KORORA2450,CFS
KOTARA,2289,KOTARA2289,NEW
KOTARA EAST,2305,KOTARA EAST2305,NEW
KOTARA FAIR,2289,KOTARA FAIR2289,NEW
KOTARA SOUTH,2289,KOTARA SOUTH2289,NEW
KRONDORF,5352,KRONDORF5352,ADL
KUDLA,5115,KUDLA5115,ADL
KULANGOOR,4560,KULANGOOR4560,SUN
KULUIN,4558,KULUIN4558,SUN
KUNDA PARK,4556,KUNDA PARK4556,SUN
KURABY,4112,KURABY4112,BRI
KURANDA,4881,KURANDA4881,CNS
KUREELPA,4560,KUREELPA4560,SUN
KURRALTA PARK,5037,KURRALTA PARK5037,ADL
KURRI KURRI,2327,KURRI KURRI2327,NEW
KURUNJANG,3337,KURUNJANG3337,MEL
KURWONGBAH,4503,KURWONGBAH4503,BRI
KWINANA,6966,KWINANA6966,PER
KWINANA BEACH,6167,KWINANA BEACH6167,PER
KWINANA TOWN CENTRE,6167,KWINANA TOWN CENTRE6167,PER
KYOGLE,2474,KYOGLE2474,NTH
LA TROBE UNIVERSITY,3083,LA TROBE UNIVERSITY3083,MEL
LA TROBE UNIVERSITY,3086,LA TROBE UNIVERSITY3086,MEL
LABRADOR,4215,LABRADOR4215,GLD
LABURNUM,3130,LABURNUM3130,MEL
LAIDLEY,4341,LAIDLEY4341,TOO
LAIDLEY HEIGHTS,4341,LAIDLEY HEIGHTS4341,TOO
LAIDLEY NORTH,4341,LAIDLEY NORTH4341,TOO
LAKE ALBERT,2650,LAKE ALBERT2650,YNG
LAKE CATHIE,2445,LAKE CATHIE2445,PQQ
LAKE GARDENS,3355,LAKE GARDENS3355,GEE
LAKE HAVEN,2263,LAKE HAVEN2263,CCT
LAKE HEIGHTS,2502,LAKE HEIGHTS2502,WOL
LAKE ILLAWARRA,2528,LAKE ILLAWARRA2528,WOL
LAKE INNES,2446,LAKE INNES2446,PQQ
LAKE MOODEMERE,3685,LAKE MOODEMERE3685,ALB
LAKE MUNMORAH,2259,LAKE MUNMORAH2259,CCT
LAKE PLACID,4878,LAKE PLACID4878,CNS
LAKE WENDOUREE,3350,LAKE WENDOUREE3350,GEE
LAKELANDS,2282,LAKELANDS2282,NEW
LAKELANDS,6180,LAKELANDS6180,PER
LAKELANDS,6210,LAKELANDS6210,PER
LAKES CREEK,4701,LAKES CREEK4701,CAP
LAKEWOOD,2443,LAKEWOOD2443,PQQ
LALOR,3075,LALOR3075,MEL
LALOR PLAZA,3075,LALOR PLAZA3075,MEL
LAMBTON,2299,LAMBTON2299,NEW
LAMMERMOOR,4703,LAMMERMOOR4703,CAP
LAMMERMOOR BEACH,4703,LAMMERMOOR BEACH4703,CAP
LANDSBOROUGH,4550,LANDSBOROUGH4550,SUN
LANDSDALE,6065,LANDSDALE6065,PER
LANENA,7275,LANENA7275,LAU
LANGFORD,6147,LANGFORD6147,PER
LANGWARRIN,3910,LANGWARRIN3910,MEL
LANGWARRIN SOUTH,3911,LANGWARRIN SOUTH3911,MEL
LANSELL PLAZA,3555,LANSELL PLAZA3555,BEN
LAPSTONE,2773,LAPSTONE2773,SYD
LARA,3212,LARA3212,GEE
LARAPINTA,4110,LARAPINTA4110,BRI
LARGS,2320,LARGS2320,NEW
LARGS BAY,5016,LARGS BAY5016,ADL
LARGS NORTH,5016,LARGS NORTH5016,ADL
LATHAM,2615,LATHAM2615,CBR
LATHLAIN,6100,LATHLAIN6100,PER
LATIMER,4211,LATIMER4211,BRI
LATROBE,7307,LATROBE7307,DPO
LAUDERDALE,7021,LAUDERDALE7021,TAS
LAUNCESTON,7250,LAUNCESTON7250,LAU
LAUNCESTON,7901,LAUNCESTON7901,LAU
LAUNCESTON,7902,LAUNCESTON7902,LAU
LAUNCESTON,7903,LAUNCESTON7903,LAU
LAUNCESTON,7904,LAUNCESTON7904,LAU
LAUNCESTON,7905,LAUNCESTON7905,LAU
LAUNCESTON,7906,LAUNCESTON7906,LAU
LAUNCESTON,7907,LAUNCESTON7907,LAU
LAUNCESTON,7908,LAUNCESTON7908,LAU
LAUNCESTON,7909,LAUNCESTON7909,LAU
LAURIETON,2443,LAURIETON2443,PQQ
LAVERTON,3028,LAVERTON3028,MEL
LAVERTON NORTH,3026,LAVERTON NORTH3026,MEL
LAVERTON RAAF,3027,LAVERTON RAAF3027,MEL
LAVINGTON,2641,LAVINGTON2641,ALB
LAVINGTON DC,2640,LAVINGTON DC2640,ALB
LAW COURTS,8010,LAW COURTS8010,MEL
LAWNTON,4501,LAWNTON4501,BRI
LAWSON,2617,LAWSON2617,CBR
LAWSON,2783,LAWSON2783,SYD
LEABROOK,5068,LEABROOK5068,ADL
LEDA,6170,LEDA6170,PER
LEEDERVILLE,6007,LEEDERVILLE6007,PER
LEEDERVILLE,6900,LEEDERVILLE6900,PER
LEEDERVILLE,6902,LEEDERVILLE6902,PER
LEEDERVILLE,6903,LEEDERVILLE6903,PER
LEEMING,6149,LEEMING6149,PER
LEETON,2705,LEETON2705,YNG
LEGANA,7277,LEGANA7277,LAU
LEICHHARDT,4305,LEICHHARDT4305,BRI
LEITH,7315,LEITH7315,DPO
LEMON TREE PASSAGE,2319,LEMON TREE PASSAGE2319,NEW
LENAGHAN,2322,LENAGHAN2322,NEW
LENAH VALLEY,7008,LENAH VALLEY7008,TAS
LENEVA,3691,LENEVA3691,ALB
LENNOX HEAD,2478,LENNOX HEAD2478,NTH
LEOPOLD,3224,LEOPOLD3224,GEE
LESMURDIE,6076,LESMURDIE6076,PER
LEURA,2780,LEURA2780,SYD
LIDDELL,2333,LIDDELL2333,NEW
LIGHTHOUSE BEACH,2444,LIGHTHOUSE BEACH2444,PQQ
LIGHTSVIEW,5085,LIGHTSVIEW5085,ADL
LILYDALE,3140,LILYDALE3140,MEL
LIMESTONE CREEK,4701,LIMESTONE CREEK4701,CAP
LINDEN,2778,LINDEN2778,SYD
LINDEN PARK,5065,LINDEN PARK5065,ADL
LINDISFARNE,7015,LINDISFARNE7015,TAS
LINDUM,4178,LINDUM4178,BRI
LISAROW,2250,LISAROW2250,CCT
LISMORE,2480,LISMORE2480,NTH
LISMORE HEIGHTS,2480,LISMORE HEIGHTS2480,NTH
LISSNER,4820,LISSNER4820,TVL
LITTLE COVE,4567,LITTLE COVE4567,SUN
LITTLE LONSDALE STREET,8011,LITTLE LONSDALE STREET8011,MEL
LITTLE MOUNTAIN,4551,LITTLE MOUNTAIN4551,SUN
LITTLE PELICAN,2281,LITTLE PELICAN2281,NEW
LLANARTH,2795,LLANARTH2795,OAG
LLOYD,2650,LLOYD2650,YNG
LOCHINVAR,2321,LOCHINVAR2321,NEW
LOCKLEYS,5032,LOCKLEYS5032,ADL
LOCKRIDGE,6054,LOCKRIDGE6054,PER
LOCKROSE,4342,LOCKROSE4342,TOO
LOGAN CENTRAL,4114,LOGAN CENTRAL4114,BRI
LOGAN CITY BC,4114,LOGAN CITY BC4114,BRI
LOGAN CITY DC,4114,LOGAN CITY DC4114,BRI
LOGAN HYPERDOME BC,4128,LOGAN HYPERDOME BC4128,BRI
LOGAN RESERVE,4133,LOGAN RESERVE4133,BRI
LOGAN VILLAGE,4207,LOGAN VILLAGE4207,BRI
LOGANDALE,4129,LOGANDALE4129,BRI
LOGANHOLME,4129,LOGANHOLME4129,BRI
LOGANHOLME BC,4129,LOGANHOLME BC4129,BRI
LOGANHOLME DC,4129,LOGANHOLME DC4129,BRI
LOGANLEA,4131,LOGANLEA4131,BRI
LOIRA,7275,LOIRA7275,LAU
LONE PINE,4069,LONE PINE4069,BRI
LONG FOREST,3340,LONG FOREST3340,MEL
LONG GULLY,3550,LONG GULLY3550,BEN
LONG JETTY,2261,LONG JETTY2261,CCT
LONG POCKET,4068,LONG POCKET4068,BRI
LONG REACH,7253,LONG REACH7253,LAU
LONGFORD,7301,LONGFORD7301,LAU
LONSDALE,5160,LONSDALE5160,ADL
LONSDALE DC,5160,LONSDALE DC5160,ADL
LORETO HILL,4120,LORETO HILL4120,BRI
LORN,2320,LORN2320,NEW
LOTA,4179,LOTA4179,BRI
LOUISA CREEK,4740,LOUISA CREEK4740,MKY
LOUTH PARK,2320,LOUTH PARK2320,NEW
LOVEDALE,2325,LOVEDALE2325,NEW
LOVELY BANKS,3213,LOVELY BANKS3213,GEE
LOW HEAD,7253,LOW HEAD7253,LAU
LOWER BELFORD,2335,LOWER BELFORD2335,NEW
LOWER MITCHAM,5062,LOWER MITCHAM5062,ADL
LOWER PLENTY,3093,LOWER PLENTY3093,MEL
LOWER SANDY BAY,7005,LOWER SANDY BAY7005,TAS
LOWOOD,4311,LOWOOD4311,TOO
LOXFORD,2326,LOXFORD2326,NEW
LUCAS,3350,LUCAS3350,GEE
LUCKNOW,2800,LUCKNOW2800,OAG
LUSCOMBE,4207,LUSCOMBE4207,BRI
LUTANA,7009,LUTANA7009,TAS
LUTWYCHE,4030,LUTWYCHE4030,BRI
LYGON STREET NORTH,3057,LYGON STREET NORTH3057,MEL
LYNBROOK,3975,LYNBROOK3975,MEL
LYNDHURST,3975,LYNDHURST3975,MEL
LYNDOCH,5351,LYNDOCH5351,ADL
LYNEHAM,2602,LYNEHAM2602,CBR
LYNTON,5062,LYNTON5062,ADL
LYNWOOD,4660,LYNWOOD4660,BDB
LYNWOOD,6147,LYNWOOD6147,PER
LYONS,2606,LYONS2606,CBR
LYSTERFIELD,3156,LYSTERFIELD3156,MEL
LYSTERFIELD SOUTH,3156,LYSTERFIELD SOUTH3156,MEL
LYTTON,4178,LYTTON4178,BRI
MACARTHUR,2904,MACARTHUR2904,CBR
MACDONALD PARK,5121,MACDONALD PARK5121,ADL
MACDONALDTOWN,4350,MACDONALDTOWN4350,TOO
MACGREGOR,2615,MACGREGOR2615,CBR
MACGREGOR,4109,MACGREGOR4109,BRI
MACHANS BEACH,4878,MACHANS BEACH4878,CNS
MACKAY,4740,MACKAY4740,MKY
MACKAY BC,4740,MACKAY BC4740,MKY
MACKAY CANELAND,4740,MACKAY CANELAND4740,MKY
MACKAY DC,4740,MACKAY DC4740,MKY
MACKAY EAST,4740,MACKAY EAST4740,MKY
MACKAY HARBOUR,4740,MACKAY HARBOUR4740,MKY
MACKAY MC,4741,MACKAY MC4741,MKY
MACKAY NORTH,4740,MACKAY NORTH4740,MKY
MACKAY SOUTH,4740,MACKAY SOUTH4740,MKY
MACKAY WEST,4740,MACKAY WEST4740,MKY
MACKENZIE,4156,MACKENZIE4156,BRI
MACKSVILLE,2447,MACKSVILLE2447,CFS
MACLEAN,2463,MACLEAN2463,NTH
MACLEAN,4280,MACLEAN4280,BRI
MACLEOD,3085,MACLEOD3085,MEL
MACLEOD WEST,3085,MACLEOD WEST3085,MEL
MACMASTERS BEACH,2251,MACMASTERS BEACH2251,CCT
MACQUARIE,2614,MACQUARIE2614,CBR
MACQUARIE HILLS,2285,MACQUARIE HILLS2285,NEW
MACROSSAN,4816,MACROSSAN4816,TVL
MADDINGLEY,3340,MADDINGLEY3340,MEL
MADDINGTON,6109,MADDINGTON6109,PER
MADDINGTON,6989,MADDINGTON6989,PER
MADELEY,6065,MADELEY6065,PER
MADORA BAY,6210,MADORA BAY6210,PER
MAGENTA,2261,MAGENTA2261,CCT
MAGILL,5072,MAGILL5072,ADL
MAGILL NORTH,5072,MAGILL NORTH5072,ADL
MAGILL SOUTH,5072,MAGILL SOUTH5072,ADL
MAHOGANY CREEK,6072,MAHOGANY CREEK6072,PER
MAIDA VALE,6057,MAIDA VALE6057,PER
MAIDEN GULLY,3551,MAIDEN GULLY3551,BEN
MAIDSTONE,3012,MAIDSTONE3012,MEL
MAIN BEACH,4217,MAIN BEACH4217,GLD
MAIN RIDGE,3928,MAIN RIDGE3928,MEL
MAISON DIEU,2330,MAISON DIEU2330,NEW
MAITLAND,2320,MAITLAND2320,NEW
MAITLAND NORTH,2320,MAITLAND NORTH2320,NEW
MAJURA,2609,MAJURA2609,CBR
MALAGA,6090,MALAGA6090,PER
MALAGA,6944,MALAGA6944,PER
MALAGA DC,6945,MALAGA DC6945,PER
MALANDA,4885,MALANDA4885,CNS
MALDON,2571,MALDON2571,WOL
MALDON,3463,MALDON3463,BEN
MALENY,4552,MALENY4552,SUN
MALLABULA,2319,MALLABULA2319,NEW
MALMSBURY,3446,MALMSBURY3446,BEN
MALVERN,3144,MALVERN3144,MEL
MALVERN,5061,MALVERN5061,ADL
MALVERN EAST,3145,MALVERN EAST3145,MEL
MALVERN NORTH,3144,MALVERN NORTH3144,MEL
MANDALAY,4802,MANDALAY4802,MKY
MANDOGALUP,6167,MANDOGALUP6167,PER
MANDURAH,6210,MANDURAH6210,PER
MANDURAH DC,6210,MANDURAH DC6210,PER
MANDURANG,3551,MANDURANG3551,BEN
MANGERTON,2500,MANGERTON2500,WOL
MANGO HILL,4509,MANGO HILL4509,BRI
MANIFOLD HEIGHTS,3218,MANIFOLD HEIGHTS3218,GEE
MANLY,4179,MANLY4179,BRI
MANLY WEST,4179,MANLY WEST4179,BRI
MANNERIM,3222,MANNERIM3222,GEE
MANNERING PARK,2259,MANNERING PARK2259,CCT
MANNING,6152,MANNING6152,PER
MANNINGHAM,5086,MANNINGHAM5086,ADL
MANOORA,4870,MANOORA4870,CNS
MANOR LAKES,3024,MANOR LAKES3024,MEL
MANSFIELD,4122,MANSFIELD4122,BRI
MANSFIELD BC,4122,MANSFIELD BC4122,BRI
MANSFIELD DC,4122,MANSFIELD DC4122,BRI
MANSFIELD PARK,5012,MANSFIELD PARK5012,ADL
MANUKA,2603,MANUKA2603,CBR
MANUNDA,4870,MANUNDA4870,CNS
MAPLETON,4560,MAPLETON4560,SUN
MARANANGA,5355,MARANANGA5355,ADL
MARANGAROO,6064,MARANGAROO6064,PER
MARBURG,4346,MARBURG4346,TOO
MARCOOLA,4564,MARCOOLA4564,SUN
MARCUS BEACH,4573,MARCUS BEACH4573,SUN
MARCUS HILL,3222,MARCUS HILL3222,GEE
MARDEN,5070,MARDEN5070,ADL
MARDI,2259,MARDI2259,CCT
MAREEBA,4880,MAREEBA4880,CNS
MARGATE,4019,MARGATE4019,BRI
MARGATE,7054,MARGATE7054,TAS
MARGATE BEACH,4019,MARGATE BEACH4019,BRI
MARIAN,4753,MARIAN4753,MKY
MARIBYRNONG,3032,MARIBYRNONG3032,MEL
MARINO,5049,MARINO5049,ADL
MARION,5043,MARION5043,ADL
MARKS POINT,2280,MARKS POINT2280,NEW
MARLESTON,5033,MARLESTON5033,ADL
MARLESTON DC,5033,MARLESTON DC5033,ADL
MARMION,6020,MARMION6020,PER
MARMONG POINT,2284,MARMONG POINT2284,NEW
MARONG,3515,MARONG3515,BEN
MAROOCHY RIVER,4561,MAROOCHY RIVER4561,SUN
MAROOCHYDORE,4558,MAROOCHYDORE4558,SUN
MAROOCHYDORE BC,4558,MAROOCHYDORE BC4558,SUN
MAROOCHYDORE DC,4558,MAROOCHYDORE DC4558,SUN
MAROOCHYDORE SOUTH,4558,MAROOCHYDORE SOUTH4558,SUN
MAROONDAN,4671,MAROONDAN4671,BDB
MARRYATVILLE,5068,MARRYATVILLE5068,ADL
MARSDEN,4132,MARSDEN4132,BRI
MARSDEN POSTAL DEPOT,4132,MARSDEN POSTAL DEPOT4132,BRI
MARSHALL,3216,MARSHALL3216,GEE
MARSHALL MOUNT,2530,MARSHALL MOUNT2530,WOL
MARTIN,6110,MARTIN6110,PER
MARYBOROUGH,4650,MARYBOROUGH4650,MYB
MARYBOROUGH DC,4650,MARYBOROUGH DC4650,MYB
MARYBOROUGH WEST,4650,MARYBOROUGH WEST4650,MYB
MARYLAND,2287,MARYLAND2287,NEW
MARYVILLE,2293,MARYVILLE2293,NEW
MASLIN BEACH,5170,MASLIN BEACH5170,ADL
MATCHAM,2250,MATCHAM2250,CCT
MATER HILL,4101,MATER HILL4101,BRI
MATER HOSPITAL,4101,MATER HOSPITAL4101,BRI
MAUDSLAND,4210,MAUDSLAND4210,GLD
MAWSON,2607,MAWSON2607,CBR
MAWSON LAKES,5095,MAWSON LAKES5095,ADL
MAYFIELD,2304,MAYFIELD2304,NEW
MAYFIELD,7248,MAYFIELD7248,LAU
MAYFIELD EAST,2304,MAYFIELD EAST2304,NEW
MAYFIELD NORTH,2304,MAYFIELD NORTH2304,NEW
MAYFIELD WEST,2304,MAYFIELD WEST2304,NEW
MAYLANDS,5069,MAYLANDS5069,ADL
MAYLANDS,6051,MAYLANDS6051,PER
MAYLANDS,6931,MAYLANDS6931,PER
MAYNE,4006,MAYNE4006,BRI
MCCRAE,3938,MCCRAE3938,MEL
MCDESME,4807,MCDESME4807,TVL
MCDOUGALLS HILL,2330,MCDOUGALLS HILL2330,NEW
MCDOWALL,4053,MCDOWALL4053,BRI
MCILWRAITH,4671,MCILWRAITH4671,BDB
MCKELLAR,2617,MCKELLAR2617,CBR
MCKENZIE HILL,3451,MCKENZIE HILL3451,BEN
MCKINNON,3204,MCKINNON3204,MEL
MCLAREN FLAT,5171,MCLAREN FLAT5171,ADL
MCLAREN VALE,5171,MCLAREN VALE5171,ADL
MEADOW HEIGHTS,3048,MEADOW HEIGHTS3048,MEL
MEADOW HEIGHTS,3057,MEADOW HEIGHTS3057,MEL
MEADOW SPRINGS,6210,MEADOW SPRINGS6210,PER
MEADOWBROOK,4131,MEADOWBROOK4131,BRI
MEDINA,6167,MEDINA6167,PER
MEDINDIE,5081,MEDINDIE5081,ADL
MEDINDIE GARDENS,5081,MEDINDIE GARDENS5081,ADL
MEDOWIE,2318,MEDOWIE2318,NEW
MEEANDAH,4008,MEEANDAH4008,BRI
MEIKLEVILLE HILL,4703,MEIKLEVILLE HILL4703,CAP
MELBA,2615,MELBA2615,CBR
MELBOURNE,3000,MELBOURNE3000,MEL
MELBOURNE,3001,MELBOURNE3001,MEL
MELBOURNE,3004,MELBOURNE3004,MEL
MELBOURNE AIRPORT,3045,MELBOURNE AIRPORT3045,MEL
MELBOURNE UNIVERSITY,3052,MELBOURNE UNIVERSITY3052,MEL
MELROSE PARK,5039,MELROSE PARK5039,ADL
MELROSE PARK DC,5039,MELROSE PARK DC5039,ADL
MELTON,3337,MELTON3337,MEL
MELTON SOUTH,3338,MELTON SOUTH3338,MEL
MELTON WEST,3337,MELTON WEST3337,MEL
MELVILLE,6156,MELVILLE6156,PER
MELVILLE,6956,MELVILLE6956,PER
MENORA,6050,MENORA6050,PER
MENTONE,3194,MENTONE3194,MEL
MENTONE EAST,3194,MENTONE EAST3194,MEL
MEREWETHER,2291,MEREWETHER2291,NEW
MEREWETHER HEIGHTS,2291,MEREWETHER HEIGHTS2291,NEW
MERIDAN PLAINS,4551,MERIDAN PLAINS4551,SUN
MERINGA,4865,MERINGA4865,CNS
MERINGANDAN,4352,MERINGANDAN4352,TOO
MERINGANDAN WEST,4352,MERINGANDAN WEST4352,TOO
MERLYNSTON,3058,MERLYNSTON3058,MEL
MERMAID BEACH,4218,MERMAID BEACH4218,GLD
MERMAID KEYS,4218,MERMAID KEYS4218,GLD
MERMAID WATERS,4218,MERMAID WATERS4218,GLD
MERNDA,3754,MERNDA3754,MEL
MEROO MEADOW,2540,MEROO MEADOW2540,WOL
MERRICKS,3916,MERRICKS3916,MEL
MERRICKS BEACH,3926,MERRICKS BEACH3926,MEL
MERRICKS NORTH,3926,MERRICKS NORTH3926,MEL
MERRIMAC,4226,MERRIMAC4226,GLD
MERRIWA,6030,MERRIWA6030,PER
METFORD,2323,METFORD2323,NEW
MIALLO,4873,MIALLO4873,CNS
MIAMI,4220,MIAMI4220,GLD
MIAMI KEYS,4218,MIAMI KEYS4218,GLD
MIANDETTA,7310,MIANDETTA7310,DPO
MICKLEHAM,3064,MICKLEHAM3064,MEL
MIDDLE CAMBERWELL,3124,MIDDLE CAMBERWELL3124,MEL
MIDDLE PARK,3206,MIDDLE PARK3206,MEL
MIDDLE PARK,4074,MIDDLE PARK4074,BRI
MIDDLE RIDGE,4350,MIDDLE RIDGE4350,TOO
MIDDLE SWAN,6056,MIDDLE SWAN6056,PER
MIDLAND,6056,MIDLAND6056,PER
MIDLAND DC,6936,MIDLAND DC6936,PER
MIDVALE,6056,MIDVALE6056,PER
MIDWAY POINT,7171,MIDWAY POINT7171,TAS
MIGHELL,4860,MIGHELL4860,CNS
MILAWA,3678,MILAWA3678,ALB
MILBRODALE,2330,MILBRODALE2330,NEW
MILE END,5031,MILE END5031,ADL
MILE END SOUTH,5031,MILE END SOUTH5031,ADL
MILL PARK,3082,MILL PARK3082,MEL
MILLBANK,4670,MILLBANK4670,BDB
MILLCHESTER,4820,MILLCHESTER4820,TVL
MILLSWOOD,5034,MILLSWOOD5034,ADL
MILTON,4064,MILTON4064,BRI
MILTON BC,4064,MILTON BC4064,BRI
MINDARIE,6030,MINDARIE6030,PER
MINDEN,4311,MINDEN4311,TOO
MINERS REST,3352,MINERS REST3352,GEE
MINMI,2287,MINMI2287,NEW
MINNAMURRA,2533,MINNAMURRA2533,WOL
MINYAMA,4575,MINYAMA4575,SUN
MIRRABOOKA,2264,MIRRABOOKA2264,NEW
MIRRABOOKA,6061,MIRRABOOKA6061,PER
MIRRABOOKA,6941,MIRRABOOKA6941,PER
MIRRIWINNI,4871,MIRRIWINNI4871,CNS
MITCHAM,3132,MITCHAM3132,MEL
MITCHAM,5062,MITCHAM5062,ADL
MITCHAM NORTH,3132,MITCHAM NORTH3132,MEL
MITCHAM SHOPPING CENTRE,5062,MITCHAM SHOPPING CENTRE5062,ADL
MITCHELL,2795,MITCHELL2795,OAG
MITCHELL,2911,MITCHELL2911,CBR
MITCHELL PARK,3352,MITCHELL PARK3352,GEE
MITCHELL PARK,3355,MITCHELL PARK3355,GEE
MITCHELL PARK,5043,MITCHELL PARK5043,ADL
MITCHELTON,4053,MITCHELTON4053,BRI
MITTAGONG,2575,MITTAGONG2575,WOL
MOANA,5169,MOANA5169,ADL
MOANA PARK,4218,MOANA PARK4218,GLD
MODBURY,5092,MODBURY5092,ADL
MODBURY HEIGHTS,5092,MODBURY HEIGHTS5092,ADL
MODBURY NORTH,5092,MODBURY NORTH5092,ADL
MODBURY NORTH DC,5092,MODBURY NORTH DC5092,ADL
MOFFAT BEACH,4551,MOFFAT BEACH4551,SUN
MOGGILL,4070,MOGGILL4070,BRI
MOLENDINAR,4214,MOLENDINAR4214,GLD
MOLONGLO VALLEY,2611,MOLONGLO VALLEY2611,CBR
MON REPOS,4670,MON REPOS4670,BDB
MONASH,2904,MONASH2904,CBR
MONASH UNIVERSITY,3800,MONASH UNIVERSITY3800,MEL
MONCRIEFF,2914,MONCRIEFF2914,CBR
MONDROOK,2430,MONDROOK2430,PQQ
MONKLAND,4570,MONKLAND4570,SUN
MONS,4556,MONS4556,SUN
MONT ALBERT,3127,MONT ALBERT3127,MEL
MONT ALBERT NORTH,3129,MONT ALBERT NORTH3129,MEL
MONTAGU BAY,7018,MONTAGU BAY7018,TAS
MONTELLO,7320,MONTELLO7320,DPO
MONTEREY KEYS,4212,MONTEREY KEYS4212,GLD
MONTMORENCY,3094,MONTMORENCY3094,MEL
MONTROSE,7010,MONTROSE7010,TAS
MONTVILLE,4560,MONTVILLE4560,SUN
MOOLAP,3221,MOOLAP3221,GEE
MOOLAP,3224,MOOLAP3224,GEE
MOOLOOLABA,4557,MOOLOOLABA4557,SUN
MOOLOOLAH,4553,MOOLOOLAH4553,SUN
MOOLOOLAH VALLEY,4553,MOOLOOLAH VALLEY4553,SUN
MOONAH,7009,MOONAH7009,TAS
MOONEE BEACH,2450,MOONEE BEACH2450,CFS
MOONEE PONDS,3039,MOONEE PONDS3039,MEL
MOONEE VALE,3055,MOONEE VALE3055,MEL
MOORABBIN,3189,MOORABBIN3189,MEL
MOORABBIN AIRPORT,3194,MOORABBIN AIRPORT3194,MEL
MOORABBIN EAST,3189,MOORABBIN EAST3189,MEL
MOORE PARK,4670,MOORE PARK4670,BDB
MOORE PARK BEACH,4670,MOORE PARK BEACH4670,BDB
MOORES POCKET,4305,MOORES POCKET4305,BRI
MOORONG,2650,MOORONG2650,YNG
MOOROOBOOL,4870,MOOROOBOOL4870,CNS
MOOROODUC,3933,MOOROODUC3933,MEL
MOOROOKA,4105,MOOROOKA4105,BRI
MOOROOLBARK,3138,MOOROOLBARK3138,MEL
MOORVALE,4105,MOORVALE4105,BRI
MORAYFIELD,4506,MORAYFIELD4506,BRI
MORDIALLOC,3195,MORDIALLOC3195,MEL
MORDIALLOC NORTH,3195,MORDIALLOC NORTH3195,MEL
MORELAND,3058,MORELAND3058,MEL
MORELAND WEST,3055,MORELAND WEST3055,MEL
MORESBY,4871,MORESBY4871,CNS
MORGAN PARK,4370,MORGAN PARK4370,TOO
MORISSET,2264,MORISSET2264,NEW
MORISSET PARK,2264,MORISSET PARK2264,NEW
MORLEY,6062,MORLEY6062,PER
MORLEY,6943,MORLEY6943,PER
MORNINGSIDE,4170,MORNINGSIDE4170,BRI
MORNINGTON,3931,MORNINGTON3931,MEL
MORNINGTON,7018,MORNINGTON7018,TAS
MORPETH,2321,MORPETH2321,NEW
MORPHETT VALE,5162,MORPHETT VALE5162,ADL
MORPHETTVILLE,5043,MORPHETTVILLE5043,ADL
MOSMAN PARK,4820,MOSMAN PARK4820,TVL
MOSMAN PARK,6012,MOSMAN PARK6012,PER
MOSMAN PARK,6912,MOSMAN PARK6912,PER
MOSS VALE,2577,MOSS VALE2577,WOL
MOSSMAN,4873,MOSSMAN4873,CNS
MOTTO FARM,2324,MOTTO FARM2324,NEW
MOUNT AUSTIN,2650,MOUNT AUSTIN2650,YNG
MOUNT CLAREMONT,6010,MOUNT CLAREMONT6010,PER
MOUNT CLEAR,3350,MOUNT CLEAR3350,GEE
MOUNT COOLUM,4573,MOUNT COOLUM4573,SUN
MOUNT COOT-THA,4066,MOUNT COOT-THA4066,BRI
MOUNT COTTON,4165,MOUNT COTTON4165,BRI
MOUNT DEE,2320,MOUNT DEE2320,NEW
MOUNT DUNEED,3217,MOUNT DUNEED3217,GEE
MOUNT ELIZA,3930,MOUNT ELIZA3930,MEL
MOUNT ELLIOT,2250,MOUNT ELLIOT2250,CCT
MOUNT GRAVATT,4122,MOUNT GRAVATT4122,BRI
MOUNT GRAVATT EAST,4122,MOUNT GRAVATT EAST4122,BRI
MOUNT HAWTHORN,6016,MOUNT HAWTHORN6016,PER
MOUNT HAWTHORN,6915,MOUNT HAWTHORN6915,PER
MOUNT HELEN,3350,MOUNT HELEN3350,GEE
MOUNT HUTTON,2290,MOUNT HUTTON2290,NEW
MOUNT KEIRA,2500,MOUNT KEIRA2500,WOL
MOUNT KEMBLA,2526,MOUNT KEMBLA2526,WOL
MOUNT KYNOCH,4350,MOUNT KYNOCH4350,TOO
MOUNT LAWLEY,6050,MOUNT LAWLEY6050,PER
MOUNT LAWLEY,6929,MOUNT LAWLEY6929,PER
MOUNT LOFTY,4350,MOUNT LOFTY4350,TOO
MOUNT LOUISA,4814,MOUNT LOUISA4814,TVL
MOUNT LOW,4818,MOUNT LOW4818,TVL
MOUNT MARSHALL,4362,MOUNT MARSHALL4362,TOO
MOUNT MARTHA,3934,MOUNT MARTHA3934,MEL
MOUNT NASURA,6112,MOUNT NASURA6112,PER
MOUNT NATHAN,4211,MOUNT NATHAN4211,GLD
MOUNT NELSON,7007,MOUNT NELSON7007,TAS
MOUNT OMMANEY,4074,MOUNT OMMANEY4074,BRI
MOUNT OUSLEY,2519,MOUNT OUSLEY2519,WOL
MOUNT PANORAMA,2795,MOUNT PANORAMA2795,OAG
MOUNT PETER,4869,MOUNT PETER4869,CNS
MOUNT PLEASANT,2519,MOUNT PLEASANT2519,WOL
MOUNT PLEASANT,3350,MOUNT PLEASANT3350,GEE
MOUNT PLEASANT,4740,MOUNT PLEASANT4740,MKY
MOUNT PLEASANT,6153,MOUNT PLEASANT6153,PER
MOUNT RASCAL,4350,MOUNT RASCAL4350,TOO
MOUNT RICHON,6112,MOUNT RICHON6112,PER
MOUNT RIVERVIEW,2774,MOUNT RIVERVIEW2774,SYD
MOUNT RUMNEY,7170,MOUNT RUMNEY7170,TAS
MOUNT SAINT THOMAS,2500,MOUNT SAINT THOMAS2500,WOL
MOUNT SHERIDAN,4868,MOUNT SHERIDAN4868,CNS
MOUNT ST JOHN,4818,MOUNT ST JOHN4818,TVL
MOUNT STUART,4811,MOUNT STUART4811,TVL
MOUNT STUART,7000,MOUNT STUART7000,TAS
MOUNT SURROUND,4809,MOUNT SURROUND4809,TVL
MOUNT TAMBORINE,4272,MOUNT TAMBORINE4272,GLD
MOUNT THOMPSON,4121,MOUNT THOMPSON4121,BRI
MOUNT THORLEY,2330,MOUNT THORLEY2330,NEW
MOUNT VIEW,2325,MOUNT VIEW2325,NEW
MOUNT WARREN PARK,4207,MOUNT WARREN PARK4207,BRI
MOUNT WARRIGAL,2528,MOUNT WARRIGAL2528,WOL
MOUNT WAVERLEY,3149,MOUNT WAVERLEY3149,MEL
MOUNTAIN CREEK,4557,MOUNTAIN CREEK4557,SUN
MOUNTAIN GATE,3156,MOUNTAIN GATE3156,MEL
MOURILYAN,4858,MOURILYAN4858,CNS
MOWBRAY,4877,MOWBRAY4877,CNS
MOWBRAY,7248,MOWBRAY7248,LAU
MOWBRAY HEIGHTS,7248,MOWBRAY HEIGHTS7248,LAU
MUDGEERABA,4213,MUDGEERABA4213,GLD
MUDJIMBA,4564,MUDJIMBA4564,SUN
MULAMBIN,4703,MULAMBIN4703,CAP
MULGOA,2745,MULGOA2745,SYD
MULGRAVE,3170,MULGRAVE3170,MEL
MULLALOO,6027,MULLALOO6027,PER
MULLAWAY,2456,MULLAWAY2456,CFS
MULLUMBIMBY,2482,MULLUMBIMBY2482,NTH
MULWALA,2647,MULWALA2647,ALB
MUNDARING,6073,MUNDARING6073,PER
MUNDINGBURRA,4812,MUNDINGBURRA4812,TVL
MUNDOO,4860,MUNDOO4860,CNS
MUNNA POINT,4566,MUNNA POINT4566,SUN
MUNNO PARA,5115,MUNNO PARA5115,ADL
MUNNO PARA DOWNS,5115,MUNNO PARA DOWNS5115,ADL
MUNNO PARA WEST,5115,MUNNO PARA WEST5115,ADL
MUNRUBEN,4125,MUNRUBEN4125,BRI
MUNSTER,6166,MUNSTER6166,PER
MURARRIE,4172,MURARRIE4172,BRI
MURDOCH,6150,MURDOCH6150,PER
MURRAY,4814,MURRAY4814,TVL
MURRAY REGION MC,2708,MURRAY REGION MC2708,ALB
MURRAYS BEACH,2281,MURRAYS BEACH2281,NEW
MURRUMBA DOWNS,4503,MURRUMBA DOWNS4503,BRI
MURRUMBEENA,3163,MURRUMBEENA3163,MEL
MURWILLUMBAH,2484,MURWILLUMBAH2484,GLD
MURWILLUMBAH SOUTH,2484,MURWILLUMBAH SOUTH2484,GLD
MUSWELLBROOK,2333,MUSWELLBROOK2333,NEW
MUTARNEE,4816,MUTARNEE4816,TVL
MYAREE,6154,MYAREE6154,PER
MYAREE BC,6960,MYAREE BC6960,PER
MYERS FLAT,3556,MYERS FLAT3556,BEN
MYLESTOM,2454,MYLESTOM2454,CFS
MYRTLE BANK,5064,MYRTLE BANK5064,ADL
MYRTLEFORD,3737,MYRTLEFORD3737,ALB
MYRTLETOWN,4008,MYRTLETOWN4008,BRI
MYSTERTON,4812,MYSTERTON4812,TVL
MYUNA BAY,2264,MYUNA BAY2264,NEW
NABIAC,2312,NABIAC2312,PQQ
NAILSWORTH,5083,NAILSWORTH5083,ADL
NAMBOUR,4560,NAMBOUR4560,SUN
NAMBOUR BC,4560,NAMBOUR BC4560,SUN
NAMBOUR DC,4560,NAMBOUR DC4560,SUN
NAMBOUR WEST,4560,NAMBOUR WEST4560,SUN
NAMBUCCA HEADS,2448,NAMBUCCA HEADS2448,CFS
NARANGBA,4504,NARANGBA4504,BRI
NARARA,2250,NARARA2250,CCT
NARRABUNDAH,2604,NARRABUNDAH2604,CBR
NARRAMBLA,2800,NARRAMBLA2800,OAG
NARRE WARREN,3805,NARRE WARREN3805,MEL
NARRE WARREN NORTH,3804,NARRE WARREN NORTH3804,MEL
NARRE WARREN SOUTH,3805,NARRE WARREN SOUTH3805,MEL
NASHDALE,2800,NASHDALE2800,OAG
NASHVILLE,4017,NASHVILLE4017,BRI
NATHAN,4111,NATHAN4111,BRI
NAVAL BASE,6165,NAVAL BASE6165,PER
NEATH,2326,NEATH2326,NEW
NEDLANDS,6009,NEDLANDS6009,PER
NEDLANDS,6907,NEDLANDS6907,PER
NEDLANDS,6909,NEDLANDS6909,PER
NEDLANDS DC,6009,NEDLANDS DC6009,PER
NEERABUP,6031,NEERABUP6031,PER
NELSON BAY,2315,NELSON BAY2315,NEW
NERANG,4211,NERANG4211,GLD
NERANG BC,4211,NERANG BC4211,GLD
NERANG DC,4211,NERANG DC4211,GLD
NERIMBERA,4701,NERIMBERA4701,CAP
NERRINA,3350,NERRINA3350,GEE
NETHERBY,5062,NETHERBY5062,ADL
NETLEY,5037,NETLEY5037,ADL
NEW BERRIMA,2577,NEW BERRIMA2577,WOL
NEW BRIGHTON,2483,NEW BRIGHTON2483,NTH
NEW CHUM,4303,NEW CHUM4303,BRI
NEW FARM,4005,NEW FARM4005,BRI
NEW GISBORNE,3438,NEW GISBORNE3438,MEL
NEW LAMBTON,2305,NEW LAMBTON2305,NEW
NEW LAMBTON HEIGHTS,2305,NEW LAMBTON HEIGHTS2305,NEW
NEW NORFOLK,7140,NEW NORFOLK7140,TAS
NEW PORT,5015,NEW PORT5015,ADL
NEW TOWN,7008,NEW TOWN7008,TAS
NEWCASTLE,2300,NEWCASTLE2300,NEW
NEWCASTLE EAST,2300,NEWCASTLE EAST2300,NEW
NEWCASTLE UNIVERSITY,2308,NEWCASTLE UNIVERSITY2308,NEW
NEWCASTLE WEST,2302,NEWCASTLE WEST2302,NEW
NEWCOMB,3219,NEWCOMB3219,GEE
NEWELL,4873,NEWELL4873,CNS
NEWINGTON,3350,NEWINGTON3350,GEE
NEWMARKET,4051,NEWMARKET4051,BRI
NEWNHAM,7248,NEWNHAM7248,LAU
NEWPORT,3015,NEWPORT3015,MEL
NEWPORT,4020,NEWPORT4020,BRI
NEWRYBAR,2479,NEWRYBAR2479,NTH
NEWSTEAD,4006,NEWSTEAD4006,BRI
NEWSTEAD,7250,NEWSTEAD7250,LAU
NEWTON,5074,NEWTON5074,ADL
NEWTOWN,3220,NEWTOWN3220,GEE
NEWTOWN,4305,NEWTOWN4305,BRI
NEWTOWN,4350,NEWTOWN4350,TOO
NGUNNAWAL,2913,NGUNNAWAL2913,CBR
NIAGARA PARK,2250,NIAGARA PARK2250,CCT
NICHOLLS,2913,NICHOLLS2913,CBR
NIDDRIE,3042,NIDDRIE3042,MEL
NIKENBAH,4655,NIKENBAH4655,MYB
NINDERRY,4561,NINDERRY4561,SUN
NINGI,4511,NINGI4511,BRI
NIRIMBA,4551,NIRIMBA4551,SUN
NOARLUNGA CENTRE,5168,NOARLUNGA CENTRE5168,ADL
NOARLUNGA DOWNS,5168,NOARLUNGA DOWNS5168,ADL
NOBBY,4360,NOBBY4360,TOO
NOBBY BEACH,4218,NOBBY BEACH4218,GLD
NOBLE PARK,3174,NOBLE PARK3174,MEL
NOBLE PARK EAST,3174,NOBLE PARK EAST3174,MEL
NOBLE PARK NORTH,3174,NOBLE PARK NORTH3174,MEL
NOLLAMARA,6061,NOLLAMARA6061,PER
NOME,4816,NOME4816,TVL
NOORLAH,4740,NOORLAH4740,MKY
NOOSA HEADS,4567,NOOSA HEADS4567,SUN
NOOSAVILLE,4566,NOOSAVILLE4566,SUN
NOOSAVILLE BC,4566,NOOSAVILLE BC4566,SUN
NOOSAVILLE DC,4566,NOOSAVILLE DC4566,SUN
NORAH HEAD,2263,NORAH HEAD2263,CCT
NORANDA,6062,NORANDA6062,PER
NORAVILLE,2263,NORAVILLE2263,CCT
NORDS WHARF,2281,NORDS WHARF2281,NEW
NORLANE,3214,NORLANE3214,GEE
NORMAN GARDENS,4701,NORMAN GARDENS4701,CAP
NORMAN PARK,4170,NORMAN PARK4170,BRI
NORMANBY,4059,NORMANBY4059,BRI
NORTH ADELAIDE,5006,NORTH ADELAIDE5006,ADL
NORTH ADELAIDE MELBOURNE ST,5006,NORTH ADELAIDE MELBOURNE ST5006,ADL
NORTH ALBURY,2640,NORTH ALBURY2640,ALB
NORTH ARM,4561,NORTH ARM4561,SUN
NORTH AVOCA,2260,NORTH AVOCA2260,CCT
NORTH BEACH,6020,NORTH BEACH6020,PER
NORTH BEACH,6920,NORTH BEACH6920,PER
NORTH BENDIGO,3550,NORTH BENDIGO3550,BEN
NORTH BOAMBEE VALLEY,2450,NORTH BOAMBEE VALLEY2450,CFS
NORTH BOOVAL,4304,NORTH BOOVAL4304,BRI
NORTH BRIGHTON,5048,NORTH BRIGHTON5048,ADL
NORTH CAIRNS,4870,NORTH CAIRNS4870,CNS
NORTH COOGEE,6163,NORTH COOGEE6163,PER
NORTH FREMANTLE,6159,NORTH FREMANTLE6159,PER
NORTH GEELONG,3215,NORTH GEELONG3215,GEE
NORTH GOSFORD,2250,NORTH GOSFORD2250,CCT
NORTH HAVEN,2443,NORTH HAVEN2443,PQQ
NORTH HAVEN,5018,NORTH HAVEN5018,ADL
NORTH HOBART,7000,NORTH HOBART7000,TAS
NORTH HOBART,7002,NORTH HOBART7002,TAS
NORTH IPSWICH,4305,NORTH IPSWICH4305,BRI
NORTH ISIS,4660,NORTH ISIS4660,BDB
NORTH LAKE,6163,NORTH LAKE6163,PER
NORTH LAKES,4509,NORTH LAKES4509,BRI
NORTH LAMBTON,2299,NORTH LAMBTON2299,NEW
NORTH LISMORE,2480,NORTH LISMORE2480,NTH
NORTH MACKAY,4740,NORTH MACKAY4740,MKY
NORTH MACKSVILLE,2447,NORTH MACKSVILLE2447,CFS
NORTH MACLEAN,4280,NORTH MACLEAN4280,BRI
NORTH MACQUARIE,2527,NORTH MACQUARIE2527,WOL
NORTH MALENY,4552,NORTH MALENY4552,SUN
NORTH MELBOURNE,3051,NORTH MELBOURNE3051,MEL
NORTH MELBOURNE,8500,NORTH MELBOURNE8500,MEL
NORTH NOWRA,2541,NORTH NOWRA2541,WOL
NORTH PERTH,6006,NORTH PERTH6006,PER
NORTH PERTH,6906,NORTH PERTH6906,PER
NORTH PLYMPTON,5037,NORTH PLYMPTON5037,ADL
NORTH ROAD,3187,NORTH ROAD3187,MEL
NORTH ROCKHAMPTON,4701,NORTH ROCKHAMPTON4701,CAP
NORTH ROTHBURY,2335,NORTH ROTHBURY2335,NEW
NORTH SHORE,3214,NORTH SHORE3214,GEE
NORTH TAMBORINE,4272,NORTH TAMBORINE4272,GLD
NORTH TIVOLI,4305,NORTH TIVOLI4305,BRI
NORTH TOOWOOMBA,4350,NORTH TOOWOOMBA4350,TOO
NORTH WAGGA WAGGA,2650,NORTH WAGGA WAGGA2650,YNG
NORTH WANGARATTA,3678,NORTH WANGARATTA3678,ALB
NORTH WARD,4810,NORTH WARD4810,TVL
NORTH WOLLONGONG,2500,NORTH WOLLONGONG2500,WOL
NORTH YUNDERUP,6208,NORTH YUNDERUP6208,PER
NORTHBRIDGE,6003,NORTHBRIDGE6003,PER
NORTHBRIDGE,6865,NORTHBRIDGE6865,PER
NORTHCOTE,3070,NORTHCOTE3070,MEL
NORTHCOTE SOUTH,3070,NORTHCOTE SOUTH3070,MEL
NORTHFIELD,5085,NORTHFIELD5085,ADL
NORTHGATE,4013,NORTHGATE4013,BRI
NORTHGATE,5085,NORTHGATE5085,ADL
NORTHGATE MC,4013,NORTHGATE MC4013,BRI
NORTHGATE MC,9464,NORTHGATE MC9464,BRI
NORTHLAND CENTRE,3072,NORTHLAND CENTRE3072,MEL
NORTHLANDS,4350,NORTHLANDS4350,TOO
NORTHLANDS,6905,NORTHLANDS6905,PER
NORTHLANDS PO,6905,NORTHLANDS PO6905,PER
NORVILLE,4670,NORVILLE4670,BDB
NORWOOD,5067,NORWOOD5067,ADL
NORWOOD,7250,NORWOOD7250,LAU
NORWOOD SOUTH,5067,NORWOOD SOUTH5067,ADL
NOTTING HILL,3168,NOTTING HILL3168,MEL
NOVAR GARDENS,5040,NOVAR GARDENS5040,ADL
NOWRA,2541,NOWRA2541,WOL
NOWRA EAST,2541,NOWRA EAST2541,WOL
NOWRA HILL,2540,NOWRA HILL2540,WOL
NOWRA NAVAL PO,2540,NOWRA NAVAL PO2540,WOL
NOWRA NORTH,2541,NOWRA NORTH2541,WOL
NUDGEE,4014,NUDGEE4014,BRI
NUDGEE BEACH,4014,NUDGEE BEACH4014,BRI
NULKABA,2325,NULKABA2325,NEW
NUNAWADING,3131,NUNAWADING3131,MEL
NUNAWADING BC,3110,NUNAWADING BC3110,MEL
NUNDAH,4012,NUNDAH4012,BRI
NURIOOTPA,5355,NURIOOTPA5355,ADL
O'CONNOR,2602,O'CONNOR2602,CBR
O'CONNOR,6163,O'CONNOR6163,PER
O'HALLORAN HILL,5158,O'HALLORAN HILL5158,ADL
O'HALLORAN HILL DC,5158,O'HALLORAN HILL DC5158,ADL
O'MALLEY,2606,O'MALLEY2606,CBR
O'SULLIVAN BEACH,5166,O'SULLIVAN BEACH5166,ADL
OAK BEACH,4877,OAK BEACH4877,CNS
OAK FLATS,2529,OAK FLATS2529,WOL
OAK FLATS DC,2529,OAK FLATS DC2529,WOL
OAK PARK,3046,OAK PARK3046,MEL
OAK VALLEY,4811,OAK VALLEY4811,TVL
OAKDEN,5086,OAKDEN5086,ADL
OAKDOWNS,7019,OAKDOWNS7019,TAS
OAKEY,4401,OAKEY4401,TOO
OAKHAMPTON,2320,OAKHAMPTON2320,NEW
OAKHAMPTON HEIGHTS,2320,OAKHAMPTON HEIGHTS2320,NEW
OAKHURST,4650,OAKHURST4650,MYB
OAKLANDS PARK,5046,OAKLANDS PARK5046,ADL
OAKLEIGH,3166,OAKLEIGH3166,MEL
OAKLEIGH EAST,3166,OAKLEIGH EAST3166,MEL
OAKLEIGH SOUTH,3167,OAKLEIGH SOUTH3167,MEL
OAKS ESTATE,2620,OAKS ESTATE2620,CBR
OAKWOOD,4670,OAKWOOD4670,BDB
OCEAN GROVE,3226,OCEAN GROVE3226,GEE
OCEAN REEF,6027,OCEAN REEF6027,PER
OCEAN SHORES,2483,OCEAN SHORES2483,NTH
OCEAN VISTA,7320,OCEAN VISTA7320,DPO
OFFICER,3809,OFFICER3809,MEL
OLD BAR,2430,OLD BAR2430,PQQ
OLD BEACH,7017,OLD BEACH7017,TAS
OLD NOARLUNGA,5168,OLD NOARLUNGA5168,ADL
OLD REYNELLA,5161,OLD REYNELLA5161,ADL
ONE MILE,2316,ONE MILE2316,NEW
ONE MILE,4305,ONE MILE4305,BRI
ONKAPARINGA HILLS,5163,ONKAPARINGA HILLS5163,ADL
OONOONBA,4811,OONOONBA4811,TVL
OORALEA,4740,OORALEA4740,MKY
OPOSSUM CREEK,4300,OPOSSUM CREEK4300,BRI
ORANGE,2800,ORANGE2800,OAG
ORANGE DC,2800,ORANGE DC2800,OAG
ORANGE EAST,2800,ORANGE EAST2800,OAG
ORANGE GROVE,6109,ORANGE GROVE6109,PER
ORELIA,6167,ORELIA6167,PER
ORMEAU,4208,ORMEAU4208,BRI
ORMEAU HILLS,4208,ORMEAU HILLS4208,BRI
ORMISTON,4160,ORMISTON4160,BRI
ORMOND,3204,ORMOND3204,MEL
OSBORNE,5017,OSBORNE5017,ADL
OSBORNE PARK,6017,OSBORNE PARK6017,PER
OSBORNE PARK,6916,OSBORNE PARK6916,PER
OSBORNE PARK,6917,OSBORNE PARK6917,PER
OSBORNE PARK DC,6017,OSBORNE PARK DC6017,PER
OSBORNE PARK DC,6916,OSBORNE PARK DC6916,PER
OTAGO,7017,OTAGO7017,TAS
OTFORD,2508,OTFORD2508,WOL
OTTOWAY,5013,OTTOWAY5013,ADL
OURIMBAH,2258,OURIMBAH2258,CCT
OUTER HARBOR,5018,OUTER HARBOR5018,ADL
OVENS,3738,OVENS3738,ALB
OVINGHAM,5082,OVINGHAM5082,ADL
OXENFORD,4210,OXENFORD4210,GLD
OXFORD PARK,4053,OXFORD PARK4053,BRI
OXLEY,2903,OXLEY2903,CBR
OXLEY,3678,OXLEY3678,ALB
OXLEY,4075,OXLEY4075,BRI
OXLEY FLATS,3678,OXLEY FLATS3678,ALB
OYSTER COVE,2318,OYSTER COVE2318,NEW
PACIFIC FAIR,4218,PACIFIC FAIR4218,GLD
PACIFIC HEIGHTS,4703,PACIFIC HEIGHTS4703,CAP
PACIFIC PALMS,2428,PACIFIC PALMS2428,PQQ
PACIFIC PARADISE,4564,PACIFIC PARADISE4564,SUN
PACIFIC PINES,4211,PACIFIC PINES4211,GLD
PADBURY,6025,PADBURY6025,PER
PADDINGTON,4064,PADDINGTON4064,BRI
PAGE,2614,PAGE2614,CBR
PAGET,4740,PAGET4740,MKY
PAKENHAM,3810,PAKENHAM3810,MEL
PAKENHAM SOUTH,3810,PAKENHAM SOUTH3810,MEL
PALLARA,4110,PALLARA4110,BRI
PALLARENDA,4810,PALLARENDA4810,TVL
PALLAS STREET MARYBOROUGH,4650,PALLAS STREET MARYBOROUGH4650,MYB
PALM BEACH,4221,PALM BEACH4221,GLD
PALM COVE,4879,PALM COVE4879,CNS
PALMDALE,2258,PALMDALE2258,CCT
PALMERSTON,2913,PALMERSTON2913,CBR
PALMVIEW,4553,PALMVIEW4553,SUN
PALMWOODS,4555,PALMWOODS4555,SUN
PALMYRA,6157,PALMYRA6157,PER
PALMYRA,6957,PALMYRA6957,PER
PALMYRA DC,6157,PALMYRA DC6157,PER
PALMYRA DC,6961,PALMYRA DC6961,PER
PAMPOOLAH,2430,PAMPOOLAH2430,PQQ
PANORAMA,5041,PANORAMA5041,ADL
PARA HILLS,5096,PARA HILLS5096,ADL
PARA HILLS WEST,5096,PARA HILLS WEST5096,ADL
PARA VISTA,5093,PARA VISTA5093,ADL
PARADISE,5075,PARADISE5075,ADL
PARADISE ISLAND,4217,PARADISE ISLAND4217,GLD
PARADISE POINT,4216,PARADISE POINT4216,GLD
PARADISE POINT KEYS,4216,PARADISE POINT KEYS4216,GLD
PARADISE WATERS,4217,PARADISE WATERS4217,GLD
PARAFIELD,5106,PARAFIELD5106,ADL
PARAFIELD AIRPORT,5106,PARAFIELD AIRPORT5106,ADL
PARAFIELD GARDENS,5107,PARAFIELD GARDENS5107,ADL
PARALOWIE,5108,PARALOWIE5108,ADL
PARK AVENUE,4701,PARK AVENUE4701,CAP
PARK GROVE,7320,PARK GROVE7320,DPO
PARK HOLME,5043,PARK HOLME5043,ADL
PARK RIDGE,4125,PARK RIDGE4125,BRI
PARK RIDGE SOUTH,4125,PARK RIDGE SOUTH4125,BRI
PARKDALE,3195,PARKDALE3195,MEL
PARKERVILLE,6081,PARKERVILLE6081,PER
PARKES,2600,PARKES2600,CBR
PARKHURST,4702,PARKHURST4702,CAP
PARKINSON,4115,PARKINSON4115,BRI
PARKLANDS,4560,PARKLANDS4560,SUN
PARKLANDS,6180,PARKLANDS6180,PER
PARKLANDS,6210,PARKLANDS6210,PER
PARKLANDS,7320,PARKLANDS7320,DPO
PARKSIDE,4807,PARKSIDE4807,TVL
PARKSIDE,5063,PARKSIDE5063,ADL
PARKVILLE,3052,PARKVILLE3052,MEL
PARKWOOD,4214,PARKWOOD4214,GLD
PARKWOOD,6147,PARKWOOD6147,PER
PARLIAMENT HOUSE,2600,PARLIAMENT HOUSE2600,CBR
PARLIAMENT HOUSE,4000,PARLIAMENT HOUSE4000,BRI
PARLIAMENT HOUSE,5000,PARLIAMENT HOUSE5000,ADL
PARMELIA,6167,PARMELIA6167,PER
PARRAMATTA PARK,4870,PARRAMATTA PARK4870,CNS
PARREARRA,4575,PARREARRA4575,SUN
PARWAN,3340,PARWAN3340,MEL
PASADENA,5042,PASADENA5042,ADL
PASCOE VALE,3044,PASCOE VALE3044,MEL
PASCOE VALE SOUTH,3044,PASCOE VALE SOUTH3044,MEL
PATONGA,2256,PATONGA2256,CCT
PATTERSON LAKES,3197,PATTERSON LAKES3197,MEL
PAYNEHAM,5070,PAYNEHAM5070,ADL
PAYNEHAM SOUTH,5070,PAYNEHAM SOUTH5070,ADL
PEARCE,2607,PEARCE2607,CBR
PEARCEDALE,3912,PEARCEDALE3912,MEL
PEARL BEACH,2256,PEARL BEACH2256,CCT
PEARSALL,6065,PEARSALL6065,PER
PECHEY,4352,PECHEY4352,TOO
PEDLER CREEK,5171,PEDLER CREEK5171,ADL
PELAW MAIN,2327,PELAW MAIN2327,NEW
PELICAN,2281,PELICAN2281,NEW
PELICAN WATERS,4551,PELICAN WATERS4551,SUN
PENFIELD,5121,PENFIELD5121,ADL
PENFIELD GARDENS,5121,PENFIELD GARDENS5121,ADL
PENGUIN,7316,PENGUIN7316,DPO
PENNA,7171,PENNA7171,TAS
PENNINGTON,5013,PENNINGTON5013,ADL
PENROSE,2530,PENROSE2530,WOL
PEPPERMINT GROVE,6011,PEPPERMINT GROVE6011,PER
PEREGIAN BEACH,4573,PEREGIAN BEACH4573,SUN
PEREGIAN BEACH SOUTH,4573,PEREGIAN BEACH SOUTH4573,SUN
PEREGIAN SPRINGS,4573,PEREGIAN SPRINGS4573,SUN
PERON,6168,PERON6168,PER
PERTH,6000,PERTH6000,PER
PERTH,6001,PERTH6001,PER
PERTH,6004,PERTH6004,PER
PERTH,6809,PERTH6809,PER
PERTH,6827,PERTH6827,PER
PERTH,6830,PERTH6830,PER
PERTH,7300,PERTH7300,LAU
PERTH ADELAIDE TCE,6832,PERTH ADELAIDE TCE6832,PER
PERTH AIRPORT,6105,PERTH AIRPORT6105,PER
PERTH BC,6849,PERTH BC6849,PER
PERTH GPO,6000,PERTH GPO6000,PER
PERTH ST GEORGES TCE,6831,PERTH ST GEORGES TCE6831,PER
PERWILLOWEN,4560,PERWILLOWEN4560,SUN
PETERHEAD,5016,PETERHEAD5016,ADL
PETRIE,4502,PETRIE4502,BRI
PETRIE TERRACE,4000,PETRIE TERRACE4000,BRI
PHEGANS BAY,2256,PHEGANS BAY2256,CCT
PHILLIP,2606,PHILLIP2606,CBR
PHILLIP DC,2606,PHILLIP DC2606,CBR
PIALBA,4655,PIALBA4655,MYB
PIALLIGO,2609,PIALLIGO2609,CBR
PIARA WATERS,6112,PIARA WATERS6112,PER
PICKETTS VALLEY,2251,PICKETTS VALLEY2251,CCT
PICNIC POINT,4350,PICNIC POINT4350,TOO
PICTON,2571,PICTON2571,WOL
PIMLICO,4812,PIMLICO4812,TVL
PIMPAMA,4209,PIMPAMA4209,GLD
PINJARRA,6208,PINJARRA6208,PER
PINJARRA HILLS,4069,PINJARRA HILLS4069,BRI
PINKENBA,4008,PINKENBA4008,BRI
PINKLANDS,4164,PINKLANDS4164,BRI
PITNACREE,2323,PITNACREE2323,NEW
PITTSWORTH,4356,PITTSWORTH4356,TOO
PLACID HILLS,4343,PLACID HILLS4343,TOO
PLAINLAND,4341,PLAINLAND4341,TOO
PLEYSTOWE,4741,PLEYSTOWE4741,MKY
PLUMPTON,3037,PLUMPTON3037,MEL
PLUMPTON,3335,PLUMPTON3335,MEL
PLUMPTON,3427,PLUMPTON3427,MEL
PLYMPTON,5038,PLYMPTON5038,ADL
PLYMPTON PARK,5038,PLYMPTON PARK5038,ADL
POINT ARKWRIGHT,4573,POINT ARKWRIGHT4573,SUN
POINT CLARE,2250,POINT CLARE2250,CCT
POINT COOK,3030,POINT COOK3030,MEL
POINT FREDERICK,2250,POINT FREDERICK2250,CCT
POINT HALLORAN,4165,POINT HALLORAN4165,BRI
POINT LEO,3916,POINT LEO3916,MEL
POINT LONSDALE,3225,POINT LONSDALE3225,GEE
POINT TALBURPIN,4165,POINT TALBURPIN4165,BRI
POINT VERNON,4655,POINT VERNON4655,MYB
POINT WOLSTONCROFT,2259,POINT WOLSTONCROFT2259,CCT
POKOLBIN,2320,POKOLBIN2320,NEW
POMONA,4568,POMONA4568,SUN
POORAKA,5095,POORAKA5095,ADL
POREPUNKAH,3740,POREPUNKAH3740,ALB
PORT ADELAIDE,5015,PORT ADELAIDE5015,ADL
PORT ADELAIDE BC,5015,PORT ADELAIDE BC5015,ADL
PORT ADELAIDE DC,5015,PORT ADELAIDE DC5015,ADL
PORT ALMA,4699,PORT ALMA4699,CAP
PORT CURTIS,4700,PORT CURTIS4700,CAP
PORT DOUGLAS,4877,PORT DOUGLAS4877,CNS
PORT KEMBLA,2505,PORT KEMBLA2505,WOL
PORT KENNEDY,6172,PORT KENNEDY6172,PER
PORT MACQUARIE,2444,PORT MACQUARIE2444,PQQ
PORT MACQUARIE BC,2444,PORT MACQUARIE BC2444,PQQ
PORT MELBOURNE,3207,PORT MELBOURNE3207,MEL
PORT NOARLUNGA,5167,PORT NOARLUNGA5167,ADL
PORT NOARLUNGA SOUTH,5167,PORT NOARLUNGA SOUTH5167,ADL
PORT OF BRISBANE,4178,PORT OF BRISBANE4178,BRI
PORT STANVAC,5160,PORT STANVAC5160,ADL
PORT WILLUNGA,5173,PORT WILLUNGA5173,ADL
PORTARLINGTON,3223,PORTARLINGTON3223,GEE
PORTSEA,3944,PORTSEA3944,MEL
PORTSMITH,4870,PORTSMITH4870,CNS
POSSUM BRUSH,2430,POSSUM BRUSH2430,PQQ
POSTANS,6167,POSTANS6167,PER
POSTMANS RIDGE,4352,POSTMANS RIDGE4352,TOO
POTTSVILLE,2489,POTTSVILLE2489,GLD
POTTSVILLE BEACH,2489,POTTSVILLE BEACH2489,GLD
PRAHRAN,3181,PRAHRAN3181,MEL
PRAHRAN EAST,3181,PRAHRAN EAST3181,MEL
PRESERVATION BAY,7316,PRESERVATION BAY7316,DPO
PRESTON,3072,PRESTON3072,MEL
PRESTON SOUTH,3072,PRESTON SOUTH3072,MEL
PRESTON WEST,3072,PRESTON WEST3072,MEL
PRETTY BEACH,2257,PRETTY BEACH2257,CCT
PRIESTDALE,4127,PRIESTDALE4127,BRI
PRIESTS GULLY,4123,PRIESTS GULLY4123,BRI
PRIMBEE,2502,PRIMBEE2502,WOL
PRINCE HENRY HEIGHTS,4350,PRINCE HENRY HEIGHTS4350,TOO
PRINCES HILL,3054,PRINCES HILL3054,MEL
PRINCESS ALEXANDRA HOSPITAL,4102,PRINCESS ALEXANDRA HOSPITAL4102,BRI
PRIORS POCKET,4070,PRIORS POCKET4070,BRI
PROSERPINE,4800,PROSERPINE4800,MKY
PROSPECT,5082,PROSPECT5082,ADL
PROSPECT,7250,PROSPECT7250,LAU
PROSPECT EAST,5082,PROSPECT EAST5082,ADL
PROSPECT VALE,7250,PROSPECT VALE7250,LAU
PROSPECT WEST,5082,PROSPECT WEST5082,ADL
PULLENVALE,4069,PULLENVALE4069,BRI
PUNCHBOWL,7249,PUNCHBOWL7249,LAU
PURFLEET,2430,PURFLEET2430,PQQ
PURONO PARK,4818,PURONO PARK4818,TVL
PYRAMID,4865,PYRAMID4865,CNS
Q SUPERCENTRE,4218,Q SUPERCENTRE4218,GLD
QUARRY HILL,3550,QUARRY HILL3550,BEN
QUEANBEYAN,2620,QUEANBEYAN2620,CBR
QUEANBEYAN DC,2620,QUEANBEYAN DC2620,CBR
QUEANBEYAN EAST,2620,QUEANBEYAN EAST2620,CBR
QUEANBEYAN WEST,2620,QUEANBEYAN WEST2620,CBR
QUEENS BEACH,4805,QUEENS BEACH4805,MKY
QUEENS DOMAIN,7000,QUEENS DOMAIN7000,TAS
QUEENS PARK,6107,QUEENS PARK6107,PER
QUEENSCLIFF,3225,QUEENSCLIFF3225,GEE
QUEENSTOWN,5014,QUEENSTOWN5014,ADL
QUEENTON,4820,QUEENTON4820,TVL
QUINNS ROCKS,6030,QUINNS ROCKS6030,PER
QUNABA,4670,QUNABA4670,BDB
QUOIBA,7310,QUOIBA7310,DPO
RACECOURSE,4740,RACECOURSE4740,MKY
RACEVIEW,4305,RACEVIEW4305,BRI
RAGLAN,2795,RAGLAN2795,OAG
RAILWAY ESTATE,4810,RAILWAY ESTATE4810,TVL
RAINBOW BAY,4225,RAINBOW BAY4225,GLD
RAINBOW FLAT,2430,RAINBOW FLAT2430,PQQ
RAINWORTH,4065,RAINWORTH4065,BRI
RALEIGH,2454,RALEIGH2454,CFS
RANGEVILLE,4350,RANGEVILLE4350,TOO
RANGEWOOD,4817,RANGEWOOD4817,TVL
RANKIN PARK,2287,RANKIN PARK2287,NEW
RANSOME,4154,RANSOME4154,BRI
RASMUSSEN,4815,RASMUSSEN4815,TVL
RATHMINES,2283,RATHMINES2283,NEW
RAVENHALL,3023,RAVENHALL3023,MEL
RAVENSWOOD,6208,RAVENSWOOD6208,PER
RAVENSWOOD,7250,RAVENSWOOD7250,LAU
RAWDON ISLAND,2446,RAWDON ISLAND2446,PQQ
RAWORTH,2321,RAWORTH2321,NEW
RAYMOND TERRACE,2324,RAYMOND TERRACE2324,NEW
RAYMOND TERRACE EAST,2324,RAYMOND TERRACE EAST2324,NEW
RED HEAD,2430,RED HEAD2430,PQQ
RED HILL,2603,RED HILL2603,CBR
RED HILL,3937,RED HILL3937,MEL
RED HILL,4059,RED HILL4059,BRI
RED HILL ROCKHAMPTON,4701,RED HILL ROCKHAMPTON4701,CAP
RED HILL SOUTH,3937,RED HILL SOUTH3937,MEL
RED ROCK,2456,RED ROCK2456,CFS
REDAN,3350,REDAN3350,GEE
REDBANK,4301,REDBANK4301,BRI
REDBANK PLAINS,4301,REDBANK PLAINS4301,BRI
REDBOURNBERRY,2330,REDBOURNBERRY2330,NEW
REDCLIFFE,4020,REDCLIFFE4020,BRI
REDCLIFFE,6104,REDCLIFFE6104,PER
REDCLIFFE NORTH,4020,REDCLIFFE NORTH4020,BRI
REDHEAD,2290,REDHEAD2290,NEW
REDLAND BAY,4165,REDLAND BAY4165,BRI
REDLYNCH,4870,REDLYNCH4870,CNS
REDRIDGE,4660,REDRIDGE4660,BDB
REDWOOD,4350,REDWOOD4350,TOO
REDWOOD PARK,5097,REDWOOD PARK5097,ADL
REEDY CREEK,4227,REEDY CREEK4227,GLD
REGENCY DOWNS,4341,REGENCY DOWNS4341,TOO
REGENCY PARK,5010,REGENCY PARK5010,ADL
REGENCY PARK,5942,REGENCY PARK5942,ADL
REGENCY PARK BC,5010,REGENCY PARK BC5010,ADL
REGENTS PARK,4118,REGENTS PARK4118,BRI
REID,2612,REID2612,CBR
REID,5118,REID5118,ADL
REID RIVER,4816,REID RIVER4816,TVL
REIDTOWN,2519,REIDTOWN2519,WOL
RENOWN PARK,5008,RENOWN PARK5008,ADL
RENWICK,2575,RENWICK2575,WOL
REPTON,2454,REPTON2454,CFS
RESEARCH,3095,RESEARCH3095,MEL
RESERVOIR,3073,RESERVOIR3073,MEL
RESERVOIR EAST,3073,RESERVOIR EAST3073,MEL
RESERVOIR NORTH,3073,RESERVOIR NORTH3073,MEL
RESERVOIR SOUTH,3073,RESERVOIR SOUTH3073,MEL
REYNELLA,5161,REYNELLA5161,ADL
REYNELLA EAST,5161,REYNELLA EAST5161,ADL
RIALTO,4218,RIALTO4218,GLD
RICHARDSON,2905,RICHARDSON2905,CBR
RICHLANDS,4077,RICHLANDS4077,BRI
RICHLANDS BC,4077,RICHLANDS BC4077,BRI
RICHLANDS DC,4077,RICHLANDS DC4077,BRI
RICHMOND,3121,RICHMOND3121,MEL
RICHMOND,4740,RICHMOND4740,MKY
RICHMOND,5033,RICHMOND5033,ADL
RICHMOND,7025,RICHMOND7025,TAS
RICHMOND EAST,3121,RICHMOND EAST3121,MEL
RICHMOND HILL,2480,RICHMOND HILL2480,NTH
RICHMOND HILL,4820,RICHMOND HILL4820,TVL
RICHMOND NORTH,3121,RICHMOND NORTH3121,MEL
RICHMOND SOUTH,3121,RICHMOND SOUTH3121,MEL
RIDGEHAVEN,5097,RIDGEHAVEN5097,ADL
RIDGEWOOD,6030,RIDGEWOOD6030,PER
RIDLEYTON,5008,RIDLEYTON5008,ADL
RINGWOOD,3134,RINGWOOD3134,MEL
RINGWOOD EAST,3135,RINGWOOD EAST3135,MEL
RINGWOOD NORTH,3134,RINGWOOD NORTH3134,MEL
RIO VISTA,4218,RIO VISTA4218,GLD
RIPPLESIDE,3215,RIPPLESIDE3215,GEE
RIPPONLEA,3185,RIPPONLEA3185,MEL
RISDON,7017,RISDON7017,TAS
RISDON VALE,7016,RISDON VALE7016,TAS
RISING SUN,4812,RISING SUN4812,TVL
RIVER HEADS,4655,RIVER HEADS4655,MYB
RIVERBEND,4280,RIVERBEND4280,BRI
RIVERHILLS,4074,RIVERHILLS4074,BRI
RIVERSIDE,7250,RIVERSIDE7250,LAU
RIVERSIDE CENTRE,4001,RIVERSIDE CENTRE4001,BRI
RIVERTON,6148,RIVERTON6148,PER
RIVERVALE,6103,RIVERVALE6103,PER
RIVERVIEW,4303,RIVERVIEW4303,BRI
RIVETT,2611,RIVETT2611,CBR
ROBERTSON,2577,ROBERTSON2577,WOL
ROBERTSON,4109,ROBERTSON4109,BRI
ROBIN HILL,2795,ROBIN HILL2795,OAG
ROBINA,4226,ROBINA4226,GLD
ROBINA DC,4226,ROBINA DC4226,GLD
ROBINA TOWN CENTRE,4230,ROBINA TOWN CENTRE4230,GLD
ROBINSON,3019,ROBINSON3019,MEL
ROCHEDALE,4123,ROCHEDALE4123,BRI
ROCHEDALE SOUTH,4123,ROCHEDALE SOUTH4123,BRI
ROCHERLEA,7248,ROCHERLEA7248,LAU
ROCHES BEACH,7170,ROCHES BEACH7170,TAS
ROCKBANK,3335,ROCKBANK3335,MEL
ROCKHAMPTON,4700,ROCKHAMPTON4700,CAP
ROCKHAMPTON CITY,4700,ROCKHAMPTON CITY4700,CAP
ROCKHAMPTON DC,4701,ROCKHAMPTON DC4701,CAP
ROCKHAMPTON HOSPITAL,4700,ROCKHAMPTON HOSPITAL4700,CAP
ROCKHAMPTON NORTH,4701,ROCKHAMPTON NORTH4701,CAP
ROCKHAMPTON SHOPPING FAIR,4701,ROCKHAMPTON SHOPPING FAIR4701,CAP
ROCKINGHAM,6168,ROCKINGHAM6168,PER
ROCKINGHAM,6968,ROCKINGHAM6968,PER
ROCKINGHAM BEACH,6168,ROCKINGHAM BEACH6168,PER
ROCKINGHAM BEACH,6969,ROCKINGHAM BEACH6969,PER
ROCKINGHAM DC,6168,ROCKINGHAM DC6168,PER
ROCKINGHAM DC,6967,ROCKINGHAM DC6967,PER
ROCKLEA,4106,ROCKLEA4106,BRI
ROCKLEA DC,4106,ROCKLEA DC4106,BRI
ROCKVILLE,4350,ROCKVILLE4350,TOO
ROCKY POINT,2259,ROCKY POINT2259,CCT
ROCKYVIEW,4701,ROCKYVIEW4701,CAP
ROKEBY,7019,ROKEBY7019,TAS
ROLEYSTONE,6111,ROLEYSTONE6111,PER
ROLLINGSTONE,4816,ROLLINGSTONE4816,TVL
ROMAINE,7320,ROMAINE7320,DPO
ROSALIE,4064,ROSALIE4064,BRI
ROSANNA,3084,ROSANNA3084,MEL
ROSE BAY,4805,ROSE BAY4805,MKY
ROSE BAY,7015,ROSE BAY7015,TAS
ROSE PARK,5067,ROSE PARK5067,ADL
ROSEBUD,3939,ROSEBUD3939,MEL
ROSEBUD PLAZA,3939,ROSEBUD PLAZA3939,MEL
ROSEBUD WEST,3940,ROSEBUD WEST3940,MEL
ROSEDALE,5350,ROSEDALE5350,ADL
ROSEHILL,4370,ROSEHILL4370,TOO
ROSEMOUNT,4560,ROSEMOUNT4560,SUN
ROSENEATH,4811,ROSENEATH4811,TVL
ROSENTHAL HEIGHTS,4370,ROSENTHAL HEIGHTS4370,TOO
ROSETTA,7010,ROSETTA7010,TAS
ROSEVEARS,7277,ROSEVEARS7277,LAU
ROSEWATER,5013,ROSEWATER5013,ADL
ROSEWATER EAST,5013,ROSEWATER EAST5013,ADL
ROSNY,7018,ROSNY7018,TAS
ROSNY PARK,7018,ROSNY PARK7018,TAS
ROSSLEA,4812,ROSSLEA4812,TVL
ROSSLYN,4703,ROSSLYN4703,CAP
ROSSLYN PARK,5072,ROSSLYN PARK5072,ADL
ROSSMOYNE,6148,ROSSMOYNE6148,PER
ROSTREVOR,5073,ROSTREVOR5073,ADL
ROTHBURY,2320,ROTHBURY2320,NEW
ROTHWELL,4022,ROTHWELL4022,BRI
ROUND HILL,7320,ROUND HILL7320,DPO
ROUND MOUNTAIN,2484,ROUND MOUNTAIN2484,GLD
ROWES BAY,4810,ROWES BAY4810,TVL
ROWLAND FLAT,5352,ROWLAND FLAT5352,ADL
ROWVILLE,3178,ROWVILLE3178,MEL
ROXBURGH PARK,3064,ROXBURGH PARK3064,MEL
ROYAL BRISBANE HOSPITAL,4029,ROYAL BRISBANE HOSPITAL4029,BRI
ROYAL MELBOURNE HOSPITAL,3050,ROYAL MELBOURNE HOSPITAL3050,MEL
ROYAL PARK,5014,ROYAL PARK5014,ADL
ROYSTON PARK,5070,ROYSTON PARK5070,ADL
RUNAWAY BAY,4216,RUNAWAY BAY4216,GLD
RUNCORN,4113,RUNCORN4113,BRI
RUNDLE MALL,5000,RUNDLE MALL5000,ADL
RUPERTSWOOD,4817,RUPERTSWOOD4817,TVL
RURAL VIEW,4740,RURAL VIEW4740,MKY
RUSSELL,2600,RUSSELL2600,CBR
RUSSELL HILL,2600,RUSSELL HILL2600,CBR
RUSSELL VALE,2517,RUSSELL VALE2517,WOL
RUTHERFORD,2320,RUTHERFORD2320,NEW
RUTHERGLEN,3685,RUTHERGLEN3685,ALB
RYE,3941,RYE3941,MEL
RYHOPE,2283,RYHOPE2283,NEW
SADDLEBACK MOUNTAIN,2533,SADDLEBACK MOUNTAIN2533,WOL
SADLIERS CROSSING,4305,SADLIERS CROSSING4305,BRI
SAFETY BAY,6169,SAFETY BAY6169,PER
SAFETY BEACH,2456,SAFETY BEACH2456,CFS
SAFETY BEACH,3936,SAFETY BEACH3936,MEL
SAILORS GULLY,3556,SAILORS GULLY3556,BEN
SAINT HELENA,3088,SAINT HELENA3088,MEL
SAINT KILDA,3182,SAINT KILDA3182,MEL
SAINT LEONARDS,3223,SAINT LEONARDS3223,GEE
SAINT LUCIA,4067,SAINT LUCIA4067,BRI
SALAMANDER BAY,2317,SALAMANDER BAY2317,NEW
SALISBURY,4107,SALISBURY4107,BRI
SALISBURY,5108,SALISBURY5108,ADL
SALISBURY DOWNS,5108,SALISBURY DOWNS5108,ADL
SALISBURY EAST,4107,SALISBURY EAST4107,BRI
SALISBURY EAST,5109,SALISBURY EAST5109,ADL
SALISBURY EAST NORTHBRI AV,5109,SALISBURY EAST NORTHBRI AV5109,ADL
SALISBURY EAST NORTHBRI AVE,5109,SALISBURY EAST NORTHBRI AVE5109,ADL
SALISBURY HEIGHTS,5109,SALISBURY HEIGHTS5109,ADL
SALISBURY NORTH,5108,SALISBURY NORTH5108,ADL
SALISBURY NORTH WHITES ROAD,5108,SALISBURY NORTH WHITES ROAD5108,ADL
SALISBURY PARK,5109,SALISBURY PARK5109,ADL
SALISBURY PLAIN,5109,SALISBURY PLAIN5109,ADL
SALISBURY SOUTH,5106,SALISBURY SOUTH5106,ADL
SALISBURY SOUTH BC,5106,SALISBURY SOUTH BC5106,ADL
SALISBURY SOUTH DC,5106,SALISBURY SOUTH DC5106,ADL
SALONIKA BEACH,4740,SALONIKA BEACH4740,MKY
SALT ASH,2318,SALT ASH2318,NEW
SALTER POINT,6152,SALTER POINT6152,PER
SALTWATER,2430,SALTWATER2430,PQQ
SAMFORD,4520,SAMFORD4520,BRI
SAMFORD VALLEY,4520,SAMFORD VALLEY4520,BRI
SAMFORD VILLAGE,4520,SAMFORD VILLAGE4520,BRI
SAMSON,6163,SAMSON6163,PER
SAN REMO,2262,SAN REMO2262,CCT
SAN REMO,6210,SAN REMO6210,PER
SANCROX,2446,SANCROX2446,PQQ
SANCTUARY COVE,4212,SANCTUARY COVE4212,GLD
SANDGATE,2304,SANDGATE2304,NEW
SANDGATE,4017,SANDGATE4017,BRI
SANDGATE DC,4017,SANDGATE DC4017,BRI
SANDHILL,7249,SANDHILL7249,LAU
SANDHURST,3977,SANDHURST3977,MEL
SANDRINGHAM,3191,SANDRINGHAM3191,MEL
SANDSTONE POINT,4511,SANDSTONE POINT4511,BRI
SANDY BAY,7005,SANDY BAY7005,TAS
SANDY BAY,7006,SANDY BAY7006,TAS
SANDY BEACH,2456,SANDY BEACH2456,CFS
SANDY CREEK,5350,SANDY CREEK5350,ADL
SANTA BARBARA,4212,SANTA BARBARA4212,GLD
SANTA FE HEIGHTS,4670,SANTA FE HEIGHTS4670,BDB
SAPPHIRE BEACH,2450,SAPPHIRE BEACH2450,CFS
SARATOGA,2251,SARATOGA2251,CCT
SARINA,4737,SARINA4737,MKY
SAUNDERS BEACH,4818,SAUNDERS BEACH4818,TVL
SAWTELL,2452,SAWTELL2452,CFS
SAWYERS GULLY,2326,SAWYERS GULLY2326,NEW
SCARBOROUGH,2515,SCARBOROUGH2515,WOL
SCARBOROUGH,4020,SCARBOROUGH4020,BRI
SCARBOROUGH,6019,SCARBOROUGH6019,PER
SCARBOROUGH,6922,SCARBOROUGH6922,PER
SCARNESS,4655,SCARNESS4655,MYB
SCORESBY,3179,SCORESBY3179,MEL
SCORESBY BC,3176,SCORESBY BC3176,MEL
SCOTTS HEAD,2447,SCOTTS HEAD2447,CFS
SCOTTS POINT,4019,SCOTTS POINT4019,BRI
SCOTTSDALE,7260,SCOTTSDALE7260,LAU
SCULLIN,2614,SCULLIN2614,CBR
SEABROOK,3028,SEABROOK3028,MEL
SEACLIFF,5049,SEACLIFF5049,ADL
SEACLIFF PARK,5049,SEACLIFF PARK5049,ADL
SEACOMBE GARDENS,5047,SEACOMBE GARDENS5047,ADL
SEACOMBE HEIGHTS,5047,SEACOMBE HEIGHTS5047,ADL
SEAFORD,3198,SEAFORD3198,MEL
SEAFORD,5169,SEAFORD5169,ADL
SEAFORD HEIGHTS,5169,SEAFORD HEIGHTS5169,ADL
SEAFORD MEADOWS,5169,SEAFORD MEADOWS5169,ADL
SEAFORD RISE,5169,SEAFORD RISE5169,ADL
SEAHAMPTON,2286,SEAHAMPTON2286,NEW
SEAHOLME,3018,SEAHOLME3018,MEL
SEATON,5023,SEATON5023,ADL
SEATON NORTH,5023,SEATON NORTH5023,ADL
SEAVIEW DOWNS,5049,SEAVIEW DOWNS5049,ADL
SEBASTOPOL,3356,SEBASTOPOL3356,GEE
SECRET HARBOUR,6173,SECRET HARBOUR6173,PER
SEDDON,3011,SEDDON3011,MEL
SEDDON WEST,3011,SEDDON WEST3011,MEL
SEFTON PARK,5083,SEFTON PARK5083,ADL
SELLHEIM,4816,SELLHEIM4816,TVL
SELLICKS BEACH,5174,SELLICKS BEACH5174,ADL
SELLICKS HILL,5174,SELLICKS HILL5174,ADL
SEMAPHORE,5019,SEMAPHORE5019,ADL
SEMAPHORE PARK,5019,SEMAPHORE PARK5019,ADL
SEMAPHORE SOUTH,5019,SEMAPHORE SOUTH5019,ADL
SEPPELTSFIELD,5355,SEPPELTSFIELD5355,ADL
SERVICETON,4077,SERVICETON4077,BRI
SETTLEMENT CITY,2444,SETTLEMENT CITY2444,PQQ
SEVEN HILLS,4170,SEVEN HILLS4170,BRI
SEVEN MILE BEACH,7170,SEVEN MILE BEACH7170,TAS
SEVENTEEN MILE ROCKS,4073,SEVENTEEN MILE ROCKS4073,BRI
SEVERNLEA,4380,SEVERNLEA4380,TOO
SEVILLE GROVE,6112,SEVILLE GROVE6112,PER
SHAILER PARK,4128,SHAILER PARK4128,BRI
SHARON,4670,SHARON4670,BDB
SHAW,4818,SHAW4818,TVL
SHEIDOW PARK,5158,SHEIDOW PARK5158,ADL
SHELDON,4157,SHELDON4157,BRI
SHELL COVE,2529,SHELL COVE2529,WOL
SHELLEY,6148,SHELLEY6148,PER
SHELLHARBOUR,2529,SHELLHARBOUR2529,WOL
SHELLHARBOUR CITY CENTRE,2529,SHELLHARBOUR CITY CENTRE2529,WOL
SHELLHARBOUR SQUARE,2529,SHELLHARBOUR SQUARE2529,WOL
SHELLY BEACH,2261,SHELLY BEACH2261,CCT
SHELLY BEACH,4551,SHELLY BEACH4551,SUN
SHELLY BEACH,4810,SHELLY BEACH4810,TVL
SHENTON PARK,6008,SHENTON PARK6008,PER
SHERWOOD,4075,SHERWOOD4075,BRI
SHOAL BAY,2315,SHOAL BAY2315,NEW
SHOAL POINT,4750,SHOAL POINT4750,MKY
SHOALHAVEN HEADS,2535,SHOALHAVEN HEADS2535,WOL
SHOALWATER,6169,SHOALWATER6169,PER
SHOREHAM,3916,SHOREHAM3916,MEL
SHOREWELL PARK,7320,SHOREWELL PARK7320,DPO
SHORNCLIFFE,4017,SHORNCLIFFE4017,BRI
SHORTLAND,2307,SHORTLAND2307,NEW
SHUTEHAVEN,4802,SHUTEHAVEN4802,MKY
SIDMOUTH,7270,SIDMOUTH7270,LAU
SILKSTONE,4304,SILKSTONE4304,BRI
SILKWOOD,4856,SILKWOOD4856,CNS
SILVER CREEK,3747,SILVER CREEK3747,ALB
SILVER SANDS,5173,SILVER SANDS5173,ADL
SILVER SANDS,6210,SILVER SANDS6210,PER
SILVERWATER,2264,SILVERWATER2264,NEW
SINAGRA,6065,SINAGRA6065,PER
SINGLETON,2330,SINGLETON2330,NEW
SINGLETON,6175,SINGLETON6175,PER
SINGLETON HEIGHTS,2330,SINGLETON HEIGHTS2330,NEW
SINNAMON PARK,4073,SINNAMON PARK4073,BRI
SIPPY DOWNS,4556,SIPPY DOWNS4556,SUN
SKENNARS HEAD,2478,SKENNARS HEAD2478,NTH
SKYE,3977,SKYE3977,MEL
SKYE,5072,SKYE5072,ADL
SLACKS CREEK,4127,SLACKS CREEK4127,BRI
SLADE POINT,4740,SLADE POINT4740,MKY
SMITHFIELD,4878,SMITHFIELD4878,CNS
SMITHFIELD,5114,SMITHFIELD5114,ADL
SMITHFIELD PLAINS,5114,SMITHFIELD PLAINS5114,ADL
SMITHFIELD WEST,5114,SMITHFIELD WEST5114,ADL
SOLDIERS HILL,3350,SOLDIERS HILL3350,GEE
SOLDIERS POINT,2317,SOLDIERS POINT2317,NEW
SOMERS,3927,SOMERS3927,MEL
SOMERSBY,2250,SOMERSBY2250,CCT
SOMERSET,7322,SOMERSET7322,DPO
SOMERSET HILLS,4053,SOMERSET HILLS4053,BRI
SOMERTON,3062,SOMERTON3062,MEL
SOMERTON PARK,5044,SOMERTON PARK5044,ADL
SOMERVILLE,3912,SOMERVILLE3912,MEL
SORELL,7172,SORELL7172,TAS
SORRENTO,3943,SORRENTO3943,MEL
SORRENTO,4217,SORRENTO4217,GLD
SORRENTO,6020,SORRENTO6020,PER
SOUTH ALBURY,2640,SOUTH ALBURY2640,ALB
SOUTH BANK,4101,SOUTH BANK4101,BRI
SOUTH BATHURST,2795,SOUTH BATHURST2795,OAG
SOUTH BINGERA,4670,SOUTH BINGERA4670,BDB
SOUTH BRIGHTON,5048,SOUTH BRIGHTON5048,ADL
SOUTH BRISBANE,4101,SOUTH BRISBANE4101,BRI
SOUTH BRISBANE BC,4101,SOUTH BRISBANE BC4101,BRI
SOUTH BURNIE,7320,SOUTH BURNIE7320,DPO
SOUTH FREMANTLE,6162,SOUTH FREMANTLE6162,PER
SOUTH GEELONG,3220,SOUTH GEELONG3220,GEE
SOUTH GOLDEN BEACH,2483,SOUTH GOLDEN BEACH2483,NTH
SOUTH GRAFTON,2460,SOUTH GRAFTON2460,NTH
SOUTH GUILDFORD,6055,SOUTH GUILDFORD6055,PER
SOUTH HOBART,7004,SOUTH HOBART7004,TAS
SOUTH INNISFAIL,4860,SOUTH INNISFAIL4860,CNS
SOUTH JOHNSTONE,4859,SOUTH JOHNSTONE4859,CNS
SOUTH KEMPSEY,2440,SOUTH KEMPSEY2440,PQQ
SOUTH KINGSVILLE,3015,SOUTH KINGSVILLE3015,MEL
SOUTH KOLAN,4670,SOUTH KOLAN4670,BDB
SOUTH LAKE,6164,SOUTH LAKE6164,PER
SOUTH LAUNCESTON,7249,SOUTH LAUNCESTON7249,LAU
SOUTH LISMORE,2480,SOUTH LISMORE2480,NTH
SOUTH MACKAY,4740,SOUTH MACKAY4740,MKY
SOUTH MACLEAN,4280,SOUTH MACLEAN4280,BRI
SOUTH MAITLAND,2320,SOUTH MAITLAND2320,NEW
SOUTH MELBOURNE,3205,SOUTH MELBOURNE3205,MEL
SOUTH MELBOURNE DC,3205,SOUTH MELBOURNE DC3205,MEL
SOUTH MORANG,3752,SOUTH MORANG3752,MEL
SOUTH MURWILLUMBAH,2484,SOUTH MURWILLUMBAH2484,GLD
SOUTH NOWRA,2541,SOUTH NOWRA2541,WOL
SOUTH PERTH,6151,SOUTH PERTH6151,PER
SOUTH PERTH,6951,SOUTH PERTH6951,PER
SOUTH PERTH ANGELO ST,6151,SOUTH PERTH ANGELO ST6151,PER
SOUTH PLYMPTON,5038,SOUTH PLYMPTON5038,ADL
SOUTH TACOMA,2259,SOUTH TACOMA2259,CCT
SOUTH TOOWOOMBA,4350,SOUTH TOOWOOMBA4350,TOO
SOUTH TOWNSVILLE,4810,SOUTH TOWNSVILLE4810,TVL
SOUTH WAGGA WAGGA,2650,SOUTH WAGGA WAGGA2650,YNG
SOUTH WHARF,3006,SOUTH WHARF3006,MEL
SOUTH YARRA,3141,SOUTH YARRA3141,MEL
SOUTH YUNDERUP,6208,SOUTH YUNDERUP6208,PER
SOUTHBANK,3006,SOUTHBANK3006,MEL
SOUTHERN CROSS,4820,SOUTHERN CROSS4820,TVL
SOUTHERN RIVER,6110,SOUTHERN RIVER6110,PER
SOUTHLAND CENTRE,3192,SOUTHLAND CENTRE3192,MEL
SOUTHPORT,4215,SOUTHPORT4215,GLD
SOUTHPORT BC,4215,SOUTHPORT BC4215,GLD
SOUTHPORT PARK,4215,SOUTHPORT PARK4215,GLD
SOUTHSIDE,4570,SOUTHSIDE4570,SUN
SOUTHTOWN,4350,SOUTHTOWN4350,TOO
SOVEREIGN HILL,3350,SOVEREIGN HILL3350,GEE
SOVEREIGN ISLANDS,4216,SOVEREIGN ISLANDS4216,GLD
SPEARWOOD,6163,SPEARWOOD6163,PER
SPEERS POINT,2284,SPEERS POINT2284,NEW
SPENCE,2615,SPENCE2615,CBR
SPLITTERS CREEK,2640,SPLITTERS CREEK2640,ALB
SPOTSWOOD,3015,SPOTSWOOD3015,MEL
SPREYTON,7310,SPREYTON7310,DPO
SPRING CREEK,2800,SPRING CREEK2800,OAG
SPRING GULLY,3550,SPRING GULLY3550,BEN
SPRING HILL,2500,SPRING HILL2500,WOL
SPRING HILL,4000,SPRING HILL4000,BRI
SPRING HILL,4004,SPRING HILL4004,BRI
SPRING MOUNTAIN,4300,SPRING MOUNTAIN4300,BRI
SPRINGDALE HEIGHTS,2641,SPRINGDALE HEIGHTS2641,ALB
SPRINGFIELD,2250,SPRINGFIELD2250,CCT
SPRINGFIELD,4300,SPRINGFIELD4300,BRI
SPRINGFIELD,5062,SPRINGFIELD5062,ADL
SPRINGFIELD CENTRAL,4300,SPRINGFIELD CENTRAL4300,BRI
SPRINGFIELD LAKES,4300,SPRINGFIELD LAKES4300,BRI
SPRINGVALE,2650,SPRINGVALE2650,YNG
SPRINGVALE,3171,SPRINGVALE3171,MEL
SPRINGVALE SOUTH,3172,SPRINGVALE SOUTH3172,MEL
SPRINGWOOD,2777,SPRINGWOOD2777,SYD
SPRINGWOOD,4127,SPRINGWOOD4127,BRI
SPRINGWOOD BC,4127,SPRINGWOOD BC4127,BRI
ST AGNES,5097,ST AGNES5097,ADL
ST ALBANS,3021,ST ALBANS3021,MEL
ST ALBANS PARK,3219,ST ALBANS PARK3219,GEE
ST ANDREWS BEACH,3941,ST ANDREWS BEACH3941,MEL
ST CLAIR,5011,ST CLAIR5011,ADL
ST CLAIRE,5011,ST CLAIRE5011,ADL
ST GEORGES,5064,ST GEORGES5064,ADL
ST HELENA,3088,ST HELENA3088,MEL
ST HELENS,4650,ST HELENS4650,MYB
ST HUBERTS ISLAND,2257,ST HUBERTS ISLAND2257,CCT
ST JAMES,6102,ST JAMES6102,PER
ST JOHNS WOOD,4060,ST JOHNS WOOD4060,BRI
ST KILDA,3182,ST KILDA3182,MEL
ST KILDA,5110,ST KILDA5110,ADL
ST KILDA EAST,3183,ST KILDA EAST3183,MEL
ST KILDA ROAD CENTRAL,3004,ST KILDA ROAD CENTRAL3004,MEL
ST KILDA ROAD CENTRAL,8008,ST KILDA ROAD CENTRAL8008,MEL
ST KILDA SOUTH,3182,ST KILDA SOUTH3182,MEL
ST KILDA WEST,3182,ST KILDA WEST3182,MEL
ST LEONARDS,3223,ST LEONARDS3223,GEE
ST LEONARDS,7250,ST LEONARDS7250,LAU
ST LUCIA,4067,ST LUCIA4067,BRI
ST LUCIA SOUTH,4067,ST LUCIA SOUTH4067,BRI
ST MARYS,5042,ST MARYS5042,ADL
ST MORRIS,5068,ST MORRIS5068,ADL
ST PETERS,5069,ST PETERS5069,ADL
STABLEFORD,4817,STABLEFORD4817,TVL
STAFFORD,4053,STAFFORD4053,BRI
STAFFORD BC,4053,STAFFORD BC4053,BRI
STAFFORD CITY,4053,STAFFORD CITY4053,BRI
STAFFORD DC,4053,STAFFORD DC4053,BRI
STAFFORD HEIGHTS,4053,STAFFORD HEIGHTS4053,BRI
STAKE HILL,6181,STAKE HILL6181,PER
STAKE HILL,6210,STAKE HILL6210,PER
STANFORD MERTHYR,2327,STANFORD MERTHYR2327,NEW
STANLEY,3747,STANLEY3747,ALB
STANLEY BRIDGE,4169,STANLEY BRIDGE4169,BRI
STANTHORPE,4380,STANTHORPE4380,TOO
STANWELL PARK,2508,STANWELL PARK2508,WOL
STANWELL TOPS,2508,STANWELL TOPS2508,WOL
STAPYLTON,4207,STAPYLTON4207,BRI
STATION ARCADE,5000,STATION ARCADE5000,ADL
STATUE BAY,4703,STATUE BAY4703,CAP
STEPNEY,5069,STEPNEY5069,ADL
STIRLING,2611,STIRLING2611,CBR
STIRLING,6021,STIRLING6021,PER
STOCKRINGTON,2322,STOCKRINGTON2322,NEW
STOCKTON,2295,STOCKTON2295,NEW
STOCKWELL,5355,STOCKWELL5355,ADL
STONE WELL,5352,STONE WELL5352,ADL
STONES CORNER,4120,STONES CORNER4120,BRI
STONEVILLE,6081,STONEVILLE6081,PER
STONY RISE,7310,STONY RISE7310,DPO
STONYFELL,5066,STONYFELL5066,ADL
STRATFORD,4870,STRATFORD4870,CNS
STRATHDALE,3550,STRATHDALE3550,BEN
STRATHFIELDSAYE,3551,STRATHFIELDSAYE3551,BEN
STRATHMORE,3041,STRATHMORE3041,MEL
STRATHMORE HEIGHTS,3041,STRATHMORE HEIGHTS3041,MEL
STRATHNAIRN,2615,STRATHNAIRN2615,CBR
STRATHPINE,4500,STRATHPINE4500,BRI
STRATHPINE CENTRE,4500,STRATHPINE CENTRE4500,BRI
STRATHPINE CITY,4500,STRATHPINE CITY4500,BRI
STRATTON,6056,STRATTON6056,PER
STRETTON,4116,STRETTON4116,BRI
STUART,4811,STUART4811,TVL
STUARTHOLME,4066,STUARTHOLME4066,BRI
STUARTS POINT,2441,STUARTS POINT2441,CFS
STUDIO VILLAGE,4210,STUDIO VILLAGE4210,GLD
STURT,5047,STURT5047,ADL
STURT STREET,5000,STURT STREET5000,ADL
SUBIACO,6008,SUBIACO6008,PER
SUBIACO,6904,SUBIACO6904,PER
SUBIACO EAST,6008,SUBIACO EAST6008,PER
SUCCESS,6164,SUCCESS6164,PER
SUCCESS,6964,SUCCESS6964,PER
SUFFOLK PARK,2481,SUFFOLK PARK2481,NTH
SULPHUR CREEK,7316,SULPHUR CREEK7316,DPO
SUMA PARK,2800,SUMA PARK2800,OAG
SUMMER HILL,2287,SUMMER HILL2287,NEW
SUMMERHILL,7250,SUMMERHILL7250,LAU
SUMMERLAND POINT,2259,SUMMERLAND POINT2259,CCT
SUMNER,4074,SUMNER4074,BRI
SUMNER PARK BC,4074,SUMNER PARK BC4074,BRI
SUN VALLEY,2777,SUN VALLEY2777,SYD
SUNBURY,3429,SUNBURY3429,MEL
SUNDALE,4215,SUNDALE4215,GLD
SUNNYBANK,4109,SUNNYBANK4109,BRI
SUNNYBANK HILLS,4109,SUNNYBANK HILLS4109,BRI
SUNNYBANK SOUTH,4109,SUNNYBANK SOUTH4109,BRI
SUNRISE BEACH,4567,SUNRISE BEACH4567,SUN
SUNRISE HILLS,4563,SUNRISE HILLS4563,SUN
SUNSHINE,2264,SUNSHINE2264,NEW
SUNSHINE,3020,SUNSHINE3020,MEL
SUNSHINE ACRES,4655,SUNSHINE ACRES4655,MYB
SUNSHINE BEACH,4567,SUNSHINE BEACH4567,SUN
SUNSHINE COAST MC,4560,SUNSHINE COAST MC4560,SUN
SUNSHINE NORTH,3020,SUNSHINE NORTH3020,MEL
SUNSHINE PLAZA,4558,SUNSHINE PLAZA4558,SUN
SUNSHINE WEST,3020,SUNSHINE WEST3020,MEL
SUNSHINE WEST,8511,SUNSHINE WEST8511,MEL
SURFERS PARADISE,4217,SURFERS PARADISE4217,GLD
SURREY DOWNS,5126,SURREY DOWNS5126,ADL
SURREY HILLS,3127,SURREY HILLS3127,MEL
SURREY HILLS NORTH,3127,SURREY HILLS NORTH3127,MEL
SURREY HILLS SOUTH,3125,SURREY HILLS SOUTH3125,MEL
SUSAN RIVER,4655,SUSAN RIVER4655,MYB
SUTTON FOREST,2577,SUTTON FOREST2577,WOL
SVENSSON HEIGHTS,4670,SVENSSON HEIGHTS4670,BDB
SWAN BAY,3225,SWAN BAY3225,GEE
SWAN VIEW,6056,SWAN VIEW6056,PER
SWANBOURNE,6010,SWANBOURNE6010,PER
SWANSEA,2281,SWANSEA2281,NEW
SWANSEA HEADS,2281,SWANSEA HEADS2281,NEW
SWINGER HILL,2606,SWINGER HILL2606,CBR
SYDENHAM,3037,SYDENHAM3037,MEL
SYLVESTER,3072,SYLVESTER3072,MEL
SYMONSTON,2609,SYMONSTON2609,CBR
TABLE TOP,2640,TABLE TOP2640,ALB
TACOMA,2259,TACOMA2259,CCT
TACOMA SOUTH,2259,TACOMA SOUTH2259,CCT
TAHMOOR,2573,TAHMOOR2573,WOL
TAIGUM,4018,TAIGUM4018,BRI
TAKURA,4655,TAKURA4655,MYB
TALLAI,4213,TALLAI4213,GLD
TALLEBUDGERA,4228,TALLEBUDGERA4228,GLD
TALLWOODS VILLAGE,2430,TALLWOODS VILLAGE2430,PQQ
TALLY VALLEY,4220,TALLY VALLEY4220,GLD
TAMALA PARK,6030,TAMALA PARK6030,PER
TAMARIND GARDENS,4869,TAMARIND GARDENS4869,CNS
TAMBORINE MOUNTAIN,4272,TAMBORINE MOUNTAIN4272,GLD
TANAH MERAH,4128,TANAH MERAH4128,BRI
TANAWHA,4556,TANAWHA4556,SUN
TANBY,4703,TANBY4703,CAP
TANGAMBALANGA,3691,TANGAMBALANGA3691,ALB
TANILBA BAY,2319,TANILBA BAY2319,NEW
TANUNDA,5352,TANUNDA5352,ADL
TAPEROO,5017,TAPEROO5017,ADL
TAPITALLEE,2540,TAPITALLEE2540,WOL
TAPPING,6065,TAPPING6065,PER
TARADALE,3447,TARADALE3447,BEN
TARANGANBA,4703,TARANGANBA4703,CAP
TAREE,2430,TAREE2430,PQQ
TAREE SOUTH,2430,TAREE SOUTH2430,PQQ
TAREE WEST,2430,TAREE WEST2430,PQQ
TARINGA,4068,TARINGA4068,BRI
TARNEIT,3029,TARNEIT3029,MEL
TAROOMBALL,4703,TAROOMBALL4703,CAP
TAROONA,7053,TAROONA7053,TAS
TARRAGINDI,4121,TARRAGINDI4121,BRI
TARRAWANNA,2518,TARRAWANNA2518,WOL
TARRAWARRA,4868,TARRAWARRA4868,CNS
TARRAWINGEE,3678,TARRAWINGEE3678,ALB
TARRO,2322,TARRO2322,NEW
TASCOTT,2250,TASCOTT2250,CCT
TATACHILLA,5171,TATACHILLA5171,ADL
TATTON,2650,TATTON2650,YNG
TAYLOR,2913,TAYLOR2913,CBR
TAYLORS BEACH,2316,TAYLORS BEACH2316,NEW
TAYLORS HILL,3037,TAYLORS HILL3037,MEL
TAYLORS LAKES,3038,TAYLORS LAKES3038,MEL
TE KOWAI,4740,TE KOWAI4740,MKY
TEA GARDENS,2324,TEA GARDENS2324,NEW
TEA TREE GULLY,5091,TEA TREE GULLY5091,ADL
TELARAH,2320,TELARAH2320,NEW
TELINA HEIGHTS,4740,TELINA HEIGHTS4740,MKY
TEMPLESTOWE,3106,TEMPLESTOWE3106,MEL
TEMPLESTOWE LOWER,3107,TEMPLESTOWE LOWER3107,MEL
TENAMBIT,2323,TENAMBIT2323,NEW
TENERIFFE,4005,TENERIFFE4005,BRI
TENNYSON,4105,TENNYSON4105,BRI
TENNYSON,5022,TENNYSON5022,ADL
TERALBA,2284,TERALBA2284,NEW
TERRANORA,2486,TERRANORA2486,GLD
TERRIGAL,2260,TERRIGAL2260,CCT
TEWANTIN,4565,TEWANTIN4565,SUN
THABEBAN,4670,THABEBAN4670,BDB
THARBOGANG,2680,THARBOGANG2680,YNG
THE BASIN,3154,THE BASIN3154,MEL
THE COMMON,4701,THE COMMON4701,CAP
THE ENTRANCE,2261,THE ENTRANCE2261,CCT
THE ENTRANCE NORTH,2261,THE ENTRANCE NORTH2261,CCT
THE GAP,4061,THE GAP4061,BRI
THE GRANGE,4051,THE GRANGE4051,BRI
THE HILL,2300,THE HILL2300,NEW
THE JUNCTION,2291,THE JUNCTION2291,NEW
THE LEVELS,5095,THE LEVELS5095,ADL
THE RANGE,4700,THE RANGE4700,CAP
THE RIDGEWAY,2620,THE RIDGEWAY2620,CBR
THE SPECTACLES,6167,THE SPECTACLES6167,PER
THE SPIT,4217,THE SPIT4217,GLD
THE SUMMIT,4377,THE SUMMIT4377,TOO
THE VINES,6069,THE VINES6069,PER
THEBARTON,5031,THEBARTON5031,ADL
THEODORE,2905,THEODORE2905,CBR
THIRLMERE,2572,THIRLMERE2572,WOL
THIRROUL,2515,THIRROUL2515,WOL
THOMASTOWN,3074,THOMASTOWN3074,MEL
THOMPSON ESTATE,4103,THOMPSON ESTATE4103,BRI
THOMSON,3219,THOMSON3219,GEE
THORNBURY,3071,THORNBURY3071,MEL
THORNESIDE,4158,THORNESIDE4158,BRI
THORNGATE,5082,THORNGATE5082,ADL
THORNHILL PARK,3335,THORNHILL PARK3335,MEL
THORNLANDS,4164,THORNLANDS4164,BRI
THORNLIE,6108,THORNLIE6108,PER
THORNLIE,6988,THORNLIE6988,PER
THORNTON,2322,THORNTON2322,NEW
THROSBY,2914,THROSBY2914,CBR
THRUMSTER,2444,THRUMSTER2444,PQQ
THULIMBAH,4376,THULIMBAH4376,TOO
THURGOONA,2640,THURGOONA2640,ALB
THURINGOWA CENTRAL,4817,THURINGOWA CENTRAL4817,TVL
THURINGOWA CENTRAL BC,4817,THURINGOWA CENTRAL BC4817,TVL
THURINGOWA DC,4814,THURINGOWA DC4814,TVL
TIGHES HILL,2297,TIGHES HILL2297,NEW
TINANA,4650,TINANA4650,MYB
TINBEERWAH,4563,TINBEERWAH4563,SUN
TINGALPA,4173,TINGALPA4173,BRI
TINGALPA BC,4173,TINGALPA BC4173,BRI
TINGALPA DC,4173,TINGALPA DC4173,BRI
TINGIRA HEIGHTS,2290,TINGIRA HEIGHTS2290,NEW
TINONEE,2430,TINONEE2430,PQQ
TIVOLI,4305,TIVOLI4305,BRI
TOLGA,4882,TOLGA4882,CNS
TOLL,4820,TOLL4820,TVL
TOLLAND,2650,TOLLAND2650,YNG
TOLMANS HILL,7007,TOLMANS HILL7007,TAS
TOMAGO,2322,TOMAGO2322,NEW
TONGARRA,2527,TONGARRA2527,WOL
TONSLEY,5042,TONSLEY5042,ADL
TOOBANNA,4850,TOOBANNA4850,TVL
TOOGOOM,4655,TOOGOOM4655,MYB
TOOLAKEA,4818,TOOLAKEA4818,TVL
TOOLERN VALE,3337,TOOLERN VALE3337,MEL
TOOMBUL,4012,TOOMBUL4012,BRI
TOOMULLA,4816,TOOMULLA4816,TVL
TOONPAN,4816,TOONPAN4816,TVL
TOORAK,3142,TOORAK3142,MEL
TOORAK GARDENS,5065,TOORAK GARDENS5065,ADL
TOORMINA,2452,TOORMINA2452,CFS
TOOTGAROOK,3941,TOOTGAROOK3941,MEL
TOOWONG,4066,TOOWONG4066,BRI
TOOWONG BC,4066,TOOWONG BC4066,BRI
TOOWONG DC,4066,TOOWONG DC4066,BRI
TOOWOOMBA,4350,TOOWOOMBA4350,TOO
TOOWOOMBA BC,4350,TOOWOOMBA BC4350,TOO
TOOWOOMBA CITY,4350,TOOWOOMBA CITY4350,TOO
TOOWOOMBA DC,4350,TOOWOOMBA DC4350,TOO
TOOWOOMBA EAST,4350,TOOWOOMBA EAST4350,TOO
TOOWOOMBA MC,4352,TOOWOOMBA MC4352,TOO
TOOWOOMBA SOUTH,4350,TOOWOOMBA SOUTH4350,TOO
TOOWOOMBA VILLAGE FAIR,4350,TOOWOOMBA VILLAGE FAIR4350,TOO
TOOWOOMBA WEST,4350,TOOWOOMBA WEST4350,TOO
TOOWOON BAY,2261,TOOWOON BAY2261,CCT
TOP CAMP,4350,TOP CAMP4350,TOO
TORBANLEA,4662,TORBANLEA4662,MYB
TORONTO,2283,TORONTO2283,NEW
TORQUAY,3228,TORQUAY3228,GEE
TORQUAY,4655,TORQUAY4655,MYB
TORRENS,2607,TORRENS2607,CBR
TORRENS PARK,5062,TORRENS PARK5062,ADL
TORRENSVILLE,5031,TORRENSVILLE5031,ADL
TORRENSVILLE PLAZA,5031,TORRENSVILLE PLAZA5031,ADL
TORRINGTON,4350,TORRINGTON4350,TOO
TORWOOD,4066,TORWOOD4066,BRI
TOTTENHAM,3012,TOTTENHAM3012,MEL
TOUKLEY,2263,TOUKLEY2263,CCT
TOWEN MOUNTAIN,4560,TOWEN MOUNTAIN4560,SUN
TOWERS HILL,4820,TOWERS HILL4820,TVL
TOWN COMMON,4810,TOWN COMMON4810,TVL
TOWNSEND,2463,TOWNSEND2463,NTH
TOWNSVILLE,4810,TOWNSVILLE4810,TVL
TOWNSVILLE CITY,4810,TOWNSVILLE CITY4810,TVL
TOWNSVILLE DC,4810,TOWNSVILLE DC4810,TVL
TOWNSVILLE MC,4810,TOWNSVILLE MC4810,TVL
TOWNSVILLE WEST,4810,TOWNSVILLE WEST4810,TVL
TOWRADGI,2518,TOWRADGI2518,WOL
TRALEE,2620,TRALEE2620,CBR
TRANMERE,5073,TRANMERE5073,ADL
TRANMERE,7018,TRANMERE7018,TAS
TRANMERE NORTH,5073,TRANMERE NORTH5073,ADL
TRAVANCORE,3032,TRAVANCORE3032,MEL
TRAVELLERS REST,7250,TRAVELLERS REST7250,LAU
TREEBY,6164,TREEBY6164,PER
TREVALLYN,7250,TREVALLYN7250,LAU
TRIGG,6029,TRIGG6029,PER
TRINDER PARK,4114,TRINDER PARK4114,BRI
TRINITY BEACH,4879,TRINITY BEACH4879,CNS
TRINITY GARDENS,5068,TRINITY GARDENS5068,ADL
TRINITY PARK,4879,TRINITY PARK4879,CNS
TROTT PARK,5158,TROTT PARK5158,ADL
TRUGANINA,3024,TRUGANINA3024,MEL
TRUGANINA,3029,TRUGANINA3029,MEL
TUART HILL,6060,TUART HILL6060,PER
TUART HILL,6937,TUART HILL6937,PER
TUART HILL,6938,TUART HILL6938,PER
TUART HILL,6939,TUART HILL6939,PER
TUART HILL,6940,TUART HILL6940,PER
TUERONG,3915,TUERONG3915,MEL
TUGGERAH,2259,TUGGERAH2259,CCT
TUGGERANONG,2900,TUGGERANONG2900,CBR
TUGGERANONG DC,2901,TUGGERANONG DC2901,CBR
TUGGERAWONG,2259,TUGGERAWONG2259,CCT
TUGUN,4224,TUGUN4224,GLD
TUGUN HEIGHTS,4224,TUGUN HEIGHTS4224,GLD
TULLAMARINE,3043,TULLAMARINE3043,MEL
TULLIMBAR,2527,TULLIMBAR2527,WOL
TULLY,4854,TULLY4854,CNS
TUMBI UMBI,2261,TUMBI UMBI2261,CCT
TUMBULGUM,2490,TUMBULGUM2490,GLD
TUNCURRY,2428,TUNCURRY2428,PQQ
TURNER,2612,TURNER2612,CBR
TURNERS BEACH,7315,TURNERS BEACH7315,DPO
TURVEY PARK,2650,TURVEY PARK2650,YNG
TUSMORE,5065,TUSMORE5065,ADL
TWEED HEADS,2485,TWEED HEADS2485,GLD
TWEED HEADS SOUTH,2486,TWEED HEADS SOUTH2486,GLD
TWEED HEADS WEST,2485,TWEED HEADS WEST2485,GLD
TWIN WATERS,4564,TWIN WATERS4564,SUN
TWO MILE,4570,TWO MILE4570,SUN
TWO ROCKS,6037,TWO ROCKS6037,PER
TYABB,3913,TYABB3913,MEL
ULEYBURY,5114,ULEYBURY5114,ADL
ULVERSTONE,7315,ULVERSTONE7315,DPO
UMINA BEACH,2257,UMINA BEACH2257,CCT
UNANDERRA,2526,UNANDERRA2526,WOL
UNDERDALE,5032,UNDERDALE5032,ADL
UNDERWOOD,4119,UNDERWOOD4119,BRI
UNDERWOOD,9600,UNDERWOOD9600,BRI
UNIVERSITY OF ADELAIDE,5005,UNIVERSITY OF ADELAIDE5005,ADL
UNIVERSITY OF CANBERRA,2617,UNIVERSITY OF CANBERRA2617,CBR
UNIVERSITY OF MELBOURNE,3010,UNIVERSITY OF MELBOURNE3010,MEL
UNIVERSITY OF QUEENSLAND,4072,UNIVERSITY OF QUEENSLAND4072,BRI
UNIVERSITY OF TASMANIA,7005,UNIVERSITY OF TASMANIA7005,TAS
UNIVERSITY OF WOLLONGONG,2522,UNIVERSITY OF WOLLONGONG2522,WOL
UNLEY,5061,UNLEY5061,ADL
UNLEY BC,5061,UNLEY BC5061,ADL
UNLEY DC,5061,UNLEY DC5061,ADL
UNLEY PARK,5061,UNLEY PARK5061,ADL
UPPER BROOKFIELD,4069,UPPER BROOKFIELD4069,BRI
UPPER BURNIE,7320,UPPER BURNIE7320,DPO
UPPER CABOOLTURE,4510,UPPER CABOOLTURE4510,BRI
UPPER COOMERA,4209,UPPER COOMERA4209,GLD
UPPER KEDRON,4055,UPPER KEDRON4055,BRI
UPPER MOUNT GRAVATT,4122,UPPER MOUNT GRAVATT4122,BRI
UPPER MOUNT GRAVATT BC,4122,UPPER MOUNT GRAVATT BC4122,BRI
UPPER SWAN,6069,UPPER SWAN6069,PER
UPPER THORA,2454,UPPER THORA2454,CFS
URANGAN,4655,URANGAN4655,MYB
URRAWEEN,4655,URRAWEEN4655,MYB
URRBRAE,5064,URRBRAE5064,ADL
URUNGA,2455,URUNGA2455,CFS
VALE PARK,5081,VALE PARK5081,ADL
VALE VIEW,4352,VALE VIEW4352,TOO
VALE VIEW,4358,VALE VIEW4358,TOO
VALENTINE,2280,VALENTINE2280,NEW
VALLA,2448,VALLA2448,CFS
VALLA BEACH,2448,VALLA BEACH2448,CFS
VALLEY HEIGHTS,2777,VALLEY HEIGHTS2777,SYD
VALLEY VIEW,5093,VALLEY VIEW5093,ADL
VARSITY LAKES,4227,VARSITY LAKES4227,GLD
VERADILLA,4347,VERADILLA4347,TOO
VERMONT,3133,VERMONT3133,MEL
VERMONT SOUTH,3133,VERMONT SOUTH3133,MEL
VERNOR,4306,VERNOR4306,TOO
VICTORIA GARDENS,3121,VICTORIA GARDENS3121,MEL
VICTORIA PARK,6100,VICTORIA PARK6100,PER
VICTORIA PARK,6979,VICTORIA PARK6979,PER
VICTORIA POINT,4165,VICTORIA POINT4165,BRI
VIEWBANK,3084,VIEWBANK3084,MEL
VIEWMONT,2448,VIEWMONT2448,CFS
VINCENT,4814,VINCENT4814,TVL
VINE VALE,5352,VINE VALE5352,ADL
VIRGINIA,4014,VIRGINIA4014,BRI
VIRGINIA,5120,VIRGINIA5120,ADL
VIRGINIA BC,4014,VIRGINIA BC4014,BRI
VIRGINIA DC,4014,VIRGINIA DC4014,BRI
VISTA,5091,VISTA5091,ADL
VIVEASH,6056,VIVEASH6056,PER
WACOL,4076,WACOL4076,BRI
WACOL EAST IMMIGRATION CENTRE,4076,WACOL EAST IMMIGRATION CENTRE4076,BRI
WADALBA,2259,WADALBA2259,CCT
WAGGA WAGGA,2650,WAGGA WAGGA2650,YNG
WAGGA WAGGA BC,2650,WAGGA WAGGA BC2650,YNG
WAGGA WAGGA NORTH,2650,WAGGA WAGGA NORTH2650,YNG
WAGGA WAGGA RAAF,2651,WAGGA WAGGA RAAF2651,YNG
WAGGA WAGGA SOUTH,2650,WAGGA WAGGA SOUTH2650,YNG
WAGSTAFFE,2257,WAGSTAFFE2257,CCT
WAHGUNYAH,3687,WAHGUNYAH3687,ALB
WAIKIKI,6169,WAIKIKI6169,PER
WAKEFIELD,2278,WAKEFIELD2278,NEW
WAKERLEY,4154,WAKERLEY4154,BRI
WALDARA,3678,WALDARA3678,ALB
WALKAMIN,4872,WALKAMIN4872,CNS
WALKERSTON,4751,WALKERSTON4751,MKY
WALKERVALE,4670,WALKERVALE4670,BDB
WALKERVILLE,5081,WALKERVILLE5081,ADL
WALKLEY HEIGHTS,5098,WALKLEY HEIGHTS5098,ADL
WALLABI POINT,2430,WALLABI POINT2430,PQQ
WALLACIA,2745,WALLACIA2745,SYD
WALLARAH,2259,WALLARAH2259,CCT
WALLIGAN,4655,WALLIGAN4655,MYB
WALLINGTON,3222,WALLINGTON3222,GEE
WALLISTON,6076,WALLISTON6076,PER
WALLISTON DC,6076,WALLISTON DC6076,PER
WALLISTON DC,6925,WALLISTON DC6925,PER
WALLSEND,2287,WALLSEND2287,NEW
WALLSEND SOUTH,2287,WALLSEND SOUTH2287,NEW
WAMBERAL,2260,WAMBERAL2260,CCT
WANDAL,4700,WANDAL4700,CAP
WANDANA HEIGHTS,3216,WANDANA HEIGHTS3216,GEE
WANDI,6167,WANDI6167,PER
WANGAN,4871,WANGAN4871,CNS
WANGARA,6065,WANGARA6065,PER
WANGARA DC,6065,WANGARA DC6065,PER
WANGARA DC,6947,WANGARA DC6947,PER
WANGARATTA,3676,WANGARATTA3676,ALB
WANGARATTA,3677,WANGARATTA3677,ALB
WANGARATTA FORWARD,3678,WANGARATTA FORWARD3678,ALB
WANGARATTA WEST,3677,WANGARATTA WEST3677,ALB
WANGETTI,4877,WANGETTI4877,CNS
WANGI WANGI,2267,WANGI WANGI2267,NEW
WANNANUP,6210,WANNANUP6210,PER
WANNEROO,6065,WANNEROO6065,PER
WANNEROO,6946,WANNEROO6946,PER
WANNIASSA,2903,WANNIASSA2903,CBR
WANTIRNA,3152,WANTIRNA3152,MEL
WANTIRNA SOUTH,3152,WANTIRNA SOUTH3152,MEL
WARABROOK,2304,WARABROOK2304,NEW
WARAMANGA,2611,WARAMANGA2611,CBR
WARANA,4575,WARANA4575,SUN
WARANA BEACH,4575,WARANA BEACH4575,SUN
WARATAH,2298,WARATAH2298,NEW
WARATAH WEST,2298,WARATAH WEST2298,NEW
WARILLA,2528,WARILLA2528,WOL
WARKWORTH,2330,WARKWORTH2330,NEW
WARNBRO,6169,WARNBRO6169,PER
WARNER,4500,WARNER4500,BRI
WARNERS BAY,2282,WARNERS BAY2282,NEW
WARNERVALE,2259,WARNERVALE2259,CCT
WARRADALE,5046,WARRADALE5046,ADL
WARRADALE NORTH,5046,WARRADALE NORTH5046,ADL
WARRAGAMBA,2752,WARRAGAMBA2752,SYD
WARRANE,7018,WARRANE7018,TAS
WARRANWOOD,3134,WARRANWOOD3134,MEL
WARRAWONG,2502,WARRAWONG2502,WOL
WARRELL CREEK,2447,WARRELL CREEK2447,CFS
WARRIMOO,2774,WARRIMOO2774,SYD
WARWICK,4370,WARWICK4370,TOO
WARWICK,6024,WARWICK6024,PER
WARWICK DC,4370,WARWICK DC4370,TOO
WATANOBBI,2259,WATANOBBI2259,CCT
WATERFORD,4133,WATERFORD4133,BRI
WATERFORD,6152,WATERFORD6152,PER
WATERFORD WEST,4133,WATERFORD WEST4133,BRI
WATERFRONT PLACE,4001,WATERFRONT PLACE4001,BRI
WATERLOO CORNER,5110,WATERLOO CORNER5110,ADL
WATERMANS BAY,6020,WATERMANS BAY6020,PER
WATERWAYS,3195,WATERWAYS3195,MEL
WATSON,2602,WATSON2602,CBR
WATSONIA,3087,WATSONIA3087,MEL
WATSONIA NORTH,3087,WATSONIA NORTH3087,MEL
WATTLE GROVE,6107,WATTLE GROVE6107,PER
WATTLE PARK,5066,WATTLE PARK5066,ADL
WATTLEUP,6166,WATTLEUP6166,PER
WAUCHOPE,2446,WAUCHOPE2446,PQQ
WAURN PONDS,3216,WAURN PONDS3216,GEE
WAVELL HEIGHTS,4012,WAVELL HEIGHTS4012,BRI
WAVELL HEIGHTS NORTH,4012,WAVELL HEIGHTS NORTH4012,BRI
WAVERLEY,7250,WAVERLEY7250,LAU
WAY WAY,2447,WAY WAY2447,CFS
WAYVILLE,5034,WAYVILLE5034,ADL
WEBB,4860,WEBB4860,CNS
WEDDERBURN,2560,WEDDERBURN2560,SYD
WEETANGERA,2614,WEETANGERA2614,CBR
WEIR VIEWS,3338,WEIR VIEWS3338,MEL
WELBY,2575,WELBY2575,WOL
WELCOME CREEK,4670,WELCOME CREEK4670,BDB
WELLAND,5007,WELLAND5007,ADL
WELLARD,6170,WELLARD6170,PER
WELLCAMP,4350,WELLCAMP4350,TOO
WELLERS HILL,4121,WELLERS HILL4121,BRI
WELLINGTON POINT,4160,WELLINGTON POINT4160,BRI
WELSHPOOL,6106,WELSHPOOL6106,PER
WELSHPOOL DC,6106,WELSHPOOL DC6106,PER
WELSHPOOL DC,6986,WELSHPOOL DC6986,PER
WEMBLEY,6014,WEMBLEY6014,PER
WEMBLEY,6913,WEMBLEY6913,PER
WEMBLEY DOWNS,6019,WEMBLEY DOWNS6019,PER
WENDOUREE,3355,WENDOUREE3355,GEE
WENDOUREE VILLAGE,3355,WENDOUREE VILLAGE3355,GEE
WENTWORTH FALLS,2782,WENTWORTH FALLS2782,SYD
WERRI BEACH,2534,WERRI BEACH2534,WOL
WERRIBEE,3030,WERRIBEE3030,MEL
WERRIBEE SOUTH,3030,WERRIBEE SOUTH3030,MEL
WEST ALBURY,2640,WEST ALBURY2640,ALB
WEST BALLINA,2478,WEST BALLINA2478,NTH
WEST BATHURST,2795,WEST BATHURST2795,OAG
WEST BEACH,5024,WEST BEACH5024,ADL
WEST BENDIGO,3550,WEST BENDIGO3550,BEN
WEST BURLEIGH,4219,WEST BURLEIGH4219,GLD
WEST CROYDON,5008,WEST CROYDON5008,ADL
WEST DEVONPORT,7310,WEST DEVONPORT7310,DPO
WEST END,4101,WEST END4101,BRI
WEST END,4810,WEST END4810,TVL
WEST FOOTSCRAY,3012,WEST FOOTSCRAY3012,MEL
WEST GOSFORD,2250,WEST GOSFORD2250,CCT
WEST HAVEN,2443,WEST HAVEN2443,PQQ
WEST HINDMARSH,5007,WEST HINDMARSH5007,ADL
WEST HOBART,7000,WEST HOBART7000,TAS
WEST IPSWICH,4305,WEST IPSWICH4305,BRI
WEST KEMPSEY,2440,WEST KEMPSEY2440,PQQ
WEST LAKES,5021,WEST LAKES5021,ADL
WEST LAKES SHORE,5020,WEST LAKES SHORE5020,ADL
WEST LAUNCESTON,7250,WEST LAUNCESTON7250,LAU
WEST LEEDERVILLE,6007,WEST LEEDERVILLE6007,PER
WEST LEEDERVILLE,6901,WEST LEEDERVILLE6901,PER
WEST MACKAY,4740,WEST MACKAY4740,MKY
WEST MELBOURNE,3003,WEST MELBOURNE3003,MEL
WEST MOONAH,7009,WEST MOONAH7009,TAS
WEST NOWRA,2541,WEST NOWRA2541,WOL
WEST PERTH,6005,WEST PERTH6005,PER
WEST RICHMOND,5033,WEST RICHMOND5033,ADL
WEST ROCKHAMPTON,4700,WEST ROCKHAMPTON4700,CAP
WEST SWAN,6055,WEST SWAN6055,PER
WEST ULVERSTONE,7315,WEST ULVERSTONE7315,DPO
WEST WALLSEND,2286,WEST WALLSEND2286,NEW
WEST WODONGA,3690,WEST WODONGA3690,ALB
WEST WOLLONGONG,2500,WEST WOLLONGONG2500,WOL
WEST WOOMBYE,4559,WEST WOOMBYE4559,SUN
WESTBOURNE PARK,5041,WESTBOURNE PARK5041,ADL
WESTBROOK,4350,WESTBROOK4350,TOO
WESTBURY,7303,WESTBURY7303,LAU
WESTCOURT,4870,WESTCOURT4870,CNS
WESTERN JUNCTION,7212,WESTERN JUNCTION7212,LAU
WESTFIELD,6111,WESTFIELD6111,PER
WESTLAKE,4074,WESTLAKE4074,BRI
WESTMEADOWS,3049,WESTMEADOWS3049,MEL
WESTMINSTER,6061,WESTMINSTER6061,PER
WESTON,2326,WESTON2326,NEW
WESTON,2611,WESTON2611,CBR
WESTON CREEK,2611,WESTON CREEK2611,CBR
WEYBA DOWNS,4562,WEYBA DOWNS4562,SUN
WHEELERS HILL,3150,WHEELERS HILL3150,MEL
WHINSTANES,4007,WHINSTANES4007,BRI
WHITE GUM VALLEY,6162,WHITE GUM VALLEY6162,PER
WHITE HILLS,3550,WHITE HILLS3550,BEN
WHITE PATCH,4507,WHITE PATCH4507,BRI
WHITE ROCK,2795,WHITE ROCK2795,OAG
WHITE ROCK,4868,WHITE ROCK4868,CNS
WHITEBRIDGE,2290,WHITEBRIDGE2290,NEW
WHITEMAN,6068,WHITEMAN6068,PER
WHITES HILL,4152,WHITES HILL4152,BRI
WHITES VALLEY,5172,WHITES VALLEY5172,ADL
WHITESIDE,4503,WHITESIDE4503,BRI
WHITFIELD,4870,WHITFIELD4870,CNS
WHITTINGHAM,2330,WHITTINGHAM2330,NEW
WHITTINGTON,3219,WHITTINGTON3219,GEE
WICKHAM,2293,WICKHAM2293,NEW
WILLAGEE,6156,WILLAGEE6156,PER
WILLAGEE CENTRAL,6156,WILLAGEE CENTRAL6156,PER
WILLASTON,5118,WILLASTON5118,ADL
WILLAWONG,4110,WILLAWONG4110,BRI
WILLETTON,6155,WILLETTON6155,PER
WILLETTON,6955,WILLETTON6955,PER
WILLIAMS LANDING,3027,WILLIAMS LANDING3027,MEL
WILLIAMS RAAF,3027,WILLIAMS RAAF3027,MEL
WILLIAMSTOWN,3016,WILLIAMSTOWN3016,MEL
WILLIAMSTOWN,5351,WILLIAMSTOWN5351,ADL
WILLIAMSTOWN NORTH,3016,WILLIAMSTOWN NORTH3016,MEL
WILLIAMTOWN,2318,WILLIAMTOWN2318,NEW
WILLIAMTOWN RAAF,2314,WILLIAMTOWN RAAF2314,NEW
WILLOW VALE,2534,WILLOW VALE2534,WOL
WILLOW VALE,2575,WILLOW VALE2575,WOL
WILLOW VALE,4209,WILLOW VALE4209,GLD
WILLUNGA,5172,WILLUNGA5172,ADL
WILLUNGA SOUTH,5172,WILLUNGA SOUTH5172,ADL
WILSON,6107,WILSON6107,PER
WILSONTON,4350,WILSONTON4350,TOO
WILSONTON HEIGHTS,4350,WILSONTON HEIGHTS4350,TOO
WILSTON,4051,WILSTON4051,BRI
WILTON,2571,WILTON2571,WOL
WINDALE,2306,WINDALE2306,NEW
WINDANG,2528,WINDANG2528,WOL
WINDAROO,4207,WINDAROO4207,BRI
WINDELLA,2320,WINDELLA2320,NEW
WINDERMERE,4670,WINDERMERE4670,BDB
WINDERMERE,7252,WINDERMERE7252,LAU
WINDERMERE PARK,2264,WINDERMERE PARK2264,NEW
WINDRADYNE,2795,WINDRADYNE2795,OAG
WINDSOR,3181,WINDSOR3181,MEL
WINDSOR,4030,WINDSOR4030,BRI
WINDSOR GARDENS,5087,WINDSOR GARDENS5087,ADL
WINGFIELD,5013,WINGFIELD5013,ADL
WINGHAM,2429,WINGHAM2429,PQQ
WINMALEE,2777,WINMALEE2777,SYD
WINTER VALLEY,3358,WINTER VALLEY3358,GEE
WINTERGARDEN,4002,WINTERGARDEN4002,BRI
WINTHROP,6150,WINTHROP6150,PER
WIRLINGA,2640,WIRLINGA2640,ALB
WISHART,4122,WISHART4122,BRI
WITHCOTT,4352,WITHCOTT4352,TOO
WIVENHOE,7320,WIVENHOE7320,DPO
WODEN,2606,WODEN2606,CBR
WODONGA,3689,WODONGA3689,ALB
WODONGA,3690,WODONGA3690,ALB
WODONGA FORWARD,3691,WODONGA FORWARD3691,ALB
WODONGA PLAZA,3690,WODONGA PLAZA3690,ALB
WOLLONGBAR,2477,WOLLONGBAR2477,NTH
WOLLONGONG,2500,WOLLONGONG2500,WOL
WOLLONGONG,2520,WOLLONGONG2520,WOL
WOLLONGONG DC,2500,WOLLONGONG DC2500,WOL
WOLLONGONG NORTH,2500,WOLLONGONG NORTH2500,WOL
WOLLONGONG WEST,2500,WOLLONGONG WEST2500,WOL
WOMBARRA,2515,WOMBARRA2515,WOL
WOMINA,4370,WOMINA4370,TOO
WONDUNNA,4655,WONDUNNA4655,MYB
WONGAWALLAN,4210,WONGAWALLAN4210,GLD
WONGAWILLI,2530,WONGAWILLI2530,WOL
WOODBERRY,2322,WOODBERRY2322,NEW
WOODBRIDGE,6056,WOODBRIDGE6056,PER
WOODCROFT,5162,WOODCROFT5162,ADL
WOODEND,4305,WOODEND4305,BRI
WOODFORD,2778,WOODFORD2778,SYD
WOODFORDE,5072,WOODFORDE5072,ADL
WOODGATE,4660,WOODGATE4660,BDB
WOODLANDS,4343,WOODLANDS4343,TOO
WOODLANDS,6018,WOODLANDS6018,PER
WOODRIDGE,4114,WOODRIDGE4114,BRI
WOODRIDGE EAST,4114,WOODRIDGE EAST4114,BRI
WOODRISING,2284,WOODRISING2284,NEW
WOODSTOCK,4816,WOODSTOCK4816,TVL
WOODVALE,6026,WOODVALE6026,PER
WOODVILLE,5011,WOODVILLE5011,ADL
WOODVILLE GARDENS,5012,WOODVILLE GARDENS5012,ADL
WOODVILLE NORTH,5012,WOODVILLE NORTH5012,ADL
WOODVILLE PARK,5011,WOODVILLE PARK5011,ADL
WOODVILLE SOUTH,5011,WOODVILLE SOUTH5011,ADL
WOODVILLE WEST,5011,WOODVILLE WEST5011,ADL
WOODY POINT,4019,WOODY POINT4019,BRI
WOOLGOOLGA,2456,WOOLGOOLGA2456,CFS
WOOLLOONGABBA,4102,WOOLLOONGABBA4102,BRI
WOOLMER,4352,WOOLMER4352,TOO
WOOLOOWIN,4030,WOOLOOWIN4030,BRI
WOOLOWEYAH,2464,WOOLOWEYAH2464,NTH
WOOMBYE,4559,WOOMBYE4559,SUN
WOONGARRA,4670,WOONGARRA4670,BDB
WOONGARRAH,2259,WOONGARRAH2259,CCT
WOONONA,2517,WOONONA2517,WOL
WOONONA EAST,2517,WOONONA EAST2517,WOL
WOORIM,4507,WOORIM4507,BRI
WOREE,4868,WOREE4868,CNS
WORLD TRADE CENTRE,3005,WORLD TRADE CENTRE3005,MEL
WORONGARY,4213,WORONGARY4213,GLD
WORRIGEE,2540,WORRIGEE2540,WOL
WOY WOY,2256,WOY WOY2256,CCT
WOY WOY BAY,2256,WOY WOY BAY2256,CCT
WRIGHT,2611,WRIGHT2611,CBR
WULGURU,4811,WULGURU4811,TVL
WULKURAKA,4305,WULKURAKA4305,BRI
WUNDARU,4740,WUNDARU4740,MKY
WUNGONG,6112,WUNGONG6112,PER
WURTULLA,4575,WURTULLA4575,SUN
WYALLA PLAZA,4350,WYALLA PLAZA4350,TOO
WYEE,2259,WYEE2259,CCT
WYEE POINT,2259,WYEE POINT2259,CCT
WYNDHAM VALE,3024,WYNDHAM VALE3024,MEL
WYNN VALE,5127,WYNN VALE5127,ADL
WYNNUM,4178,WYNNUM4178,BRI
WYNNUM CENTRAL,4178,WYNNUM CENTRAL4178,BRI
WYNNUM NORTH,4178,WYNNUM NORTH4178,BRI
WYNNUM PLAZA,4178,WYNNUM PLAZA4178,BRI
WYNNUM WEST,4178,WYNNUM WEST4178,BRI
WYNYARD,7325,WYNYARD7325,DPO
WYOMING,2250,WYOMING2250,CCT
WYONG,2259,WYONG2259,CCT
WYONGAH,2259,WYONGAH2259,CCT
WYREEMA,4352,WYREEMA4352,TOO
YABULU,4818,YABULU4818,TVL
YACKANDANDAH,3749,YACKANDANDAH3749,ALB
YAKAPARI,4740,YAKAPARI4740,MKY
YALLAH,2530,YALLAH2530,WOL
YALLAMBIE,3085,YALLAMBIE3085,MEL
YAMANTO,4305,YAMANTO4305,BRI
YAMBA,2464,YAMBA2464,NTH
YANCHEP,6035,YANCHEP6035,PER
YANDERRA,2574,YANDERRA2574,WOL
YANDINA,4561,YANDINA4561,SUN
YANDINA CREEK,4561,YANDINA CREEK4561,SUN
YANGEBUP,6164,YANGEBUP6164,PER
YAROOMBA,4573,YAROOMBA4573,SUN
YARRABILBA,4207,YARRABILBA4207,BRI
YARRAHAPINNI,2441,YARRAHAPINNI2441,CFS
YARRALUMLA,2600,YARRALUMLA2600,CBR
YARRAVILLE,3013,YARRAVILLE3013,MEL
YARRAVILLE WEST,3013,YARRAVILLE WEST3013,MEL
YARRAWONGA,3730,YARRAWONGA3730,ALB
YARRAWONGA,4810,YARRAWONGA4810,TVL
YARRAWONGA PARK,2264,YARRAWONGA PARK2264,NEW
YATALA,4207,YATALA4207,BRI
YATALA DC,4207,YATALA DC4207,BRI
YATALA VALE,5126,YATALA VALE5126,ADL
YATTALUNGA,2251,YATTALUNGA2251,CCT
YATTALUNGA,5114,YATTALUNGA5114,ADL
YEERONGPILLY,4105,YEERONGPILLY4105,BRI
YELLOW ROCK,2527,YELLOW ROCK2527,WOL
YELLOW ROCK,2777,YELLOW ROCK2777,SYD
YELLOW WOOD,4207,YELLOW WOOD4207,BRI
YENDA,2681,YENDA2681,YNG
YEPPOON,4703,YEPPOON4703,CAP
YERONGA,4104,YERONGA4104,BRI
YERONGA WEST,4104,YERONGA WEST4104,BRI
YERRINBOOL,2575,YERRINBOOL2575,WOL
YIPPIN CREEK,2446,YIPPIN CREEK2446,PQQ
YOKINE,6060,YOKINE6060,PER
YOKINE SOUTH,6060,YOKINE SOUTH6060,PER
YOOGALI,2680,YOOGALI2680,YNG
YORKEYS KNOB,4878,YORKEYS KNOB4878,CNS
YOUNG,2594,YOUNG2594,YNG
YOUNGTOWN,7249,YOUNGTOWN7249,LAU
YUNGABURRA,4884,YUNGABURRA4884,CNS
ZILLMERE,4034,ZILLMERE4034,BRI
ZILZIE,4710,ZILZIE4710,CAP
